{"type":"FeatureCollection","features":[{"type":"Feature","id":"875621203","geometry":{"type":"Point","coordinates":[110.218538,-7.661175]},"properties":{"dataset":"fasum","name":"Masjid Miftahul Huda","subtitle":"Masjid","padukuhan":"Tanjung","address":"Padukuhan Tanjung, RT 56 RW 27","facets":["Masjid"],"details":[{"label":"Kondisi","value":"Baik"}],"phone":null,"photos":["/photos/fasum/875621203-depan.webp","/photos/fasum/875621203-samping.webp","/photos/fasum/875621203-lainnya.webp"],"gpsPrecision":4.886}},{"type":"Feature","id":"875621213","geometry":{"type":"Point","coordinates":[110.218213,-7.66119]},"properties":{"dataset":"fasum","name":"Paud Parikesit","subtitle":"Sekolah","padukuhan":"Tanjung","address":"Padukuhan Tanjung, RT 56 RW 27","facets":["Sekolah"],"details":[{"label":"Kondisi","value":"Baik"},{"label":"Keterangan","value":"Sekolah numpang di rumah warga (bapak ngatijan)"}],"phone":null,"photos":["/photos/fasum/875621213-depan.webp","/photos/fasum/875621213-samping.webp","/photos/fasum/875621213-lainnya.webp"],"gpsPrecision":4.941}},{"type":"Feature","id":"875621782","geometry":{"type":"Point","coordinates":[110.217943,-7.660889]},"properties":{"dataset":"fasum","name":"Toren Rt 56","subtitle":"Penampungan air bersih","padukuhan":"Tanjung","address":"Padukuhan Tanjung, RT 56 RW 27","facets":["Penampungan air bersih"],"details":[{"label":"Kondisi","value":"Baik"},{"label":"Keterangan","value":"Dikelola warga RT 56, belum ada atap"}],"phone":null,"photos":["/photos/fasum/875621782-depan.webp","/photos/fasum/875621782-samping.webp"],"gpsPrecision":4.901}},{"type":"Feature","id":"875638504","geometry":{"type":"Point","coordinates":[110.220866,-7.665695]},"properties":{"dataset":"fasum","name":"Pos kampling rt58/28","subtitle":"Poskamling","padukuhan":"Kajoran","address":"Padukuhan Kajoran, RT 58 RW 28","facets":["Poskamling"],"details":[{"label":"Kondisi","value":"Rusak ringan"}],"phone":null,"photos":["/photos/fasum/875638504-depan.webp","/photos/fasum/875638504-samping.webp"],"gpsPrecision":4.357}},{"type":"Feature","id":"875638515","geometry":{"type":"Point","coordinates":[110.221057,-7.665572]},"properties":{"dataset":"fasum","name":"Makam Padukuhan Kajoran","subtitle":"Makam","padukuhan":"Kajoran","address":"Padukuhan Kajoran, RT 58 RW 28","facets":["Makam"],"details":[{"label":"Kondisi","value":"Baik"}],"phone":null,"photos":["/photos/fasum/875638515-depan.webp","/photos/fasum/875638515-samping.webp"],"gpsPrecision":4.854}},{"type":"Feature","id":"875638524","geometry":{"type":"Point","coordinates":[110.220925,-7.665699]},"properties":{"dataset":"fasum","name":"Pos Kampling","subtitle":"Poskamling","padukuhan":"Kajoran","address":"Padukuhan Kajoran, RT 58 RW 28","facets":["Poskamling"],"details":[{"label":"Kondisi","value":"Rusak ringan"},{"label":"Keterangan","value":"Lantai rusak"}],"phone":null,"photos":["/photos/fasum/875638524-depan.webp","/photos/fasum/875638524-samping.webp"],"gpsPrecision":4.126}},{"type":"Feature","id":"875663140","geometry":{"type":"Point","coordinates":[110.25204,-7.644745]},"properties":{"dataset":"fasum","name":"Pasar Jagalan","subtitle":"Pasar","padukuhan":"Beji","address":"Padukuhan Beji, RT 35 RW 17","facets":["Pasar"],"details":[{"label":"Kondisi","value":"Baik"},{"label":"Keterangan","value":"Dikelola BUMDES, DINAS PERDAGANGAN, DINAS PEEHUBUNGAN, DESA"}],"phone":null,"photos":["/photos/fasum/875663140-depan.webp","/photos/fasum/875663140-samping.webp"],"gpsPrecision":4.2}},{"type":"Feature","id":"875663198","geometry":{"type":"Point","coordinates":[110.251905,-7.644799]},"properties":{"dataset":"fasum","name":"Pos kamling","subtitle":"Poskamling","padukuhan":"Beji","address":"Padukuhan Beji, RT 35 RW 17","facets":["Poskamling"],"details":[{"label":"Kondisi","value":"Rusak ringan"},{"label":"Keterangan","value":"Atap rusak dan bocor"}],"phone":null,"photos":["/photos/fasum/875663198-depan.webp","/photos/fasum/875663198-samping.webp"],"gpsPrecision":4.43}},{"type":"Feature","id":"875663212","geometry":{"type":"Point","coordinates":[110.251874,-7.644961]},"properties":{"dataset":"fasum","name":"Pustu Klangon","subtitle":"Puskesmas Pembantu","padukuhan":"Beji","address":"Padukuhan Beji, RT 35 RW 17","facets":["Puskesmas Pembantu"],"details":[{"label":"Kondisi","value":"Baik"}],"phone":null,"photos":["/photos/fasum/875663212-depan.webp","/photos/fasum/875663212-samping.webp"],"gpsPrecision":3.1}},{"type":"Feature","id":"875673253","geometry":{"type":"Point","coordinates":[110.246871,-7.66043]},"properties":{"dataset":"fasum","name":"Poskampling RT 79","subtitle":"Poskamling","padukuhan":"Puguh","address":"Padukuhan Puguh, RT 79 RW 38","facets":["Poskamling"],"details":[{"label":"Kondisi","value":"Rusak ringan"},{"label":"Keterangan","value":"Atap bocor, usuk keropos, tempat duduk roboh"}],"phone":null,"photos":["/photos/fasum/875673253-depan.webp","/photos/fasum/875673253-samping.webp"],"gpsPrecision":4.973}},{"type":"Feature","id":"875673318","geometry":{"type":"Point","coordinates":[110.24679,-7.660698]},"properties":{"dataset":"fasum","name":"Lapangan rt79","subtitle":"Lapangan","padukuhan":"Puguh","address":"Padukuhan Puguh, RT 79 RW 38","facets":["Lapangan"],"details":[{"label":"Kondisi","value":"Baik"},{"label":"Keterangan","value":"Di kelola pemuda²"}],"phone":null,"photos":["/photos/fasum/875673318-depan.webp","/photos/fasum/875673318-samping.webp"],"gpsPrecision":4.734}},{"type":"Feature","id":"875696013","geometry":{"type":"Point","coordinates":[110.238002,-7.661218]},"properties":{"dataset":"fasum","name":"Al Iman","subtitle":"Masjid","padukuhan":"Tonogoro","address":"Padukuhan Tonogoro, RT 76 RW 36","facets":["Masjid"],"details":[{"label":"Kondisi","value":"Baik"}],"phone":null,"photos":["/photos/fasum/875696013-depan.webp","/photos/fasum/875696013-samping.webp"],"gpsPrecision":5.187}},{"type":"Feature","id":"875722113","geometry":{"type":"Point","coordinates":[110.254887,-7.670585]},"properties":{"dataset":"fasum","name":"Masjid Nurul Hidayah","subtitle":"Masjid","padukuhan":"Pantog Kulon","address":"Padukuhan Pantog Kulon, RT 7 RW 4","facets":["Masjid"],"details":[{"label":"Kondisi","value":"Baik"}],"phone":null,"photos":["/photos/fasum/875722113-depan.webp","/photos/fasum/875722113-samping.webp"],"gpsPrecision":4.313}},{"type":"Feature","id":"875907118","geometry":{"type":"Point","coordinates":[110.225362,-7.651757]},"properties":{"dataset":"fasum","name":"Poskamling rt46","subtitle":"Poskamling","padukuhan":"Plengan","address":"Padukuhan Plengan, RT 46 RW 22","facets":["Poskamling"],"details":[{"label":"Kondisi","value":"Rusak berat"},{"label":"Keterangan","value":"Atap bocor, dinding rusak"}],"phone":null,"photos":["/photos/fasum/875907118-depan.webp","/photos/fasum/875907118-samping.webp","/photos/fasum/875907118-lainnya.webp"],"gpsPrecision":4.77}},{"type":"Feature","id":"875913937","geometry":{"type":"Point","coordinates":[110.261296,-7.661658]},"properties":{"dataset":"fasum","name":"Lapangan Volly Jambu","subtitle":"Lapangan","padukuhan":"Slanden","address":"Padukuhan Slanden, RT 16 RW 8","facets":["Lapangan"],"details":[{"label":"Kondisi","value":"Rusak ringan"},{"label":"Keterangan","value":"Beberapa jaring pinggir lapangan ada yang putus"}],"phone":null,"photos":["/photos/fasum/875913937-depan.webp","/photos/fasum/875913937-samping.webp"],"gpsPrecision":4.733}},{"type":"Feature","id":"875914008","geometry":{"type":"Point","coordinates":[110.260951,-7.662057]},"properties":{"dataset":"fasum","name":"Kapel Santo Martinus","subtitle":"Kapel","padukuhan":"Slanden","address":"Padukuhan Slanden, RT 19 RW 9","facets":["Kapel"],"details":[{"label":"Kondisi","value":"Baik"}],"phone":null,"photos":["/photos/fasum/875914008-depan.webp","/photos/fasum/875914008-samping.webp","/photos/fasum/875914008-lainnya.webp"],"gpsPrecision":3.542}},{"type":"Feature","id":"875977316","geometry":{"type":"Point","coordinates":[110.220517,-7.666614]},"properties":{"dataset":"fasum","name":"Tempat Ibadah","subtitle":"Kapel","padukuhan":"Kajoran","address":"Padukuhan Kajoran, RT 59 RW 28","facets":["Kapel"],"details":[{"label":"Kondisi","value":"Baik"}],"phone":null,"photos":["/photos/fasum/875977316-depan.webp","/photos/fasum/875977316-samping.webp"],"gpsPrecision":4.866}},{"type":"Feature","id":"876117059","geometry":{"type":"Point","coordinates":[110.237393,-7.660499]},"properties":{"dataset":"fasum","name":"Poskamling rt 76","subtitle":"Poskamling","padukuhan":"Tonogoro","address":"Padukuhan Tonogoro, RT 76 RW 36","facets":["Poskamling"],"details":[{"label":"Kondisi","value":"Rusak ringan"}],"phone":null,"photos":["/photos/fasum/876117059-depan.webp","/photos/fasum/876117059-samping.webp"],"gpsPrecision":4}},{"type":"Feature","id":"876117109","geometry":{"type":"Point","coordinates":[110.235281,-7.659183]},"properties":{"dataset":"fasum","name":"Embung tonogoro","subtitle":"Embung","padukuhan":"Tonogoro","address":"Padukuhan Tonogoro, RT 76 RW 36","facets":["Embung"],"details":[{"label":"Kondisi","value":"Rusak ringan"},{"label":"Keterangan","value":"Embung tadah hujan, untuk perairan pertanian"}],"phone":null,"photos":["/photos/fasum/876117109-depan.webp","/photos/fasum/876117109-samping.webp","/photos/fasum/876117109-lainnya.webp"],"gpsPrecision":6.129}},{"type":"Feature","id":"876123676","geometry":{"type":"Point","coordinates":[110.257115,-7.644638]},"properties":{"dataset":"fasum","name":"Makam Ngringin","subtitle":"Makam","padukuhan":"Klangon","address":"Padukuhan Klangon, RT 29 RW 14","facets":["Makam"],"details":[{"label":"Kondisi","value":"Baik"}],"phone":null,"photos":["/photos/fasum/876123676-depan.webp","/photos/fasum/876123676-samping.webp"],"gpsPrecision":3.2}},{"type":"Feature","id":"876123728","geometry":{"type":"Point","coordinates":[110.25462,-7.644328]},"properties":{"dataset":"fasum","name":"Makam Sentono","subtitle":"Makam","padukuhan":"Klangon","address":"Padukuhan Klangon, RT 29 RW 14","facets":["Makam"],"details":[{"label":"Kondisi","value":"Rusak ringan"}],"phone":null,"photos":["/photos/fasum/876123728-depan.webp","/photos/fasum/876123728-samping.webp"],"gpsPrecision":3.7}},{"type":"Feature","id":"876124983","geometry":{"type":"Point","coordinates":[110.257586,-7.649817]},"properties":{"dataset":"fasum","name":"Masjid Alma'un","subtitle":"Masjid","padukuhan":"Klangon","address":"Padukuhan Klangon, RT 31 RW 15","facets":["Masjid"],"details":[{"label":"Kondisi","value":"Baik"}],"phone":null,"photos":["/photos/fasum/876124983-depan.webp","/photos/fasum/876124983-samping.webp"],"gpsPrecision":4.2}},{"type":"Feature","id":"876125034","geometry":{"type":"Point","coordinates":[110.257435,-7.649018]},"properties":{"dataset":"fasum","name":"Poskampling","subtitle":"Poskamling","padukuhan":"Klangon","address":"Padukuhan Klangon, RT 31 RW 15","facets":["Poskamling"],"details":[{"label":"Kondisi","value":"Baik"}],"phone":null,"photos":["/photos/fasum/876125034-depan.webp","/photos/fasum/876125034-samping.webp"],"gpsPrecision":4.53}},{"type":"Feature","id":"876139628","geometry":{"type":"Point","coordinates":[110.261439,-7.672298]},"properties":{"dataset":"fasum","name":"Posyandu melati 2 Banjaran","subtitle":"Posyandu","padukuhan":"Banjaran","address":"Padukuhan Banjaran, RT 11 RW 6","facets":["Posyandu"],"details":[{"label":"Kondisi","value":"Baik"}],"phone":null,"photos":["/photos/fasum/876139628-depan.webp","/photos/fasum/876139628-samping.webp"],"gpsPrecision":4.687}},{"type":"Feature","id":"876139912","geometry":{"type":"Point","coordinates":[110.258879,-7.668007]},"properties":{"dataset":"fasum","name":"Poskamling RT 13","subtitle":"Poskamling","padukuhan":"Banjaran","address":"Padukuhan Banjaran, RT 13 RW 7","facets":["Poskamling"],"details":[{"label":"Kondisi","value":"Baik"}],"phone":null,"photos":["/photos/fasum/876139912-depan.webp","/photos/fasum/876139912-samping.webp"],"gpsPrecision":4.502}},{"type":"Feature","id":"876140184","geometry":{"type":"Point","coordinates":[110.259403,-7.672234]},"properties":{"dataset":"fasum","name":"Makam candi wulan","subtitle":"Makam","padukuhan":"Banjaran","address":"Padukuhan Banjaran, RT 12 RW 6","facets":["Makam"],"details":[{"label":"Kondisi","value":"Baik"}],"phone":null,"photos":["/photos/fasum/876140184-depan.webp","/photos/fasum/876140184-samping.webp"],"gpsPrecision":3.797}},{"type":"Feature","id":"876140253","geometry":{"type":"Point","coordinates":[110.260655,-7.671158]},"properties":{"dataset":"fasum","name":"Lapangan RT 11","subtitle":"Lapangan","padukuhan":"Banjaran","address":"Padukuhan Banjaran, RT 11 RW 6","facets":["Lapangan"],"details":[{"label":"Kondisi","value":"Baik"}],"phone":null,"photos":["/photos/fasum/876140253-depan.webp","/photos/fasum/876140253-samping.webp"],"gpsPrecision":4.643}},{"type":"Feature","id":"876152766","geometry":{"type":"Point","coordinates":[110.217474,-7.650442]},"properties":{"dataset":"fasum","name":"Pos Ronda RT 050/RW 024","subtitle":"Poskamling","padukuhan":"Duren Sawit","address":"Padukuhan Duren Sawit, RT 50 RW 24","facets":["Poskamling"],"details":[{"label":"Kondisi","value":"Rusak ringan"},{"label":"Keterangan","value":"Bagian atap Kropos dan genteng beberapa pecah"}],"phone":null,"photos":["/photos/fasum/876152766-depan.webp","/photos/fasum/876152766-samping.webp"],"gpsPrecision":4.999}},{"type":"Feature","id":"876152870","geometry":{"type":"Point","coordinates":[110.218553,-7.651593]},"properties":{"dataset":"fasum","name":"Kapel wilayah Duren Sawit","subtitle":"Kapel","padukuhan":"Duren Sawit","address":"Padukuhan Duren Sawit, RT 50 RW 24","facets":["Kapel"],"details":[{"label":"Kondisi","value":"Rusak ringan"}],"phone":null,"photos":["/photos/fasum/876152870-depan.webp","/photos/fasum/876152870-samping.webp","/photos/fasum/876152870-lainnya.webp"],"gpsPrecision":1.4}},{"type":"Feature","id":"876153935","geometry":{"type":"Point","coordinates":[110.231899,-7.655251]},"properties":{"dataset":"fasum","name":"Poskamling GERBANG WARGA RT 43 RW 21","subtitle":"Poskamling","padukuhan":"Dlingseng","address":"Padukuhan Dlingseng, RT 43 RW 21","facets":["Poskamling"],"details":[{"label":"Kondisi","value":"Baik"}],"phone":null,"photos":["/photos/fasum/876153935-depan.webp","/photos/fasum/876153935-samping.webp"],"gpsPrecision":4.886}},{"type":"Feature","id":"876153969","geometry":{"type":"Point","coordinates":[110.231903,-7.655152]},"properties":{"dataset":"fasum","name":"POSYANDU MENUR","subtitle":"Posyandu","padukuhan":"Dlingseng","address":"Padukuhan Dlingseng, RT 43 RW 21","facets":["Posyandu"],"details":[{"label":"Kondisi","value":"Baik"}],"phone":null,"photos":["/photos/fasum/876153969-depan.webp","/photos/fasum/876153969-samping.webp"],"gpsPrecision":4.439}},{"type":"Feature","id":"876706597","geometry":{"type":"Point","coordinates":[110.256323,-7.647807]},"properties":{"dataset":"fasum","name":"Pos kampling rt 30","subtitle":"Poskamling","padukuhan":"Klangon","address":"Padukuhan Klangon, RT 30 RW 15","facets":["Poskamling"],"details":[{"label":"Kondisi","value":"Baik"}],"phone":null,"photos":["/photos/fasum/876706597-depan.webp","/photos/fasum/876706597-samping.webp","/photos/fasum/876706597-lainnya.webp"],"gpsPrecision":4.287}},{"type":"Feature","id":"876920387","geometry":{"type":"Point","coordinates":[110.217764,-7.650659]},"properties":{"dataset":"fasum","name":"Masjid An-Nur","subtitle":"Masjid","padukuhan":"Duren Sawit","address":"Padukuhan Duren Sawit, RT 50 RW 24","facets":["Masjid"],"details":[{"label":"Kondisi","value":"Baik"}],"phone":null,"photos":["/photos/fasum/876920387-depan.webp","/photos/fasum/876920387-samping.webp","/photos/fasum/876920387-lainnya.webp"],"gpsPrecision":2.501}},{"type":"Feature","id":"877121600","geometry":{"type":"Point","coordinates":[110.242941,-7.663042]},"properties":{"dataset":"fasum","name":"Baiturrohman","subtitle":"Masjid","padukuhan":"Tonogoro","address":"Padukuhan Tonogoro, RT 76 RW 36","facets":["Masjid"],"details":[{"label":"Kondisi","value":"Baik"}],"phone":null,"photos":["/photos/fasum/877121600-depan.webp","/photos/fasum/877121600-samping.webp"],"gpsPrecision":8.275}},{"type":"Feature","id":"877121701","geometry":{"type":"Point","coordinates":[110.242937,-7.662847]},"properties":{"dataset":"fasum","name":"Poskamling rt 75","subtitle":"Poskamling","padukuhan":"Tonogoro","address":"Padukuhan Tonogoro, RT 75 RW 36","facets":["Poskamling"],"details":[{"label":"Kondisi","value":"Rusak ringan"}],"phone":null,"photos":["/photos/fasum/877121701-depan.webp","/photos/fasum/877121701-samping.webp","/photos/fasum/877121701-lainnya.webp"],"gpsPrecision":8.385}},{"type":"Feature","id":"877121742","geometry":{"type":"Point","coordinates":[110.243577,-7.663528]},"properties":{"dataset":"fasum","name":"Makam njeblok","subtitle":"Makam","padukuhan":"Tonogoro","address":"Padukuhan Tonogoro, RT 75 RW 36","facets":["Makam"],"details":[{"label":"Kondisi","value":"Baik"}],"phone":null,"photos":["/photos/fasum/877121742-depan.webp","/photos/fasum/877121742-samping.webp"],"gpsPrecision":4.932}},{"type":"Feature","id":"877121834","geometry":{"type":"Point","coordinates":[110.243118,-7.663995]},"properties":{"dataset":"fasum","name":"Makam njangkang","subtitle":"Makam","padukuhan":"Tonogoro","address":"Padukuhan Tonogoro, RT 75 RW 36","facets":["Makam"],"details":[{"label":"Kondisi","value":"Rusak ringan"}],"phone":null,"photos":["/photos/fasum/877121834-depan.webp","/photos/fasum/877121834-samping.webp","/photos/fasum/877121834-lainnya.webp"],"gpsPrecision":5.509}},{"type":"Feature","id":"877123016","geometry":{"type":"Point","coordinates":[110.251715,-7.647681]},"properties":{"dataset":"fasum","name":"Pos kamling Rt 33","subtitle":"Poskamling","padukuhan":"Beji","address":"Padukuhan Beji, RT 33 RW 16","facets":["Poskamling"],"details":[{"label":"Kondisi","value":"Baik"}],"phone":null,"photos":["/photos/fasum/877123016-depan.webp","/photos/fasum/877123016-samping.webp"],"gpsPrecision":4.955}},{"type":"Feature","id":"877146419","geometry":{"type":"Point","coordinates":[110.233739,-7.663133]},"properties":{"dataset":"fasum","name":"Lapangan mengger","subtitle":"Lapangan","padukuhan":"Promasan","address":"Padukuhan Promasan, RT 68 RW 33","facets":["Lapangan"],"details":[{"label":"Kondisi","value":"Baik"}],"phone":null,"photos":["/photos/fasum/877146419-depan.webp","/photos/fasum/877146419-samping.webp"],"gpsPrecision":4.895}},{"type":"Feature","id":"877146501","geometry":{"type":"Point","coordinates":[110.23198,-7.665633]},"properties":{"dataset":"fasum","name":"Makam PROMASAN","subtitle":"Makam","padukuhan":"Promasan","address":"Padukuhan Promasan, RT 68 RW 33","facets":["Makam"],"details":[{"label":"Kondisi","value":"Baik"}],"phone":null,"photos":["/photos/fasum/877146501-depan.webp","/photos/fasum/877146501-samping.webp"],"gpsPrecision":4.67}},{"type":"Feature","id":"877146536","geometry":{"type":"Point","coordinates":[110.232899,-7.665798]},"properties":{"dataset":"fasum","name":"Makam PROMASAN","subtitle":"Makam","padukuhan":"Promasan","address":"Padukuhan Promasan, RT 68 RW 33","facets":["Makam"],"details":[{"label":"Kondisi","value":"Baik"}],"phone":null,"photos":["/photos/fasum/877146536-depan.webp","/photos/fasum/877146536-samping.webp"],"gpsPrecision":4.347}},{"type":"Feature","id":"877146588","geometry":{"type":"Point","coordinates":[110.233226,-7.666429]},"properties":{"dataset":"fasum","name":"Kapel St.yakobus","subtitle":"Kapel","padukuhan":"Promasan","address":"Padukuhan Promasan, RT 67 RW 32","facets":["Kapel"],"details":[{"label":"Kondisi","value":"Baik"}],"phone":null,"photos":["/photos/fasum/877146588-depan.webp","/photos/fasum/877146588-samping.webp"],"gpsPrecision":4.667}},{"type":"Feature","id":"877146622","geometry":{"type":"Point","coordinates":[110.234781,-7.666225]},"properties":{"dataset":"fasum","name":"Gereja Santa perawan Maria lourdes","subtitle":"Gereja","padukuhan":"Promasan","address":"Padukuhan Promasan, RT 67 RW 32","facets":["Gereja"],"details":[{"label":"Kondisi","value":"Baik"}],"phone":null,"photos":["/photos/fasum/877146622-depan.webp","/photos/fasum/877146622-samping.webp"],"gpsPrecision":4.508}},{"type":"Feature","id":"877146648","geometry":{"type":"Point","coordinates":[110.234884,-7.665944]},"properties":{"dataset":"fasum","name":"WISMA IBU","subtitle":"WISMA","padukuhan":"Promasan","address":"Padukuhan Promasan, RT 67 RW 32","facets":["WISMA"],"details":[{"label":"Kondisi","value":"Baik"}],"phone":null,"photos":["/photos/fasum/877146648-depan.webp","/photos/fasum/877146648-samping.webp"],"gpsPrecision":4.964}},{"type":"Feature","id":"877146682","geometry":{"type":"Point","coordinates":[110.234613,-7.665902]},"properties":{"dataset":"fasum","name":"SMPk kemasyarakatan Kalibawang","subtitle":"Sekolah","padukuhan":"Promasan","address":"Padukuhan Promasan, RT 67 RW 32","facets":["Sekolah"],"details":[{"label":"Kondisi","value":"Baik"}],"phone":null,"photos":["/photos/fasum/877146682-depan.webp","/photos/fasum/877146682-samping.webp"],"gpsPrecision":4.572}},{"type":"Feature","id":"877156245","geometry":{"type":"Point","coordinates":[110.246007,-7.665363]},"properties":{"dataset":"fasum","name":"Mushola Al Fattah","subtitle":"Mushola","padukuhan":"Semawung","address":"Padukuhan Semawung, RT 70 RW 34","facets":["Mushola"],"details":[{"label":"Kondisi","value":"Baik"}],"phone":null,"photos":["/photos/fasum/877156245-depan.webp","/photos/fasum/877156245-samping.webp"],"gpsPrecision":4.5}},{"type":"Feature","id":"877157204","geometry":{"type":"Point","coordinates":[110.246132,-7.665153]},"properties":{"dataset":"fasum","name":"Poskamling KLM","subtitle":"Poskamling","padukuhan":"Semawung","address":"Padukuhan Semawung, RT 70 RW 34","facets":["Poskamling"],"details":[{"label":"Kondisi","value":"Rusak ringan"},{"label":"Keterangan","value":"Usuk keropos"}],"phone":null,"photos":["/photos/fasum/877157204-depan.webp","/photos/fasum/877157204-samping.webp"],"gpsPrecision":2.857}},{"type":"Feature","id":"877310005","geometry":{"type":"Point","coordinates":[110.256437,-7.648662]},"properties":{"dataset":"fasum","name":"Makam Giling","subtitle":"Makam","padukuhan":"Klangon","address":"Padukuhan Klangon, RT 31 RW 15","facets":["Makam"],"details":[{"label":"Kondisi","value":"Baik"}],"phone":null,"photos":["/photos/fasum/877310005-depan.webp","/photos/fasum/877310005-samping.webp"],"gpsPrecision":4.834}},{"type":"Feature","id":"878151120","geometry":{"type":"Point","coordinates":[110.260604,-7.66943]},"properties":{"dataset":"fasum","name":"Makam mbah Banjar","subtitle":"Makam","padukuhan":"Banjaran","address":"Padukuhan Banjaran, RT 11 RW 6","facets":["Makam"],"details":[{"label":"Kondisi","value":"Baik"}],"phone":null,"photos":["/photos/fasum/878151120-depan.webp","/photos/fasum/878151120-samping.webp"],"gpsPrecision":3.859}},{"type":"Feature","id":"878713608","geometry":{"type":"Point","coordinates":[110.252345,-7.647047]},"properties":{"dataset":"fasum","name":"Masjid Al Mujahidin","subtitle":"Masjid","padukuhan":"Beji","address":"Padukuhan Beji, RT 33 RW 16","facets":["Masjid"],"details":[{"label":"Kondisi","value":"Baik"}],"phone":null,"photos":["/photos/fasum/878713608-depan.webp","/photos/fasum/878713608-samping.webp"],"gpsPrecision":4.777}},{"type":"Feature","id":"878757119","geometry":{"type":"Point","coordinates":[110.257767,-7.654927]},"properties":{"dataset":"fasum","name":"Sd Muhammadiyah Bendo","subtitle":"Sekolah","padukuhan":"Pranan","address":"Padukuhan Pranan, RT 20 RW 10","facets":["Sekolah"],"details":[{"label":"Kondisi","value":"Baik"},{"label":"Keterangan","value":"Tidak"}],"phone":null,"photos":["/photos/fasum/878757119-depan.webp","/photos/fasum/878757119-samping.webp"],"gpsPrecision":11}},{"type":"Feature","id":"878757129","geometry":{"type":"Point","coordinates":[110.257691,-7.654935]},"properties":{"dataset":"fasum","name":"Masjid Ibrahim Al Muttaqin","subtitle":"Masjid","padukuhan":"Pranan","address":"Padukuhan Pranan, RT 20 RW 10","facets":["Masjid"],"details":[{"label":"Kondisi","value":"Baik"}],"phone":null,"photos":["/photos/fasum/878757129-depan.webp","/photos/fasum/878757129-samping.webp"],"gpsPrecision":10.65}},{"type":"Feature","id":"878757972","geometry":{"type":"Point","coordinates":[110.227332,-7.667407]},"properties":{"dataset":"fasum","name":"kapel S.t yusuf. rt 62 semagung","subtitle":"Kapel","padukuhan":"Semagung","address":"Padukuhan Semagung, RT 62 RW 30","facets":["Kapel"],"details":[{"label":"Kondisi","value":"Rusak berat"},{"label":"Keterangan","value":"atap rusak parah di pakai untuk kegiatan Ibadah"}],"phone":null,"photos":["/photos/fasum/878757972-depan.webp","/photos/fasum/878757972-samping.webp","/photos/fasum/878757972-lainnya.webp"],"gpsPrecision":300}},{"type":"Feature","id":"878758084","geometry":{"type":"Point","coordinates":[110.230859,-7.667551]},"properties":{"dataset":"fasum","name":"makam rt 62 rt 63","subtitle":"Makam","padukuhan":"Semagung","address":"Padukuhan Semagung, RT 62 RW 30","facets":["Makam"],"details":[{"label":"Kondisi","value":"Baik"}],"phone":null,"photos":["/photos/fasum/878758084-depan.webp","/photos/fasum/878758084-samping.webp"],"gpsPrecision":9.589}},{"type":"Feature","id":"878758226","geometry":{"type":"Point","coordinates":[110.228878,-7.666182]},"properties":{"dataset":"fasum","name":"pos yandu kasih bunda dan pos paud abiyasa rt 62 rw 30","subtitle":"Posyandu","padukuhan":"Semagung","address":"Padukuhan Semagung, RT 62 RW 30","facets":["Posyandu"],"details":[{"label":"Kondisi","value":"Baik"}],"phone":null,"photos":["/photos/fasum/878758226-depan.webp","/photos/fasum/878758226-samping.webp"],"gpsPrecision":59.45}},{"type":"Feature","id":"878885227","geometry":{"type":"Point","coordinates":[110.255873,-7.65305]},"properties":{"dataset":"fasum","name":"Rest area pasar bendo","subtitle":"Rest Area Parkir Bus dan Pangkalan Shutle Sendang Sono","padukuhan":"Potronalan","address":"Padukuhan Potronalan, RT 26 RW 12","facets":["Rest Area Parkir Bus dan Pangkalan Shutle Sendang Sono"],"details":[{"label":"Kondisi","value":"Baik"},{"label":"Keterangan","value":"rest area dan juga parkir bus pengunjung Sendang Sono. Dan juga pangkalan Shutle bisa di pesan dulu untuk perjalan ke Sendang Sono"}],"phone":null,"photos":["/photos/fasum/878885227-depan.webp","/photos/fasum/878885227-samping.webp"],"gpsPrecision":4.666}},{"type":"Feature","id":"879017480","geometry":{"type":"Point","coordinates":[110.256045,-7.646043]},"properties":{"dataset":"fasum","name":"musola Al Hikmah","subtitle":"Mushola","padukuhan":"Klangon","address":"Padukuhan Klangon, RT 29 RW 14","facets":["Mushola"],"details":[{"label":"Kondisi","value":"Baik"}],"phone":null,"photos":["/photos/fasum/879017480-depan.webp","/photos/fasum/879017480-samping.webp"],"gpsPrecision":3.4}},{"type":"Feature","id":"879017687","geometry":{"type":"Point","coordinates":[110.258933,-7.645798]},"properties":{"dataset":"fasum","name":"Spam kalibawang","subtitle":"Pdam","padukuhan":"Klangon","address":"Padukuhan Klangon, RT 30 RW 15","facets":["Pdam"],"details":[{"label":"Kondisi","value":"Baik"}],"phone":null,"photos":["/photos/fasum/879017687-depan.webp","/photos/fasum/879017687-samping.webp"],"gpsPrecision":4.318}},{"type":"Feature","id":"879017703","geometry":{"type":"Point","coordinates":[110.255816,-7.647791]},"properties":{"dataset":"fasum","name":"SMP Maarif Klangon Kalibawang","subtitle":"Sekolah","padukuhan":"Klangon","address":"Padukuhan Klangon, RT 30 RW 15","facets":["Sekolah"],"details":[{"label":"Kondisi","value":"Baik"}],"phone":null,"photos":["/photos/fasum/879017703-depan.webp","/photos/fasum/879017703-samping.webp","/photos/fasum/879017703-lainnya.webp"],"gpsPrecision":4.413}},{"type":"Feature","id":"879017722","geometry":{"type":"Point","coordinates":[110.253344,-7.644783]},"properties":{"dataset":"fasum","name":"Musola Al Barokah","subtitle":"Mushola","padukuhan":"Klangon","address":"Padukuhan Klangon, RT 28 RW 14","facets":["Mushola"],"details":[{"label":"Kondisi","value":"Baik"}],"phone":null,"photos":["/photos/fasum/879017722-depan.webp","/photos/fasum/879017722-samping.webp"],"gpsPrecision":5.188}},{"type":"Feature","id":"879018065","geometry":{"type":"Point","coordinates":[110.253996,-7.642386]},"properties":{"dataset":"fasum","name":"Gerbang samudra raksa","subtitle":"Gerbang samudra raksa","padukuhan":"Klangon","address":"Padukuhan Klangon, RT 28 RW 14","facets":["Gerbang samudra raksa"],"details":[{"label":"Kondisi","value":"Rusak ringan"}],"phone":null,"photos":["/photos/fasum/879018065-depan.webp","/photos/fasum/879018065-samping.webp"],"gpsPrecision":3.32}},{"type":"Feature","id":"879021098","geometry":{"type":"Point","coordinates":[110.254843,-7.645826]},"properties":{"dataset":"fasum","name":"Muhaimin","subtitle":"TPA / TPQ","padukuhan":"Klangon","address":"Padukuhan Klangon, RT 29 RW 14","facets":["TPA / TPQ"],"details":[{"label":"Kondisi","value":"Baik"}],"phone":null,"photos":["/photos/fasum/879021098-depan.webp","/photos/fasum/879021098-samping.webp"],"gpsPrecision":4.712}},{"type":"Feature","id":"879031103","geometry":{"type":"Point","coordinates":[110.22728,-7.658595]},"properties":{"dataset":"fasum","name":"poskamling rt 42","subtitle":"Poskamling","padukuhan":"Dlingseng","address":"Padukuhan Dlingseng, RT 42 RW 20","facets":["Poskamling"],"details":[{"label":"Kondisi","value":"Rusak ringan"},{"label":"Keterangan","value":"atap bocor tembok retak"}],"phone":null,"photos":["/photos/fasum/879031103-depan.webp","/photos/fasum/879031103-samping.webp"],"gpsPrecision":4.959}},{"type":"Feature","id":"879031265","geometry":{"type":"Point","coordinates":[110.230598,-7.657815]},"properties":{"dataset":"fasum","name":"makam kembang","subtitle":"Makam","padukuhan":"Dlingseng","address":"Padukuhan Dlingseng, RT 43 RW 21","facets":["Makam"],"details":[{"label":"Kondisi","value":"Baik"}],"phone":null,"photos":["/photos/fasum/879031265-depan.webp","/photos/fasum/879031265-samping.webp"],"gpsPrecision":4.994}},{"type":"Feature","id":"879031715","geometry":{"type":"Point","coordinates":[110.228058,-7.658343]},"properties":{"dataset":"fasum","name":"Embung Dlingseng","subtitle":"embung Dlingseng","padukuhan":"Dlingseng","address":"Padukuhan Dlingseng, RT 43 RW 21","facets":["embung Dlingseng"],"details":[{"label":"Kondisi","value":"Baik"}],"phone":null,"photos":["/photos/fasum/879031715-depan.webp","/photos/fasum/879031715-samping.webp","/photos/fasum/879031715-lainnya.webp"],"gpsPrecision":3.946}},{"type":"Feature","id":"879032059","geometry":{"type":"Point","coordinates":[110.225994,-7.658391]},"properties":{"dataset":"fasum","name":"poskamling","subtitle":"Poskamling","padukuhan":"Dlingseng","address":"Padukuhan Dlingseng, RT 41 RW 20","facets":["Poskamling"],"details":[{"label":"Kondisi","value":"Rusak berat"}],"phone":null,"photos":["/photos/fasum/879032059-depan.webp","/photos/fasum/879032059-samping.webp"],"gpsPrecision":4.153}}]}