{"type":"FeatureCollection","features":[{"type":"Feature","id":"875621150","geometry":{"type":"Point","coordinates":[110.217818,-7.661168]},"properties":{"dataset":"jamban","name":"Jamban Kurang Memenuhi Standar","subtitle":null,"padukuhan":"Tanjung","address":null,"facets":[],"details":[],"phone":null,"photos":["/photos/jamban/875621150-jamban.webp","/photos/jamban/875621150-lainnya.webp"],"gpsPrecision":8.226}},{"type":"Feature","id":"876153807","geometry":{"type":"Point","coordinates":[110.231743,-7.654653]},"properties":{"dataset":"jamban","name":"Jamban Kurang Memenuhi Standar","subtitle":null,"padukuhan":"Dlingseng","address":null,"facets":[],"details":[],"phone":null,"photos":["/photos/jamban/876153807-jamban.webp","/photos/jamban/876153807-lainnya.webp"],"gpsPrecision":4.683}},{"type":"Feature","id":"877159541","geometry":{"type":"Point","coordinates":[110.245487,-7.665975]},"properties":{"dataset":"jamban","name":"Jamban Kurang Memenuhi Standar","subtitle":null,"padukuhan":"Semawung","address":null,"facets":[],"details":[],"phone":null,"photos":["/photos/jamban/877159541-jamban.webp","/photos/jamban/877159541-lainnya.webp"],"gpsPrecision":4.508}},{"type":"Feature","id":"878105093","geometry":{"type":"Point","coordinates":[110.223789,-7.652866]},"properties":{"dataset":"jamban","name":"Jamban Kurang Memenuhi Standar","subtitle":null,"padukuhan":"Plengan","address":null,"facets":[],"details":[],"phone":null,"photos":["/photos/jamban/878105093-jamban.webp"],"gpsPrecision":4.807}}]}