{"type":"FeatureCollection","features":[{"type":"Feature","id":"875621191","geometry":{"type":"Point","coordinates":[110.21783,-7.660932]},"properties":{"dataset":"kebun","name":"Perkebunan","subtitle":"Kelapa, Durian, Kakao, Cemgkeh dan vanili","padukuhan":"Tanjung","address":"Padukuhan Tanjung, RT 56 RW 27","facets":["Kelapa","Durian","Kakao","Cemgkeh dan vanili"],"details":[{"label":"Pemilik","value":"Puji raharjo + ahmad widodo + kuntarto"},{"label":"Jenis durian","value":"Biasa"},{"label":"Jumlah pohon","value":"1025"},{"label":"Penjualan","value":"Lewat pengepul"}],"phone":null,"photos":["/photos/kebun/875621191-depan.webp","/photos/kebun/875621191-samping.webp","/photos/kebun/875621191-lainnya.webp"],"gpsPrecision":4.983}},{"type":"Feature","id":"875621225","geometry":{"type":"Point","coordinates":[110.218573,-7.661358]},"properties":{"dataset":"kebun","name":"Perkebunan","subtitle":"Kelapa, Cengkeh","padukuhan":"Tanjung","address":"Padukuhan Tanjung, RT 56 RW 27","facets":["Kelapa","Cengkeh"],"details":[{"label":"Pemilik","value":"Loso"},{"label":"Jumlah pohon","value":"lt10"},{"label":"Penjualan","value":"Lewat pengepul"}],"phone":null,"photos":["/photos/kebun/875621225-depan.webp","/photos/kebun/875621225-samping.webp"],"gpsPrecision":4.933}},{"type":"Feature","id":"875638481","geometry":{"type":"Point","coordinates":[110.223554,-7.665777]},"properties":{"dataset":"kebun","name":"Perkebunan","subtitle":"Kelapa, Petai","padukuhan":"Kajoran","address":"Padukuhan Kajoran, RT 57 RW 28","facets":["Kelapa","Petai"],"details":[{"label":"Pemilik","value":"Purwanto"},{"label":"Jumlah pohon","value":"lt10"},{"label":"Penjualan","value":"Dijual sendiri di kebun"}],"phone":null,"photos":["/photos/kebun/875638481-depan.webp","/photos/kebun/875638481-samping.webp"],"gpsPrecision":4.966}},{"type":"Feature","id":"875638493","geometry":{"type":"Point","coordinates":[110.223505,-7.665839]},"properties":{"dataset":"kebun","name":"Perkebunan","subtitle":"Durian, Jeruk purut","padukuhan":"Kajoran","address":"Padukuhan Kajoran, RT 57 RW 28","facets":["Durian","Jeruk purut"],"details":[{"label":"Pemilik","value":"Purwanto"},{"label":"Jenis durian","value":"Unggulan"},{"label":"Jumlah pohon","value":"lt10"},{"label":"Penjualan","value":"Dijual sendiri di kebun"}],"phone":null,"photos":["/photos/kebun/875638493-depan.webp","/photos/kebun/875638493-samping.webp"],"gpsPrecision":3.703}},{"type":"Feature","id":"875643251","geometry":{"type":"Point","coordinates":[110.24727,-7.665353]},"properties":{"dataset":"kebun","name":"Perkebunan","subtitle":"Durian, Kopi","padukuhan":"Semawung","address":"Padukuhan Semawung, RT 70 RW 34","facets":["Durian","Kopi"],"details":[{"label":"Pemilik","value":"Samsul huda"},{"label":"Jenis durian","value":"Biasa"},{"label":"Jumlah pohon","value":"lt10"},{"label":"Penjualan","value":"Dijual sendiri di tempat lain"}],"phone":null,"photos":["/photos/kebun/875643251-depan.webp","/photos/kebun/875643251-samping.webp"],"gpsPrecision":4.755}},{"type":"Feature","id":"875643292","geometry":{"type":"Point","coordinates":[110.247157,-7.665245]},"properties":{"dataset":"kebun","name":"Perkebunan","subtitle":"Durian, Alpukat","padukuhan":"Semawung","address":"Padukuhan Semawung, RT 70 RW 34","facets":["Durian","Alpukat"],"details":[{"label":"Pemilik","value":"Rini astuti"},{"label":"Jenis durian","value":"Biasa"},{"label":"Jumlah pohon","value":"lt10"},{"label":"Penjualan","value":"Dijual sendiri di tempat lain"}],"phone":null,"photos":["/photos/kebun/875643292-depan.webp","/photos/kebun/875643292-samping.webp"],"gpsPrecision":3.175}},{"type":"Feature","id":"875643332","geometry":{"type":"Point","coordinates":[110.247194,-7.66488]},"properties":{"dataset":"kebun","name":"Perkebunan","subtitle":"Durian, Kelapa","padukuhan":"Semawung","address":"Padukuhan Semawung, RT 70 RW 34","facets":["Durian","Kelapa"],"details":[{"label":"Pemilik","value":"Hari ratmoko"},{"label":"Jenis durian","value":"Biasa"},{"label":"Jumlah pohon","value":"lt10"},{"label":"Penjualan","value":"Dijual sendiri di tempat lain"}],"phone":null,"photos":["/photos/kebun/875643332-depan.webp","/photos/kebun/875643332-samping.webp"],"gpsPrecision":3.987}},{"type":"Feature","id":"875643346","geometry":{"type":"Point","coordinates":[110.247497,-7.664321]},"properties":{"dataset":"kebun","name":"Perkebunan","subtitle":"Durian, Kopi","padukuhan":"Semawung","address":"Padukuhan Semawung, RT 70 RW 34","facets":["Durian","Kopi"],"details":[{"label":"Pemilik","value":"Pariyah"},{"label":"Jenis durian","value":"Biasa"},{"label":"Jumlah pohon","value":"lt10"},{"label":"Penjualan","value":"Dijual sendiri di tempat lain"}],"phone":null,"photos":["/photos/kebun/875643346-depan.webp","/photos/kebun/875643346-samping.webp"],"gpsPrecision":4.375}},{"type":"Feature","id":"875643418","geometry":{"type":"Point","coordinates":[110.246482,-7.664931]},"properties":{"dataset":"kebun","name":"Perkebunan","subtitle":"Durian","padukuhan":"Semawung","address":"Padukuhan Semawung, RT 70 RW 34","facets":["Durian"],"details":[{"label":"Pemilik","value":"Suprapto"},{"label":"Jenis durian","value":"Biasa"},{"label":"Jumlah pohon","value":"lt10"},{"label":"Penjualan","value":"Dijual sendiri di tempat lain"}],"phone":null,"photos":["/photos/kebun/875643418-depan.webp","/photos/kebun/875643418-samping.webp"],"gpsPrecision":4.622}},{"type":"Feature","id":"875643438","geometry":{"type":"Point","coordinates":[110.246289,-7.664838]},"properties":{"dataset":"kebun","name":"Perkebunan","subtitle":"Durian","padukuhan":"Semawung","address":"Padukuhan Semawung, RT 70 RW 34","facets":["Durian"],"details":[{"label":"Pemilik","value":"Walji"},{"label":"Jenis durian","value":"Biasa"},{"label":"Jumlah pohon","value":"1025"},{"label":"Penjualan","value":"Lewat pengepul"}],"phone":null,"photos":["/photos/kebun/875643438-depan.webp","/photos/kebun/875643438-samping.webp"],"gpsPrecision":4.322}},{"type":"Feature","id":"875672915","geometry":{"type":"Point","coordinates":[110.247371,-7.660313]},"properties":{"dataset":"kebun","name":"Perkebunan","subtitle":"Kelapa, Pete","padukuhan":"Puguh","address":"Padukuhan Puguh, RT 79 RW 38","facets":["Kelapa","Pete"],"details":[{"label":"Pemilik","value":"Sumari"},{"label":"Jumlah pohon","value":"lt10"},{"label":"Penjualan","value":"Dijual sendiri di tempat lain"}],"phone":null,"photos":["/photos/kebun/875672915-depan.webp","/photos/kebun/875672915-samping.webp"],"gpsPrecision":4.045}},{"type":"Feature","id":"875672925","geometry":{"type":"Point","coordinates":[110.247305,-7.66043]},"properties":{"dataset":"kebun","name":"Perkebunan","subtitle":"Durian, Pete","padukuhan":"Puguh","address":"Padukuhan Puguh, RT 79 RW 38","facets":["Durian","Pete"],"details":[{"label":"Pemilik","value":"Sukidi"},{"label":"Jenis durian","value":"Biasa, Unggulan"},{"label":"Jumlah pohon","value":"lt10"},{"label":"Penjualan","value":"Dijual sendiri di tempat lain"}],"phone":null,"photos":["/photos/kebun/875672925-depan.webp","/photos/kebun/875672925-samping.webp"],"gpsPrecision":4.481}},{"type":"Feature","id":"875672937","geometry":{"type":"Point","coordinates":[110.246892,-7.66102]},"properties":{"dataset":"kebun","name":"Perkebunan","subtitle":"Kelapa, Pisang","padukuhan":"Puguh","address":"Padukuhan Puguh, RT 79 RW 38","facets":["Kelapa","Pisang"],"details":[{"label":"Pemilik","value":"Suhartini"},{"label":"Jumlah pohon","value":"lt10"},{"label":"Hasil panen","value":"30 butir kelapa per 3 bulan"},{"label":"Penjualan","value":"Dijual sendiri di tempat lain"}],"phone":"082313838576","photos":["/photos/kebun/875672937-depan.webp","/photos/kebun/875672937-samping.webp"],"gpsPrecision":4.659}},{"type":"Feature","id":"875672958","geometry":{"type":"Point","coordinates":[110.246474,-7.660763]},"properties":{"dataset":"kebun","name":"Perkebunan","subtitle":"Kelapa, Kopi","padukuhan":"Puguh","address":"Padukuhan Puguh, RT 79 RW 38","facets":["Kelapa","Kopi"],"details":[{"label":"Pemilik","value":"Pak wirdin"},{"label":"Jumlah pohon","value":"lt10"},{"label":"Hasil panen","value":"40 butir kepala per 1 bulan"},{"label":"Penjualan","value":"Dijual sendiri di tempat lain"}],"phone":"082321811656","photos":["/photos/kebun/875672958-depan.webp","/photos/kebun/875672958-samping.webp"],"gpsPrecision":4.443}},{"type":"Feature","id":"875672980","geometry":{"type":"Point","coordinates":[110.246413,-7.66074]},"properties":{"dataset":"kebun","name":"Perkebunan","subtitle":"Kelapa, Kopi","padukuhan":"Puguh","address":"Padukuhan Puguh, RT 79 RW 38","facets":["Kelapa","Kopi"],"details":[{"label":"Pemilik","value":"Werden"},{"label":"Jumlah pohon","value":"lt10"},{"label":"Hasil panen","value":"40 butir kelapa per 1 bulan"},{"label":"Penjualan","value":"Dijual sendiri di tempat lain"}],"phone":"081218958162","photos":["/photos/kebun/875672980-depan.webp","/photos/kebun/875672980-samping.webp"],"gpsPrecision":4.588}},{"type":"Feature","id":"875673004","geometry":{"type":"Point","coordinates":[110.24633,-7.660678]},"properties":{"dataset":"kebun","name":"Perkebunan","subtitle":"Kelapa","padukuhan":"Puguh","address":"Padukuhan Puguh, RT 79 RW 38","facets":["Kelapa"],"details":[{"label":"Pemilik","value":"Supianah"},{"label":"Jumlah pohon","value":"lt10"},{"label":"Hasil panen","value":"50 butir kelapa per 1 bulan"},{"label":"Penjualan","value":"Dijual sendiri di tempat lain"}],"phone":"081325873711","photos":["/photos/kebun/875673004-depan.webp","/photos/kebun/875673004-samping.webp"],"gpsPrecision":4.52}},{"type":"Feature","id":"875673081","geometry":{"type":"Point","coordinates":[110.246329,-7.660667]},"properties":{"dataset":"kebun","name":"Perkebunan","subtitle":"Kelapa","padukuhan":"Puguh","address":"Padukuhan Puguh, RT 79 RW 38","facets":["Kelapa"],"details":[{"label":"Pemilik","value":"Weryanta"},{"label":"Jumlah pohon","value":"lt10"},{"label":"Hasil panen","value":"30 butir kelapa per bulan"},{"label":"Penjualan","value":"Dijual sendiri di tempat lain"}],"phone":null,"photos":["/photos/kebun/875673081-depan.webp","/photos/kebun/875673081-samping.webp"],"gpsPrecision":4.136}},{"type":"Feature","id":"875673112","geometry":{"type":"Point","coordinates":[110.246481,-7.660777]},"properties":{"dataset":"kebun","name":"Perkebunan","subtitle":"Kelapa, Kakao","padukuhan":"Puguh","address":"Padukuhan Puguh, RT 79 RW 38","facets":["Kelapa","Kakao"],"details":[{"label":"Pemilik","value":"Werdon"},{"label":"Jumlah pohon","value":"lt10"},{"label":"Hasil panen","value":"25 butir per bulan"},{"label":"Penjualan","value":"Dijual sendiri di tempat lain"}],"phone":null,"photos":["/photos/kebun/875673112-depan.webp","/photos/kebun/875673112-samping.webp"],"gpsPrecision":3.9}},{"type":"Feature","id":"875673132","geometry":{"type":"Point","coordinates":[110.247044,-7.660628]},"properties":{"dataset":"kebun","name":"Perkebunan","subtitle":"Kelapa","padukuhan":"Puguh","address":"Padukuhan Puguh, RT 79 RW 38","facets":["Kelapa"],"details":[{"label":"Pemilik","value":"Soriyah"},{"label":"Jumlah pohon","value":"lt10"},{"label":"Hasil panen","value":"20 butir per bulan"},{"label":"Penjualan","value":"Dijual sendiri di tempat lain"}],"phone":null,"photos":["/photos/kebun/875673132-depan.webp","/photos/kebun/875673132-samping.webp"],"gpsPrecision":4.845}},{"type":"Feature","id":"875673231","geometry":{"type":"Point","coordinates":[110.246804,-7.660556]},"properties":{"dataset":"kebun","name":"Perkebunan","subtitle":"Kelapa","padukuhan":"Puguh","address":"Padukuhan Puguh, RT 79 RW 38","facets":["Kelapa"],"details":[{"label":"Pemilik","value":"Nursalim"},{"label":"Jumlah pohon","value":"lt10"},{"label":"Hasil panen","value":"20 butir kelapa per bulan"},{"label":"Penjualan","value":"Dijual sendiri di tempat lain"}],"phone":null,"photos":["/photos/kebun/875673231-depan.webp","/photos/kebun/875673231-samping.webp","/photos/kebun/875673231-lainnya.webp"],"gpsPrecision":4.999}},{"type":"Feature","id":"875673352","geometry":{"type":"Point","coordinates":[110.247193,-7.659839]},"properties":{"dataset":"kebun","name":"Perkebunan","subtitle":"Durian","padukuhan":"Puguh","address":"Padukuhan Puguh, RT 79 RW 38","facets":["Durian"],"details":[{"label":"Pemilik","value":"Kusayim"},{"label":"Jenis durian","value":"Biasa"},{"label":"Jumlah pohon","value":"lt10"},{"label":"Hasil panen","value":"25 per 1 tahun"},{"label":"Penjualan","value":"Dijual sendiri di tempat lain"}],"phone":null,"photos":["/photos/kebun/875673352-depan.webp","/photos/kebun/875673352-samping.webp"],"gpsPrecision":4.619}},{"type":"Feature","id":"875695933","geometry":{"type":"Point","coordinates":[110.237433,-7.660909]},"properties":{"dataset":"kebun","name":"Perkebunan","subtitle":"Kelapa","padukuhan":"Tonogoro","address":"Padukuhan Tonogoro, RT 76 RW 36","facets":["Kelapa"],"details":[{"label":"Pemilik","value":"Marodin"},{"label":"Jumlah pohon","value":"1025"},{"label":"Penjualan","value":"Lewat pengepul"}],"phone":null,"photos":["/photos/kebun/875695933-depan.webp","/photos/kebun/875695933-samping.webp"],"gpsPrecision":4.888}},{"type":"Feature","id":"875696084","geometry":{"type":"Point","coordinates":[110.242047,-7.663047]},"properties":{"dataset":"kebun","name":"Perkebunan","subtitle":"Durian, Kelapa, Campur2","padukuhan":"Tonogoro","address":"Padukuhan Tonogoro, RT 75 RW 36","facets":["Durian","Kelapa","Campur2"],"details":[{"label":"Pemilik","value":"Nurkodin"},{"label":"Jenis durian","value":"Biasa"},{"label":"Jumlah pohon","value":"1025"},{"label":"Penjualan","value":"Dijual sendiri di kebun"}],"phone":null,"photos":["/photos/kebun/875696084-depan.webp","/photos/kebun/875696084-samping.webp"],"gpsPrecision":4.898}},{"type":"Feature","id":"875696247","geometry":{"type":"Point","coordinates":[110.240092,-7.662787]},"properties":{"dataset":"kebun","name":"Perkebunan","subtitle":"Kelapa, duren","padukuhan":"Tonogoro","address":"Padukuhan Tonogoro, RT 76 RW 36","facets":["Kelapa","duren"],"details":[{"label":"Pemilik","value":"Muhtadun"},{"label":"Jumlah pohon","value":"1025"},{"label":"Penjualan","value":"Dijual sendiri di kebun"}],"phone":null,"photos":["/photos/kebun/875696247-depan.webp","/photos/kebun/875696247-samping.webp"],"gpsPrecision":9.342}},{"type":"Feature","id":"875722094","geometry":{"type":"Point","coordinates":[110.254426,-7.669714]},"properties":{"dataset":"kebun","name":"Perkebunan","subtitle":"Durian, Kelapa","padukuhan":"Pantog Kulon","address":"Padukuhan Pantog Kulon, RT 7 RW 4","facets":["Durian","Kelapa"],"details":[{"label":"Pemilik","value":"Paidi Anwar Mustofa"},{"label":"Jenis durian","value":"Biasa"},{"label":"Jumlah pohon","value":"1025"},{"label":"Hasil panen","value":"100 butir kelapa per 3 bulan\n100 - 200 buah durian per musim"},{"label":"Penjualan","value":"Lewat pengepul, Dijual sendiri di tempat lain"}],"phone":null,"photos":["/photos/kebun/875722094-depan.webp","/photos/kebun/875722094-samping.webp"],"gpsPrecision":4.8}},{"type":"Feature","id":"875722133","geometry":{"type":"Point","coordinates":[110.254654,-7.670361]},"properties":{"dataset":"kebun","name":"Perkebunan","subtitle":"Durian, Kelapa","padukuhan":"Pantog Kulon","address":"Padukuhan Pantog Kulon, RT 7 RW 4","facets":["Durian","Kelapa"],"details":[{"label":"Pemilik","value":"Rini Astuti"},{"label":"Jenis durian","value":"Biasa"},{"label":"Jumlah pohon","value":"lt10"},{"label":"Hasil panen","value":"Kelapa 50 butir per 3 bulan\nDurian 100 biji per musim"},{"label":"Penjualan","value":"Lewat pengepul"}],"phone":null,"photos":["/photos/kebun/875722133-depan.webp","/photos/kebun/875722133-samping.webp"],"gpsPrecision":3.46}},{"type":"Feature","id":"875722191","geometry":{"type":"Point","coordinates":[110.254583,-7.67023]},"properties":{"dataset":"kebun","name":"Perkebunan","subtitle":"Durian","padukuhan":"Pantog Kulon","address":"Padukuhan Pantog Kulon, RT 7 RW 4","facets":["Durian"],"details":[{"label":"Pemilik","value":"Eko Wandoyo"},{"label":"Jenis durian","value":"Biasa"},{"label":"Jumlah pohon","value":"lt10"},{"label":"Hasil panen","value":"100 biji per musim"},{"label":"Penjualan","value":"Dijual sendiri di tempat lain"}],"phone":null,"photos":["/photos/kebun/875722191-depan.webp","/photos/kebun/875722191-samping.webp"],"gpsPrecision":4.691}},{"type":"Feature","id":"875722413","geometry":{"type":"Point","coordinates":[110.254202,-7.670197]},"properties":{"dataset":"kebun","name":"Perkebunan","subtitle":"Durian, Kelapa","padukuhan":"Pantog Kulon","address":"Padukuhan Pantog Kulon, RT 7 RW 4","facets":["Durian","Kelapa"],"details":[{"label":"Pemilik","value":"Jeminem"},{"label":"Jenis durian","value":"Biasa"},{"label":"Jumlah pohon","value":"lt10"},{"label":"Hasil panen","value":"150 biji per musim"},{"label":"Penjualan","value":"Dijual sendiri di tempat lain"}],"phone":null,"photos":["/photos/kebun/875722413-depan.webp","/photos/kebun/875722413-samping.webp","/photos/kebun/875722413-lainnya.webp"],"gpsPrecision":4.6}},{"type":"Feature","id":"875722450","geometry":{"type":"Point","coordinates":[110.25382,-7.66999]},"properties":{"dataset":"kebun","name":"Perkebunan","subtitle":"Durian","padukuhan":"Pantog Kulon","address":"Padukuhan Pantog Kulon, RT 7 RW 4","facets":["Durian"],"details":[{"label":"Pemilik","value":"Mustaqim"},{"label":"Jenis durian","value":"Biasa"},{"label":"Jumlah pohon","value":"lt10"},{"label":"Hasil panen","value":"Tanah ini berdekatan dengan tanah BPK Maryadi \nHasil panen 50 - 100 biji per musim"},{"label":"Penjualan","value":"Lewat pengepul"}],"phone":null,"photos":["/photos/kebun/875722450-depan.webp","/photos/kebun/875722450-samping.webp"],"gpsPrecision":3.974}},{"type":"Feature","id":"875722486","geometry":{"type":"Point","coordinates":[110.253122,-7.669523]},"properties":{"dataset":"kebun","name":"Perkebunan","subtitle":"Durian, Kelapa","padukuhan":"Pantog Kulon","address":"Padukuhan Pantog Kulon, RT 7 RW 4","facets":["Durian","Kelapa"],"details":[{"label":"Pemilik","value":"Suginem"},{"label":"Jenis durian","value":"Biasa"},{"label":"Jumlah pohon","value":"1025"},{"label":"Hasil panen","value":"Durian 70 - 100 biji per musim\nKelapa 100 biji per 3 bulan"},{"label":"Penjualan","value":"Lewat pengepul"}],"phone":null,"photos":["/photos/kebun/875722486-depan.webp","/photos/kebun/875722486-samping.webp"],"gpsPrecision":4.617}},{"type":"Feature","id":"875722631","geometry":{"type":"Point","coordinates":[110.252947,-7.667657]},"properties":{"dataset":"kebun","name":"Perkebunan","subtitle":"Durian, Kelapa","padukuhan":"Pantog Kulon","address":"Padukuhan Pantog Kulon, RT 8 RW 7","facets":["Durian","Kelapa"],"details":[{"label":"Pemilik","value":"Sudadi"},{"label":"Jenis durian","value":"Biasa"},{"label":"Jumlah pohon","value":"1025"},{"label":"Hasil panen","value":"Kelapa 300 biji per 3 bulan\nDurian 300 - 400 per musim"},{"label":"Penjualan","value":"Dijual sendiri di tempat lain"}],"phone":null,"photos":["/photos/kebun/875722631-depan.webp","/photos/kebun/875722631-samping.webp"],"gpsPrecision":4.983}},{"type":"Feature","id":"875729277","geometry":{"type":"Point","coordinates":[110.253693,-7.668518]},"properties":{"dataset":"kebun","name":"Perkebunan","subtitle":"Durian","padukuhan":"Pantog Kulon","address":"Padukuhan Pantog Kulon, RT 7 RW 4","facets":["Durian"],"details":[{"label":"Pemilik","value":"Suwarso"},{"label":"Jenis durian","value":"Biasa"},{"label":"Jumlah pohon","value":"1025"},{"label":"Hasil panen","value":"Hasil durian 100 -200 per musim"},{"label":"Penjualan","value":"Dijual sendiri di tempat lain"}],"phone":null,"photos":["/photos/kebun/875729277-depan.webp","/photos/kebun/875729277-samping.webp","/photos/kebun/875729277-lainnya.webp"],"gpsPrecision":4.341}},{"type":"Feature","id":"875906986","geometry":{"type":"Point","coordinates":[110.222492,-7.649867]},"properties":{"dataset":"kebun","name":"Perkebunan","subtitle":"Durian, Kelapa","padukuhan":"Plengan","address":"Padukuhan Plengan, RT 46 RW 22","facets":["Durian","Kelapa"],"details":[{"label":"Pemilik","value":"Suharti"},{"label":"Jenis durian","value":"Biasa"},{"label":"Jumlah pohon","value":"lt10"},{"label":"Penjualan","value":"Dijual sendiri di tempat lain"}],"phone":null,"photos":["/photos/kebun/875906986-depan.webp","/photos/kebun/875906986-samping.webp"],"gpsPrecision":6.5}},{"type":"Feature","id":"875907073","geometry":{"type":"Point","coordinates":[110.225847,-7.649495]},"properties":{"dataset":"kebun","name":"Perkebunan","subtitle":"Kakao","padukuhan":"Plengan","address":"Padukuhan Plengan, RT 46 RW 22","facets":["Kakao"],"details":[{"label":"Pemilik","value":"Susanto"},{"label":"Jumlah pohon","value":"1025"},{"label":"Penjualan","value":"Dijual sendiri di tempat lain"}],"phone":null,"photos":["/photos/kebun/875907073-depan.webp","/photos/kebun/875907073-samping.webp"],"gpsPrecision":4.746}},{"type":"Feature","id":"875907221","geometry":{"type":"Point","coordinates":[110.22522,-7.652147]},"properties":{"dataset":"kebun","name":"Perkebunan","subtitle":"Durian","padukuhan":"Plengan","address":"Padukuhan Plengan, RT 46 RW 22","facets":["Durian"],"details":[{"label":"Pemilik","value":"Antoro"},{"label":"Jenis durian","value":"Unggulan"},{"label":"Jumlah pohon","value":"lt10"},{"label":"Penjualan","value":"Dijual sendiri di tempat lain"}],"phone":"082226726864","photos":["/photos/kebun/875907221-depan.webp","/photos/kebun/875907221-samping.webp"],"gpsPrecision":4.892}},{"type":"Feature","id":"875907351","geometry":{"type":"Point","coordinates":[110.224812,-7.652289]},"properties":{"dataset":"kebun","name":"Perkebunan","subtitle":"Durian, Kelapa","padukuhan":"Plengan","address":"Padukuhan Plengan, RT 46 RW 22","facets":["Durian","Kelapa"],"details":[{"label":"Pemilik","value":"Sungkono"},{"label":"Jenis durian","value":"Biasa"},{"label":"Jumlah pohon","value":"lt10"},{"label":"Penjualan","value":"Lewat pengepul"}],"phone":null,"photos":["/photos/kebun/875907351-depan.webp","/photos/kebun/875907351-samping.webp"],"gpsPrecision":5.351}},{"type":"Feature","id":"875914256","geometry":{"type":"Point","coordinates":[110.260856,-7.662379]},"properties":{"dataset":"kebun","name":"Perkebunan","subtitle":"Kakao","padukuhan":"Slanden","address":"Padukuhan Slanden, RT 19 RW 9","facets":["Kakao"],"details":[{"label":"Pemilik","value":"Alexius Johan Salbiantoro"},{"label":"Jumlah pohon","value":"gt100"},{"label":"Hasil panen","value":"25-30 kg/ bulan"},{"label":"Penjualan","value":"Lewat pengepul, Dijual sendiri di kebun"}],"phone":"081328771024","photos":["/photos/kebun/875914256-depan.webp","/photos/kebun/875914256-samping.webp","/photos/kebun/875914256-lainnya.webp"],"gpsPrecision":4}},{"type":"Feature","id":"875914356","geometry":{"type":"Point","coordinates":[110.261044,-7.662305]},"properties":{"dataset":"kebun","name":"Perkebunan","subtitle":"Kelapa","padukuhan":"Slanden","address":"Padukuhan Slanden, RT 19 RW 9","facets":["Kelapa"],"details":[{"label":"Pemilik","value":"Alexius Johan Salbiantoro"},{"label":"Jumlah pohon","value":"1025"},{"label":"Hasil panen","value":"80 butir"},{"label":"Penjualan","value":"Dijual sendiri di kebun, Dikonsumsi sendiri"}],"phone":"081328771024","photos":["/photos/kebun/875914356-depan.webp","/photos/kebun/875914356-samping.webp"],"gpsPrecision":2.925}},{"type":"Feature","id":"875914534","geometry":{"type":"Point","coordinates":[110.260674,-7.661198]},"properties":{"dataset":"kebun","name":"Perkebunan","subtitle":"Kelapa","padukuhan":"Slanden","address":"Padukuhan Slanden, RT 16 RW 8","facets":["Kelapa"],"details":[{"label":"Pemilik","value":"Darmo Wasito"},{"label":"Jumlah pohon","value":"1025"},{"label":"Hasil panen","value":"150 butir"},{"label":"Penjualan","value":"Dijual sendiri di kebun, Dikonsumsi sendiri"}],"phone":"085700183140","photos":["/photos/kebun/875914534-depan.webp","/photos/kebun/875914534-samping.webp","/photos/kebun/875914534-lainnya.webp"],"gpsPrecision":4.933}},{"type":"Feature","id":"875976786","geometry":{"type":"Point","coordinates":[110.220341,-7.665223]},"properties":{"dataset":"kebun","name":"Perkebunan","subtitle":"Durian","padukuhan":"Kajoran","address":"Padukuhan Kajoran, RT 58 RW 28","facets":["Durian"],"details":[{"label":"Pemilik","value":"Sardi saryo wiryono"},{"label":"Jenis durian","value":"Biasa"},{"label":"Jumlah pohon","value":"lt10"},{"label":"Penjualan","value":"Dijual sendiri di kebun"}],"phone":null,"photos":["/photos/kebun/875976786-depan.webp","/photos/kebun/875976786-samping.webp"],"gpsPrecision":4.83}},{"type":"Feature","id":"875976899","geometry":{"type":"Point","coordinates":[110.220131,-7.665358]},"properties":{"dataset":"kebun","name":"Perkebunan","subtitle":"Durian","padukuhan":"Kajoran","address":"Padukuhan Kajoran, RT 58 RW 28","facets":["Durian"],"details":[{"label":"Pemilik","value":"Istiyadi"},{"label":"Jenis durian","value":"Unggulan"},{"label":"Jumlah pohon","value":"lt10"},{"label":"Penjualan","value":"Dijual sendiri di kebun"}],"phone":null,"photos":["/photos/kebun/875976899-depan.webp","/photos/kebun/875976899-samping.webp"],"gpsPrecision":4.918}},{"type":"Feature","id":"875977002","geometry":{"type":"Point","coordinates":[110.221948,-7.666903]},"properties":{"dataset":"kebun","name":"Perkebunan","subtitle":"Durian","padukuhan":"Kajoran","address":"Padukuhan Kajoran, RT 59 RW 28","facets":["Durian"],"details":[{"label":"Pemilik","value":"Siswo sudarmo"},{"label":"Jenis durian","value":"Biasa"},{"label":"Jumlah pohon","value":"lt10"},{"label":"Penjualan","value":"Dijual sendiri di kebun"}],"phone":null,"photos":["/photos/kebun/875977002-depan.webp","/photos/kebun/875977002-samping.webp"],"gpsPrecision":4.25}},{"type":"Feature","id":"875977167","geometry":{"type":"Point","coordinates":[110.221598,-7.66687]},"properties":{"dataset":"kebun","name":"Perkebunan","subtitle":"Kelapa","padukuhan":"Kajoran","address":"Padukuhan Kajoran, RT 59 RW 28","facets":["Kelapa"],"details":[{"label":"Pemilik","value":"Siswo Sudarmo"},{"label":"Jumlah pohon","value":"lt10"},{"label":"Penjualan","value":"Dijual sendiri di kebun"}],"phone":null,"photos":["/photos/kebun/875977167-depan.webp","/photos/kebun/875977167-samping.webp"],"gpsPrecision":4.6}},{"type":"Feature","id":"875977272","geometry":{"type":"Point","coordinates":[110.220824,-7.666761]},"properties":{"dataset":"kebun","name":"Perkebunan","subtitle":"Durian","padukuhan":"Kajoran","address":"Padukuhan Kajoran, RT 59 RW 28","facets":["Durian"],"details":[{"label":"Pemilik","value":"Siswo Sudarmo"},{"label":"Jenis durian","value":"Unggulan"},{"label":"Jumlah pohon","value":"lt10"},{"label":"Penjualan","value":"Dijual sendiri di kebun"}],"phone":null,"photos":["/photos/kebun/875977272-depan.webp","/photos/kebun/875977272-samping.webp"],"gpsPrecision":3.828}},{"type":"Feature","id":"876123845","geometry":{"type":"Point","coordinates":[110.25698,-7.645732]},"properties":{"dataset":"kebun","name":"Perkebunan","subtitle":"Durian, Kelapa","padukuhan":"Klangon","address":"Padukuhan Klangon, RT 29 RW 14","facets":["Durian","Kelapa"],"details":[{"label":"Pemilik","value":"Sumiyem"},{"label":"Jenis durian","value":"Biasa"},{"label":"Jumlah pohon","value":"lt10"},{"label":"Penjualan","value":"Dijual sendiri di tempat lain"}],"phone":null,"photos":["/photos/kebun/876123845-depan.webp","/photos/kebun/876123845-samping.webp"],"gpsPrecision":4.4}},{"type":"Feature","id":"876124856","geometry":{"type":"Point","coordinates":[110.257367,-7.648818]},"properties":{"dataset":"kebun","name":"Perkebunan","subtitle":"Kelapa","padukuhan":"Klangon","address":"Padukuhan Klangon, RT 31 RW 15","facets":["Kelapa"],"details":[{"label":"Pemilik","value":"Muh Rosid"},{"label":"Jumlah pohon","value":"lt10"},{"label":"Penjualan","value":"Dijual sendiri di kebun, Dikonsumsi sendiri"}],"phone":null,"photos":["/photos/kebun/876124856-depan.webp","/photos/kebun/876124856-samping.webp"],"gpsPrecision":4.417}},{"type":"Feature","id":"876139709","geometry":{"type":"Point","coordinates":[110.261538,-7.672099]},"properties":{"dataset":"kebun","name":"Perkebunan","subtitle":"Durian, Kakao, Kelapa","padukuhan":"Banjaran","address":"Padukuhan Banjaran, RT 11 RW 6","facets":["Durian","Kakao","Kelapa"],"details":[{"label":"Pemilik","value":"Suharto/supinah"},{"label":"Jenis durian","value":"Biasa"},{"label":"Jumlah pohon","value":"lt10"},{"label":"Penjualan","value":"Dikonsumsi sendiri"}],"phone":null,"photos":["/photos/kebun/876139709-depan.webp","/photos/kebun/876139709-samping.webp"],"gpsPrecision":4.991}},{"type":"Feature","id":"876139886","geometry":{"type":"Point","coordinates":[110.258859,-7.670804]},"properties":{"dataset":"kebun","name":"Perkebunan","subtitle":"Durian, Kakao, Kelapa","padukuhan":"Banjaran","address":"Padukuhan Banjaran, RT 11 RW 6","facets":["Durian","Kakao","Kelapa"],"details":[{"label":"Pemilik","value":"Alm Sugeng"},{"label":"Jenis durian","value":"Biasa"},{"label":"Jumlah pohon","value":"lt10"},{"label":"Penjualan","value":"Dikonsumsi sendiri"}],"phone":null,"photos":["/photos/kebun/876139886-depan.webp","/photos/kebun/876139886-samping.webp"],"gpsPrecision":4.101}},{"type":"Feature","id":"876140058","geometry":{"type":"Point","coordinates":[110.257623,-7.667053]},"properties":{"dataset":"kebun","name":"Perkebunan","subtitle":"Durian, Kakao, Kelapa","padukuhan":"Banjaran","address":"Padukuhan Banjaran, RT 13 RW 7","facets":["Durian","Kakao","Kelapa"],"details":[{"label":"Pemilik","value":"Ngatijo"},{"label":"Jenis durian","value":"Biasa"},{"label":"Jumlah pohon","value":"lt10"},{"label":"Penjualan","value":"Dijual sendiri di kebun"}],"phone":null,"photos":["/photos/kebun/876140058-depan.webp","/photos/kebun/876140058-samping.webp"],"gpsPrecision":4.663}},{"type":"Feature","id":"876152111","geometry":{"type":"Point","coordinates":[110.212929,-7.648978]},"properties":{"dataset":"kebun","name":"Perkebunan","subtitle":"Cengkeh","padukuhan":"Duren Sawit","address":"Padukuhan Duren Sawit, RT 49 RW 24","facets":["Cengkeh"],"details":[{"label":"Pemilik","value":"Bp. Suwardi"},{"label":"Jumlah pohon","value":"1025"},{"label":"Penjualan","value":"Lewat pengepul"}],"phone":null,"photos":["/photos/kebun/876152111-depan.webp","/photos/kebun/876152111-samping.webp"],"gpsPrecision":4.629}},{"type":"Feature","id":"876152317","geometry":{"type":"Point","coordinates":[110.211121,-7.649147]},"properties":{"dataset":"kebun","name":"Perkebunan","subtitle":"Durian","padukuhan":"Duren Sawit","address":"Padukuhan Duren Sawit, RT 49 RW 24","facets":["Durian"],"details":[{"label":"Pemilik","value":"Ibu Wartiyah"},{"label":"Jenis durian","value":"Biasa"},{"label":"Jumlah pohon","value":"lt10"},{"label":"Penjualan","value":"Lewat pengepul"}],"phone":null,"photos":["/photos/kebun/876152317-depan.webp","/photos/kebun/876152317-samping.webp","/photos/kebun/876152317-lainnya.webp"],"gpsPrecision":4.3}},{"type":"Feature","id":"876153851","geometry":{"type":"Point","coordinates":[110.231703,-7.654508]},"properties":{"dataset":"kebun","name":"Perkebunan","subtitle":"Durian, Kelapa, cengkeh","padukuhan":"Dlingseng","address":"Padukuhan Dlingseng, RT 43 RW 21","facets":["Durian","Kelapa","cengkeh"],"details":[{"label":"Pemilik","value":"ADIYANTA"},{"label":"Jenis durian","value":"Biasa"},{"label":"Jumlah pohon","value":"lt10"},{"label":"Penjualan","value":"Dijual sendiri di tempat lain"}],"phone":null,"photos":["/photos/kebun/876153851-depan.webp","/photos/kebun/876153851-samping.webp"],"gpsPrecision":4.091}},{"type":"Feature","id":"876730237","geometry":{"type":"Point","coordinates":[110.260174,-7.659051]},"properties":{"dataset":"kebun","name":"Perkebunan","subtitle":"Kelapa","padukuhan":"Slanden","address":"Padukuhan Slanden, RT 16 RW 8","facets":["Kelapa"],"details":[{"label":"Pemilik","value":"Siyamto"},{"label":"Jumlah pohon","value":"lt10"},{"label":"Hasil panen","value":"50 butir"},{"label":"Penjualan","value":"Dijual sendiri di kebun"}],"phone":null,"photos":["/photos/kebun/876730237-depan.webp","/photos/kebun/876730237-samping.webp"],"gpsPrecision":4.986}},{"type":"Feature","id":"876730390","geometry":{"type":"Point","coordinates":[110.262263,-7.666691]},"properties":{"dataset":"kebun","name":"Perkebunan","subtitle":"Kelapa","padukuhan":"Slanden","address":"Padukuhan Slanden, RT 19 RW 9","facets":["Kelapa"],"details":[{"label":"Pemilik","value":"Parman Hadi Sumitro"},{"label":"Jumlah pohon","value":"1025"},{"label":"Hasil panen","value":"50 butir per bulan"},{"label":"Penjualan","value":"Dijual sendiri di kebun"}],"phone":null,"photos":["/photos/kebun/876730390-depan.webp","/photos/kebun/876730390-samping.webp"],"gpsPrecision":3.3}},{"type":"Feature","id":"876771559","geometry":{"type":"Point","coordinates":[110.217232,-7.648105]},"properties":{"dataset":"kebun","name":"Perkebunan","subtitle":"Durian","padukuhan":"Duren Sawit","address":"Padukuhan Duren Sawit, RT 50 RW 24","facets":["Durian"],"details":[{"label":"Pemilik","value":"Bp.Sutimin"},{"label":"Jenis durian","value":"Unggulan"},{"label":"Jumlah pohon","value":"1025"},{"label":"Penjualan","value":"Dijual sendiri di kebun"}],"phone":"081354556811","photos":["/photos/kebun/876771559-depan.webp","/photos/kebun/876771559-samping.webp","/photos/kebun/876771559-lainnya.webp"],"gpsPrecision":4.511}},{"type":"Feature","id":"876771622","geometry":{"type":"Point","coordinates":[110.217668,-7.649268]},"properties":{"dataset":"kebun","name":"Perkebunan","subtitle":"Kelapa","padukuhan":"Duren Sawit","address":"Padukuhan Duren Sawit, RT 50 RW 24","facets":["Kelapa"],"details":[{"label":"Pemilik","value":"Bp.Puput"},{"label":"Jumlah pohon","value":"1025"},{"label":"Penjualan","value":"Dijual sendiri di kebun"}],"phone":null,"photos":["/photos/kebun/876771622-depan.webp","/photos/kebun/876771622-samping.webp","/photos/kebun/876771622-lainnya.webp"],"gpsPrecision":4.264}},{"type":"Feature","id":"876867695","geometry":{"type":"Point","coordinates":[110.216357,-7.648187]},"properties":{"dataset":"kebun","name":"Perkebunan","subtitle":"Durian","padukuhan":"Duren Sawit","address":"Padukuhan Duren Sawit, RT 50 RW 24","facets":["Durian"],"details":[{"label":"Pemilik","value":"Bp.Siswadi"},{"label":"Jenis durian","value":"Biasa"},{"label":"Jumlah pohon","value":"lt10"},{"label":"Penjualan","value":"Lewat pengepul"}],"phone":null,"photos":["/photos/kebun/876867695-depan.webp","/photos/kebun/876867695-samping.webp"],"gpsPrecision":3.834}},{"type":"Feature","id":"877121639","geometry":{"type":"Point","coordinates":[110.242378,-7.66288]},"properties":{"dataset":"kebun","name":"Perkebunan","subtitle":"Durian, Kelapa","padukuhan":"Tonogoro","address":"Padukuhan Tonogoro, RT 76 RW 36","facets":["Durian","Kelapa"],"details":[{"label":"Pemilik","value":"Khomarudin"},{"label":"Jenis durian","value":"Biasa"},{"label":"Jumlah pohon","value":"lt10"},{"label":"Penjualan","value":"Dijual sendiri di kebun"}],"phone":null,"photos":["/photos/kebun/877121639-depan.webp","/photos/kebun/877121639-samping.webp"],"gpsPrecision":7.412}},{"type":"Feature","id":"877121923","geometry":{"type":"Point","coordinates":[110.242372,-7.663828]},"properties":{"dataset":"kebun","name":"Perkebunan","subtitle":"Durian, Kelapa","padukuhan":"Tonogoro","address":"Padukuhan Tonogoro, RT 75 RW 36","facets":["Durian","Kelapa"],"details":[{"label":"Pemilik","value":"Supardi"},{"label":"Jenis durian","value":"Biasa"},{"label":"Jumlah pohon","value":"1025"},{"label":"Penjualan","value":"Dijual sendiri di kebun"}],"phone":null,"photos":["/photos/kebun/877121923-depan.webp","/photos/kebun/877121923-samping.webp"],"gpsPrecision":7.164}},{"type":"Feature","id":"877122000","geometry":{"type":"Point","coordinates":[110.243094,-7.662775]},"properties":{"dataset":"kebun","name":"Perkebunan","subtitle":"Kelapa","padukuhan":"Tonogoro","address":"Padukuhan Tonogoro, RT 75 RW 36","facets":["Kelapa"],"details":[{"label":"Pemilik","value":"Mutakin"},{"label":"Jumlah pohon","value":"1025"},{"label":"Penjualan","value":"Dijual sendiri di kebun"}],"phone":null,"photos":["/photos/kebun/877122000-depan.webp","/photos/kebun/877122000-samping.webp"],"gpsPrecision":6.739}},{"type":"Feature","id":"877122535","geometry":{"type":"Point","coordinates":[110.252999,-7.648727]},"properties":{"dataset":"kebun","name":"Perkebunan","subtitle":"Kelapa","padukuhan":"Beji","address":"Padukuhan Beji, RT 32 RW 16","facets":["Kelapa"],"details":[{"label":"Pemilik","value":"Jemadi"},{"label":"Jumlah pohon","value":"lt10"},{"label":"Hasil panen","value":"6 bulan sekali 220.000"},{"label":"Penjualan","value":"Dijual sendiri di tempat lain"}],"phone":"08813755026","photos":["/photos/kebun/877122535-depan.webp","/photos/kebun/877122535-samping.webp"],"gpsPrecision":4.866}},{"type":"Feature","id":"877146450","geometry":{"type":"Point","coordinates":[110.230507,-7.662812]},"properties":{"dataset":"kebun","name":"Perkebunan","subtitle":"Durian","padukuhan":"Promasan","address":"Padukuhan Promasan, RT 68 RW 33","facets":["Durian"],"details":[{"label":"Pemilik","value":"Bapak Ratno"},{"label":"Jenis durian","value":"Biasa"},{"label":"Jumlah pohon","value":"lt10"},{"label":"Penjualan","value":"Dikonsumsi sendiri"}],"phone":null,"photos":["/photos/kebun/877146450-depan.webp","/photos/kebun/877146450-samping.webp"],"gpsPrecision":4.978}},{"type":"Feature","id":"877146560","geometry":{"type":"Point","coordinates":[110.232648,-7.665834]},"properties":{"dataset":"kebun","name":"Perkebunan","subtitle":"Durian","padukuhan":"Promasan","address":"Padukuhan Promasan, RT 68 RW 33","facets":["Durian"],"details":[{"label":"Pemilik","value":"susteran SPM"},{"label":"Jenis durian","value":"Biasa"},{"label":"Jumlah pohon","value":"1025"},{"label":"Penjualan","value":"Lewat pengepul"}],"phone":null,"photos":["/photos/kebun/877146560-depan.webp","/photos/kebun/877146560-samping.webp"],"gpsPrecision":4.584}},{"type":"Feature","id":"877156366","geometry":{"type":"Point","coordinates":[110.245993,-7.664525]},"properties":{"dataset":"kebun","name":"Perkebunan","subtitle":"Durian","padukuhan":"Semawung","address":"Padukuhan Semawung, RT 70 RW 34","facets":["Durian"],"details":[{"label":"Pemilik","value":"Intj sudaryati"},{"label":"Jenis durian","value":"Biasa"},{"label":"Jumlah pohon","value":"lt10"},{"label":"Penjualan","value":"Dijual sendiri di tempat lain"}],"phone":null,"photos":["/photos/kebun/877156366-depan.webp","/photos/kebun/877156366-samping.webp"],"gpsPrecision":3.061}},{"type":"Feature","id":"877157450","geometry":{"type":"Point","coordinates":[110.243664,-7.667073]},"properties":{"dataset":"kebun","name":"Perkebunan","subtitle":"Durian","padukuhan":"Semawung","address":"Padukuhan Semawung, RT 70 RW 34","facets":["Durian"],"details":[{"label":"Pemilik","value":"Suntoro"},{"label":"Jenis durian","value":"Biasa"},{"label":"Jumlah pohon","value":"lt10"},{"label":"Penjualan","value":"Dijual sendiri di tempat lain"}],"phone":"082134940206","photos":["/photos/kebun/877157450-depan.webp","/photos/kebun/877157450-samping.webp"],"gpsPrecision":4.691}},{"type":"Feature","id":"877157673","geometry":{"type":"Point","coordinates":[110.243946,-7.666848]},"properties":{"dataset":"kebun","name":"Perkebunan","subtitle":"Durian","padukuhan":"Semawung","address":"Padukuhan Semawung, RT 70 RW 34","facets":["Durian"],"details":[{"label":"Pemilik","value":"Sarmi"},{"label":"Jenis durian","value":"Biasa"},{"label":"Jumlah pohon","value":"lt10"},{"label":"Penjualan","value":"Dijual sendiri di kebun"}],"phone":null,"photos":["/photos/kebun/877157673-depan.webp","/photos/kebun/877157673-samping.webp"],"gpsPrecision":2.907}},{"type":"Feature","id":"877157881","geometry":{"type":"Point","coordinates":[110.244559,-7.666676]},"properties":{"dataset":"kebun","name":"Perkebunan","subtitle":"Durian","padukuhan":"Semawung","address":"Padukuhan Semawung, RT 70 RW 34","facets":["Durian"],"details":[{"label":"Pemilik","value":"Marjio"},{"label":"Jenis durian","value":"Biasa"},{"label":"Jumlah pohon","value":"lt10"},{"label":"Penjualan","value":"Lewat pengepul"}],"phone":"082138076815","photos":["/photos/kebun/877157881-depan.webp","/photos/kebun/877157881-samping.webp"],"gpsPrecision":4.069}},{"type":"Feature","id":"877158088","geometry":{"type":"Point","coordinates":[110.243475,-7.666875]},"properties":{"dataset":"kebun","name":"Perkebunan","subtitle":"Durian","padukuhan":"Semawung","address":"Padukuhan Semawung, RT 70 RW 34","facets":["Durian"],"details":[{"label":"Pemilik","value":"Sunaryo"},{"label":"Jenis durian","value":"Biasa"},{"label":"Jumlah pohon","value":"lt10"},{"label":"Penjualan","value":"Lewat pengepul"}],"phone":"081325860198","photos":["/photos/kebun/877158088-depan.webp","/photos/kebun/877158088-samping.webp"],"gpsPrecision":2.8}},{"type":"Feature","id":"877158832","geometry":{"type":"Point","coordinates":[110.243519,-7.666845]},"properties":{"dataset":"kebun","name":"Perkebunan","subtitle":"Durian","padukuhan":"Semawung","address":"Padukuhan Semawung, RT 70 RW 34","facets":["Durian"],"details":[{"label":"Pemilik","value":"Suprapti"},{"label":"Jenis durian","value":"Biasa"},{"label":"Jumlah pohon","value":"lt10"},{"label":"Penjualan","value":"Dijual sendiri di tempat lain"}],"phone":null,"photos":["/photos/kebun/877158832-depan.webp","/photos/kebun/877158832-samping.webp"],"gpsPrecision":4.473}},{"type":"Feature","id":"877159330","geometry":{"type":"Point","coordinates":[110.244768,-7.666357]},"properties":{"dataset":"kebun","name":"Perkebunan","subtitle":"Durian","padukuhan":"Semawung","address":"Padukuhan Semawung, RT 70 RW 34","facets":["Durian"],"details":[{"label":"Pemilik","value":"Sudarna"},{"label":"Jenis durian","value":"Biasa"},{"label":"Jumlah pohon","value":"1025"},{"label":"Penjualan","value":"Lewat pengepul"}],"phone":"081327677250","photos":["/photos/kebun/877159330-depan.webp","/photos/kebun/877159330-samping.webp"],"gpsPrecision":4.6}},{"type":"Feature","id":"877159809","geometry":{"type":"Point","coordinates":[110.245415,-7.665952]},"properties":{"dataset":"kebun","name":"Perkebunan","subtitle":"Kelapa, Durian","padukuhan":"Semawung","address":"Padukuhan Semawung, RT 70 RW 34","facets":["Kelapa","Durian"],"details":[{"label":"Pemilik","value":"Mukijo"},{"label":"Jenis durian","value":"Biasa"},{"label":"Jumlah pohon","value":"lt10"},{"label":"Penjualan","value":"Dijual sendiri di tempat lain"}],"phone":"082186715668","photos":["/photos/kebun/877159809-depan.webp","/photos/kebun/877159809-samping.webp"],"gpsPrecision":4.42}},{"type":"Feature","id":"877160594","geometry":{"type":"Point","coordinates":[110.245797,-7.665868]},"properties":{"dataset":"kebun","name":"Perkebunan","subtitle":"Durian, Kelapa","padukuhan":"Semawung","address":"Padukuhan Semawung, RT 70 RW 34","facets":["Durian","Kelapa"],"details":[{"label":"Pemilik","value":"Zamroni"},{"label":"Jenis durian","value":"Biasa"},{"label":"Jumlah pohon","value":"lt10"},{"label":"Penjualan","value":"Dijual sendiri di kebun"}],"phone":null,"photos":["/photos/kebun/877160594-depan.webp","/photos/kebun/877160594-samping.webp"],"gpsPrecision":4.391}},{"type":"Feature","id":"877161141","geometry":{"type":"Point","coordinates":[110.24621,-7.665943]},"properties":{"dataset":"kebun","name":"Perkebunan","subtitle":"Durian, Kakao, Kelapa","padukuhan":"Semawung","address":"Padukuhan Semawung, RT 70 RW 34","facets":["Durian","Kakao","Kelapa"],"details":[{"label":"Pemilik","value":"Irwanto"},{"label":"Jenis durian","value":"Biasa"},{"label":"Jumlah pohon","value":"1025"},{"label":"Hasil panen","value":"-+150"},{"label":"Penjualan","value":"Dijual sendiri di kebun"}],"phone":"082137076672","photos":["/photos/kebun/877161141-depan.webp","/photos/kebun/877161141-samping.webp"],"gpsPrecision":4.42}},{"type":"Feature","id":"877161943","geometry":{"type":"Point","coordinates":[110.245063,-7.666078]},"properties":{"dataset":"kebun","name":"Perkebunan","subtitle":"Durian, Kelapa","padukuhan":"Semawung","address":"Padukuhan Semawung, RT 70 RW 34","facets":["Durian","Kelapa"],"details":[{"label":"Pemilik","value":"Suharyanto"},{"label":"Jenis durian","value":"Biasa"},{"label":"Jumlah pohon","value":"lt10"},{"label":"Hasil panen","value":"100 butir kepala p3 bulan"},{"label":"Penjualan","value":"Dijual sendiri di kebun"}],"phone":"081329379269","photos":["/photos/kebun/877161943-depan.webp","/photos/kebun/877161943-samping.webp"],"gpsPrecision":4.948}},{"type":"Feature","id":"877166108","geometry":{"type":"Point","coordinates":[110.245363,-7.659089]},"properties":{"dataset":"kebun","name":"Perkebunan","subtitle":"Kelapa","padukuhan":"Puguh","address":"Padukuhan Puguh, RT 79 RW 38","facets":["Kelapa"],"details":[{"label":"Pemilik","value":"Tarji"},{"label":"Jumlah pohon","value":"lt10"},{"label":"Penjualan","value":"Dijual sendiri di tempat lain"}],"phone":null,"photos":["/photos/kebun/877166108-depan.webp","/photos/kebun/877166108-samping.webp"],"gpsPrecision":4.665}},{"type":"Feature","id":"877166627","geometry":{"type":"Point","coordinates":[110.245234,-7.658277]},"properties":{"dataset":"kebun","name":"Perkebunan","subtitle":"Kelapa","padukuhan":"Puguh","address":"Padukuhan Puguh, RT 79 RW 38","facets":["Kelapa"],"details":[{"label":"Pemilik","value":"Agus subagiyo"},{"label":"Jumlah pohon","value":"lt10"},{"label":"Hasil panen","value":"20 butir per bulan"},{"label":"Penjualan","value":"Dijual sendiri di tempat lain"}],"phone":"085228180067","photos":["/photos/kebun/877166627-depan.webp","/photos/kebun/877166627-samping.webp"],"gpsPrecision":4.504}},{"type":"Feature","id":"877166718","geometry":{"type":"Point","coordinates":[110.245352,-7.657269]},"properties":{"dataset":"kebun","name":"Perkebunan","subtitle":"Kelapa","padukuhan":"Puguh","address":"Padukuhan Puguh, RT 79 RW 38","facets":["Kelapa"],"details":[{"label":"Pemilik","value":"Pargianto"},{"label":"Jumlah pohon","value":"lt10"},{"label":"Hasil panen","value":"30 butir per bulan"},{"label":"Penjualan","value":"Dijual sendiri di tempat lain"}],"phone":"082314144008","photos":["/photos/kebun/877166718-depan.webp","/photos/kebun/877166718-samping.webp"],"gpsPrecision":4.875}},{"type":"Feature","id":"877308643","geometry":{"type":"Point","coordinates":[110.256963,-7.648822]},"properties":{"dataset":"kebun","name":"Perkebunan","subtitle":"Kelapa","padukuhan":"Klangon","address":"Padukuhan Klangon, RT 31 RW 15","facets":["Kelapa"],"details":[{"label":"Pemilik","value":"Murdhilah"},{"label":"Jumlah pohon","value":"lt10"},{"label":"Penjualan","value":"Dijual sendiri di kebun, Dikonsumsi sendiri"}],"phone":null,"photos":["/photos/kebun/877308643-depan.webp","/photos/kebun/877308643-samping.webp"],"gpsPrecision":4.8}},{"type":"Feature","id":"877308814","geometry":{"type":"Point","coordinates":[110.257846,-7.649446]},"properties":{"dataset":"kebun","name":"Perkebunan","subtitle":"Durian, Kelapa","padukuhan":"Klangon","address":"Padukuhan Klangon, RT 31 RW 15","facets":["Durian","Kelapa"],"details":[{"label":"Pemilik","value":"Dul Rokhim"},{"label":"Jenis durian","value":"Biasa"},{"label":"Jumlah pohon","value":"lt10"},{"label":"Penjualan","value":"Dijual sendiri di tempat lain, Dikonsumsi sendiri"}],"phone":null,"photos":["/photos/kebun/877308814-depan.webp","/photos/kebun/877308814-samping.webp"],"gpsPrecision":4.931}},{"type":"Feature","id":"877309901","geometry":{"type":"Point","coordinates":[110.258568,-7.649644]},"properties":{"dataset":"kebun","name":"Perkebunan","subtitle":"Kelapa","padukuhan":"Klangon","address":"Padukuhan Klangon, RT 31 RW 15","facets":["Kelapa"],"details":[{"label":"Pemilik","value":"Jarkasi"},{"label":"Jumlah pohon","value":"lt10"},{"label":"Penjualan","value":"Dijual sendiri di kebun, Dikonsumsi sendiri"}],"phone":null,"photos":["/photos/kebun/877309901-depan.webp","/photos/kebun/877309901-samping.webp"],"gpsPrecision":3.85}},{"type":"Feature","id":"878105050","geometry":{"type":"Point","coordinates":[110.22499,-7.653562]},"properties":{"dataset":"kebun","name":"Perkebunan","subtitle":"Durian","padukuhan":"Plengan","address":"Padukuhan Plengan, RT 46 RW 22","facets":["Durian"],"details":[{"label":"Pemilik","value":"Sutaryanto"},{"label":"Jenis durian","value":"Unggulan"},{"label":"Jumlah pohon","value":"lt10"},{"label":"Penjualan","value":"Lewat pengepul"}],"phone":"083825228309","photos":["/photos/kebun/878105050-depan.webp","/photos/kebun/878105050-samping.webp"],"gpsPrecision":4.93}},{"type":"Feature","id":"878105175","geometry":{"type":"Point","coordinates":[110.225276,-7.653441]},"properties":{"dataset":"kebun","name":"Perkebunan","subtitle":"Kakao","padukuhan":"Plengan","address":"Padukuhan Plengan, RT 46 RW 22","facets":["Kakao"],"details":[{"label":"Pemilik","value":"Antoro"},{"label":"Jumlah pohon","value":"1025"},{"label":"Penjualan","value":"Lewat pengepul"}],"phone":null,"photos":["/photos/kebun/878105175-depan.webp","/photos/kebun/878105175-samping.webp"],"gpsPrecision":4.905}},{"type":"Feature","id":"878150985","geometry":{"type":"Point","coordinates":[110.259914,-7.672553]},"properties":{"dataset":"kebun","name":"Perkebunan","subtitle":"Kakao, Kelapa","padukuhan":"Banjaran","address":"Padukuhan Banjaran, RT 11 RW 6","facets":["Kakao","Kelapa"],"details":[{"label":"Pemilik","value":"Alm. Sugito Prayitno"},{"label":"Jumlah pohon","value":"1025"},{"label":"Penjualan","value":"Dijual sendiri di kebun"}],"phone":null,"photos":["/photos/kebun/878150985-depan.webp","/photos/kebun/878150985-samping.webp"],"gpsPrecision":4.863}},{"type":"Feature","id":"878151167","geometry":{"type":"Point","coordinates":[110.260916,-7.671866]},"properties":{"dataset":"kebun","name":"Perkebunan","subtitle":"Durian, Kelapa","padukuhan":"Banjaran","address":"Padukuhan Banjaran, RT 11 RW 6","facets":["Durian","Kelapa"],"details":[{"label":"Pemilik","value":"Sukiyem"},{"label":"Jenis durian","value":"Biasa"},{"label":"Jumlah pohon","value":"lt10"},{"label":"Penjualan","value":"Dijual sendiri di kebun"}],"phone":null,"photos":["/photos/kebun/878151167-depan.webp","/photos/kebun/878151167-samping.webp"],"gpsPrecision":4.434}},{"type":"Feature","id":"878294160","geometry":{"type":"Point","coordinates":[110.249868,-7.661922]},"properties":{"dataset":"kebun","name":"Perkebunan","subtitle":"Durian, Kakao, Kelapa","padukuhan":"Semawung","address":"Padukuhan Semawung, RT 71 RW 34","facets":["Durian","Kakao","Kelapa"],"details":[{"label":"Pemilik","value":"Yohanes Agus pujianto"},{"label":"Jenis durian","value":"Biasa"},{"label":"Jumlah pohon","value":"lt10"},{"label":"Hasil panen","value":"50 butir kelapa"},{"label":"Penjualan","value":"Lewat pengepul, Dijual sendiri di tempat lain"}],"phone":null,"photos":["/photos/kebun/878294160-depan.webp","/photos/kebun/878294160-samping.webp"],"gpsPrecision":4.84}},{"type":"Feature","id":"878294288","geometry":{"type":"Point","coordinates":[110.247137,-7.665485]},"properties":{"dataset":"kebun","name":"Perkebunan","subtitle":"Kelapa, Durian","padukuhan":"Semawung","address":"Padukuhan Semawung, RT 70 RW 34","facets":["Kelapa","Durian"],"details":[{"label":"Pemilik","value":"Antonia sulastri"},{"label":"Jenis durian","value":"Biasa"},{"label":"Jumlah pohon","value":"lt10"},{"label":"Penjualan","value":"Dijual sendiri di tempat lain"}],"phone":null,"photos":["/photos/kebun/878294288-depan.webp","/photos/kebun/878294288-samping.webp"],"gpsPrecision":3.74}},{"type":"Feature","id":"878294314","geometry":{"type":"Point","coordinates":[110.247472,-7.666405]},"properties":{"dataset":"kebun","name":"Perkebunan","subtitle":"Durian, Kakao, Kelapa","padukuhan":"Semawung","address":"Padukuhan Semawung, RT 70 RW 34","facets":["Durian","Kakao","Kelapa"],"details":[{"label":"Pemilik","value":"Marfu'ah"},{"label":"Jenis durian","value":"Biasa"},{"label":"Jumlah pohon","value":"lt10"},{"label":"Penjualan","value":"Dijual sendiri di kebun"}],"phone":null,"photos":["/photos/kebun/878294314-depan.webp","/photos/kebun/878294314-samping.webp"],"gpsPrecision":3.816}},{"type":"Feature","id":"878294525","geometry":{"type":"Point","coordinates":[110.247484,-7.666321]},"properties":{"dataset":"kebun","name":"Perkebunan","subtitle":"Durian, Kelapa","padukuhan":"Semawung","address":"Padukuhan Semawung, RT 70 RW 34","facets":["Durian","Kelapa"],"details":[{"label":"Pemilik","value":"Sukamdi"},{"label":"Jenis durian","value":"Biasa"},{"label":"Jumlah pohon","value":"lt10"},{"label":"Penjualan","value":"Dijual sendiri di tempat lain"}],"phone":null,"photos":["/photos/kebun/878294525-depan.webp","/photos/kebun/878294525-samping.webp"],"gpsPrecision":2.347}},{"type":"Feature","id":"878294591","geometry":{"type":"Point","coordinates":[110.247483,-7.666323]},"properties":{"dataset":"kebun","name":"Perkebunan","subtitle":"Durian, Kelapa","padukuhan":"Semawung","address":"Padukuhan Semawung, RT 70 RW 34","facets":["Durian","Kelapa"],"details":[{"label":"Pemilik","value":"Ahmad rifa'i"},{"label":"Jenis durian","value":"Biasa"},{"label":"Jumlah pohon","value":"lt10"},{"label":"Penjualan","value":"Dijual sendiri di tempat lain"}],"phone":null,"photos":["/photos/kebun/878294591-depan.webp","/photos/kebun/878294591-samping.webp"],"gpsPrecision":4}},{"type":"Feature","id":"878294655","geometry":{"type":"Point","coordinates":[110.247305,-7.666832]},"properties":{"dataset":"kebun","name":"Perkebunan","subtitle":"Durian, Kelapa","padukuhan":"Semawung","address":"Padukuhan Semawung, RT 70 RW 34","facets":["Durian","Kelapa"],"details":[{"label":"Pemilik","value":"Sukito"},{"label":"Jenis durian","value":"Biasa"},{"label":"Jumlah pohon","value":"lt10"},{"label":"Penjualan","value":"Dijual sendiri di tempat lain"}],"phone":null,"photos":["/photos/kebun/878294655-depan.webp","/photos/kebun/878294655-samping.webp"],"gpsPrecision":4.925}},{"type":"Feature","id":"878294727","geometry":{"type":"Point","coordinates":[110.245467,-7.667108]},"properties":{"dataset":"kebun","name":"Perkebunan","subtitle":"Durian, Kelapa","padukuhan":"Semawung","address":"Padukuhan Semawung, RT 70 RW 34","facets":["Durian","Kelapa"],"details":[{"label":"Pemilik","value":"Purwodihadjo"},{"label":"Jenis durian","value":"Biasa"},{"label":"Jumlah pohon","value":"lt10"},{"label":"Penjualan","value":"Dijual sendiri di kebun"}],"phone":null,"photos":["/photos/kebun/878294727-depan.webp","/photos/kebun/878294727-samping.webp"],"gpsPrecision":3}},{"type":"Feature","id":"878294775","geometry":{"type":"Point","coordinates":[110.245357,-7.667102]},"properties":{"dataset":"kebun","name":"Perkebunan","subtitle":"Durian","padukuhan":"Semawung","address":"Padukuhan Semawung, RT 70 RW 34","facets":["Durian"],"details":[{"label":"Pemilik","value":"Sutimah"},{"label":"Jenis durian","value":"Biasa"},{"label":"Jumlah pohon","value":"lt10"},{"label":"Penjualan","value":"Dijual sendiri di tempat lain"}],"phone":null,"photos":["/photos/kebun/878294775-depan.webp","/photos/kebun/878294775-samping.webp"],"gpsPrecision":4.943}},{"type":"Feature","id":"878294825","geometry":{"type":"Point","coordinates":[110.24686,-7.664612]},"properties":{"dataset":"kebun","name":"Perkebunan","subtitle":"Durian, Kelapa","padukuhan":"Semawung","address":"Padukuhan Semawung, RT 70 RW 34","facets":["Durian","Kelapa"],"details":[{"label":"Pemilik","value":"Suprapto"},{"label":"Jenis durian","value":"Biasa"},{"label":"Jumlah pohon","value":"lt10"},{"label":"Penjualan","value":"Dijual sendiri di tempat lain"}],"phone":null,"photos":["/photos/kebun/878294825-depan.webp","/photos/kebun/878294825-samping.webp"],"gpsPrecision":4.325}},{"type":"Feature","id":"878294863","geometry":{"type":"Point","coordinates":[110.247142,-7.664332]},"properties":{"dataset":"kebun","name":"Perkebunan","subtitle":"Kelapa","padukuhan":"Semawung","address":"Padukuhan Semawung, RT 70 RW 34","facets":["Kelapa"],"details":[{"label":"Pemilik","value":"Walji"},{"label":"Jumlah pohon","value":"lt10"},{"label":"Penjualan","value":"Dijual sendiri di tempat lain"}],"phone":null,"photos":["/photos/kebun/878294863-depan.webp","/photos/kebun/878294863-samping.webp"],"gpsPrecision":4.6}},{"type":"Feature","id":"878757184","geometry":{"type":"Point","coordinates":[110.257371,-7.654719]},"properties":{"dataset":"kebun","name":"Perkebunan","subtitle":"Kelapa","padukuhan":"Pranan","address":"Padukuhan Pranan, RT 20 RW 10","facets":["Kelapa"],"details":[{"label":"Pemilik","value":"Kartugi"},{"label":"Jumlah pohon","value":"lt10"},{"label":"Penjualan","value":"Dikonsumsi sendiri"}],"phone":null,"photos":["/photos/kebun/878757184-depan.webp","/photos/kebun/878757184-samping.webp"],"gpsPrecision":11.066}},{"type":"Feature","id":"878757212","geometry":{"type":"Point","coordinates":[110.257406,-7.654541]},"properties":{"dataset":"kebun","name":"Perkebunan","subtitle":"Durian","padukuhan":"Pranan","address":"Padukuhan Pranan, RT 20 RW 10","facets":["Durian"],"details":[{"label":"Pemilik","value":"Narpandi"},{"label":"Jenis durian","value":"Biasa"},{"label":"Jumlah pohon","value":"lt10"},{"label":"Penjualan","value":"Lewat pengepul"}],"phone":null,"photos":["/photos/kebun/878757212-depan.webp","/photos/kebun/878757212-samping.webp"],"gpsPrecision":11.45}},{"type":"Feature","id":"878757219","geometry":{"type":"Point","coordinates":[110.257345,-7.654543]},"properties":{"dataset":"kebun","name":"Perkebunan","subtitle":"Kakao","padukuhan":"Pranan","address":"Padukuhan Pranan, RT 20 RW 10","facets":["Kakao"],"details":[{"label":"Pemilik","value":"Narpandi"},{"label":"Jumlah pohon","value":"1025"},{"label":"Penjualan","value":"Dijual sendiri di tempat lain"}],"phone":null,"photos":["/photos/kebun/878757219-depan.webp","/photos/kebun/878757219-samping.webp"],"gpsPrecision":11.6}},{"type":"Feature","id":"878757228","geometry":{"type":"Point","coordinates":[110.257691,-7.654443]},"properties":{"dataset":"kebun","name":"Perkebunan","subtitle":"Kelapa","padukuhan":"Pranan","address":"Padukuhan Pranan, RT 20 RW 10","facets":["Kelapa"],"details":[{"label":"Pemilik","value":"Narpandi"},{"label":"Jumlah pohon","value":"lt10"},{"label":"Penjualan","value":"Dijual sendiri di kebun"}],"phone":null,"photos":["/photos/kebun/878757228-depan.webp","/photos/kebun/878757228-samping.webp"],"gpsPrecision":13.066}},{"type":"Feature","id":"878757987","geometry":{"type":"Point","coordinates":[110.230399,-7.666376]},"properties":{"dataset":"kebun","name":"Perkebunan","subtitle":"Kakao, Kelapa","padukuhan":"Semagung","address":"Padukuhan Semagung, RT 62 RW 30","facets":["Kakao","Kelapa"],"details":[{"label":"Pemilik","value":"kuswiyatmoko"},{"label":"Jumlah pohon","value":"lt10"},{"label":"Penjualan","value":"Dijual sendiri di tempat lain"}],"phone":null,"photos":["/photos/kebun/878757987-depan.webp","/photos/kebun/878757987-samping.webp"],"gpsPrecision":8.797}},{"type":"Feature","id":"878758002","geometry":{"type":"Point","coordinates":[110.230088,-7.667019]},"properties":{"dataset":"kebun","name":"Perkebunan","subtitle":"Durian","padukuhan":"Semagung","address":"Padukuhan Semagung, RT 62 RW 30","facets":["Durian"],"details":[{"label":"Pemilik","value":"kuswiyatmoko"},{"label":"Jenis durian","value":"Biasa"},{"label":"Jumlah pohon","value":"lt10"},{"label":"Penjualan","value":"Dikonsumsi sendiri"}],"phone":null,"photos":["/photos/kebun/878758002-depan.webp","/photos/kebun/878758002-samping.webp","/photos/kebun/878758002-lainnya.webp"],"gpsPrecision":11.594}},{"type":"Feature","id":"878758011","geometry":{"type":"Point","coordinates":[110.23031,-7.666375]},"properties":{"dataset":"kebun","name":"Perkebunan","subtitle":"Durian","padukuhan":"Semagung","address":"Padukuhan Semagung, RT 30 RW 62","facets":["Durian"],"details":[{"label":"Pemilik","value":"kuswiyatmoko"},{"label":"Jenis durian","value":"Biasa"},{"label":"Jumlah pohon","value":"lt10"},{"label":"Penjualan","value":"Dikonsumsi sendiri"}],"phone":null,"photos":["/photos/kebun/878758011-depan.webp","/photos/kebun/878758011-samping.webp"],"gpsPrecision":9.1}},{"type":"Feature","id":"878758132","geometry":{"type":"Point","coordinates":[110.228412,-7.666989]},"properties":{"dataset":"kebun","name":"Perkebunan","subtitle":"Kakao, Durian","padukuhan":"Semagung","address":"Padukuhan Semagung, RT 62 RW 30","facets":["Kakao","Durian"],"details":[{"label":"Pemilik","value":"sarnadi"},{"label":"Jenis durian","value":"Biasa"},{"label":"Jumlah pohon","value":"lt10"},{"label":"Penjualan","value":"Dijual sendiri di kebun"}],"phone":null,"photos":["/photos/kebun/878758132-depan.webp","/photos/kebun/878758132-samping.webp"],"gpsPrecision":45.233}},{"type":"Feature","id":"878758164","geometry":{"type":"Point","coordinates":[110.228981,-7.665893]},"properties":{"dataset":"kebun","name":"Perkebunan","subtitle":"Durian, Kelapa","padukuhan":"Semagung","address":"Padukuhan Semagung, RT 62 RW 30","facets":["Durian","Kelapa"],"details":[{"label":"Pemilik","value":"karjana"},{"label":"Jenis durian","value":"Unggulan"},{"label":"Jumlah pohon","value":"lt10"},{"label":"Hasil panen","value":"panen durian 20an untuk 1 pohon"},{"label":"Penjualan","value":"Dijual sendiri di tempat lain"}],"phone":"085328037037","photos":["/photos/kebun/878758164-depan.webp","/photos/kebun/878758164-samping.webp"],"gpsPrecision":5.067}},{"type":"Feature","id":"878758214","geometry":{"type":"Point","coordinates":[110.228924,-7.666252]},"properties":{"dataset":"kebun","name":"Perkebunan","subtitle":"Durian","padukuhan":"Semagung","address":"Padukuhan Semagung, RT 62 RW 30","facets":["Durian"],"details":[{"label":"Pemilik","value":"suharjo"},{"label":"Jenis durian","value":"Unggulan"},{"label":"Jumlah pohon","value":"lt10"},{"label":"Penjualan","value":"Dijual sendiri di kebun"}],"phone":null,"photos":["/photos/kebun/878758214-depan.webp","/photos/kebun/878758214-samping.webp"],"gpsPrecision":122.4}},{"type":"Feature","id":"879016173","geometry":{"type":"Point","coordinates":[110.256562,-7.646106]},"properties":{"dataset":"kebun","name":"Perkebunan","subtitle":"Kelapa, Durian","padukuhan":"Klangon","address":"Padukuhan Klangon, RT 29 RW 14","facets":["Kelapa","Durian"],"details":[{"label":"Pemilik","value":"Siti Munapiah"},{"label":"Jenis durian","value":"Biasa"},{"label":"Jumlah pohon","value":"lt10"},{"label":"Penjualan","value":"Dijual sendiri di tempat lain"}],"phone":null,"photos":["/photos/kebun/879016173-depan.webp","/photos/kebun/879016173-samping.webp","/photos/kebun/879016173-lainnya.webp"],"gpsPrecision":4.4}},{"type":"Feature","id":"879016335","geometry":{"type":"Point","coordinates":[110.25623,-7.64622]},"properties":{"dataset":"kebun","name":"Perkebunan","subtitle":"Kelapa","padukuhan":"Klangon","address":"Padukuhan Klangon, RT 29 RW 14","facets":["Kelapa"],"details":[{"label":"Pemilik","value":"Rahman Ashuri"},{"label":"Jumlah pohon","value":"lt10"},{"label":"Penjualan","value":"Lewat pengepul"}],"phone":null,"photos":["/photos/kebun/879016335-depan.webp","/photos/kebun/879016335-samping.webp"],"gpsPrecision":4.4}},{"type":"Feature","id":"879017943","geometry":{"type":"Point","coordinates":[110.256998,-7.646406]},"properties":{"dataset":"kebun","name":"Perkebunan","subtitle":"Durian, Kelapa","padukuhan":"Klangon","address":"Padukuhan Klangon, RT 29 RW 14","facets":["Durian","Kelapa"],"details":[{"label":"Pemilik","value":"Nuryanto"},{"label":"Jenis durian","value":"Biasa"},{"label":"Jumlah pohon","value":"lt10"},{"label":"Penjualan","value":"Lewat pengepul"}],"phone":null,"photos":["/photos/kebun/879017943-depan.webp","/photos/kebun/879017943-samping.webp","/photos/kebun/879017943-lainnya.webp"],"gpsPrecision":6.289}},{"type":"Feature","id":"879017979","geometry":{"type":"Point","coordinates":[110.25854,-7.646215]},"properties":{"dataset":"kebun","name":"Perkebunan","subtitle":"Durian, Kelapa","padukuhan":"Klangon","address":"Padukuhan Klangon, RT 30 RW 15","facets":["Durian","Kelapa"],"details":[{"label":"Pemilik","value":"Ismanan"},{"label":"Jenis durian","value":"Biasa"},{"label":"Jumlah pohon","value":"lt10"},{"label":"Penjualan","value":"Dijual sendiri di tempat lain"}],"phone":null,"photos":["/photos/kebun/879017979-depan.webp","/photos/kebun/879017979-samping.webp","/photos/kebun/879017979-lainnya.webp"],"gpsPrecision":3.8}},{"type":"Feature","id":"879018014","geometry":{"type":"Point","coordinates":[110.257188,-7.645724]},"properties":{"dataset":"kebun","name":"Perkebunan","subtitle":"Durian, Kelapa, Kakao","padukuhan":"Klangon","address":"Padukuhan Klangon, RT 30 RW 15","facets":["Durian","Kelapa","Kakao"],"details":[{"label":"Pemilik","value":"Siti khasanah"},{"label":"Jenis durian","value":"Biasa"},{"label":"Jumlah pohon","value":"lt10"},{"label":"Penjualan","value":"Dijual sendiri di tempat lain"}],"phone":null,"photos":["/photos/kebun/879018014-depan.webp","/photos/kebun/879018014-samping.webp","/photos/kebun/879018014-lainnya.webp"],"gpsPrecision":7.937}},{"type":"Feature","id":"879018038","geometry":{"type":"Point","coordinates":[110.257764,-7.647993]},"properties":{"dataset":"kebun","name":"Perkebunan","subtitle":"Durian","padukuhan":"Klangon","address":"Padukuhan Klangon, RT 30 RW 15","facets":["Durian"],"details":[{"label":"Pemilik","value":"Jauhari"},{"label":"Jenis durian","value":"Biasa"},{"label":"Jumlah pohon","value":"lt10"},{"label":"Penjualan","value":"Dijual sendiri di tempat lain"}],"phone":null,"photos":["/photos/kebun/879018038-depan.webp","/photos/kebun/879018038-samping.webp"],"gpsPrecision":4.14}},{"type":"Feature","id":"879020470","geometry":{"type":"Point","coordinates":[110.258463,-7.646977]},"properties":{"dataset":"kebun","name":"Perkebunan","subtitle":"Durian","padukuhan":"Klangon","address":"Padukuhan Klangon, RT 30 RW 15","facets":["Durian"],"details":[{"label":"Pemilik","value":"Sholeh/Sripai"},{"label":"Jenis durian","value":"Biasa"},{"label":"Jumlah pohon","value":"lt10"},{"label":"Penjualan","value":"Dikonsumsi sendiri, Dijual sendiri di kebun"}],"phone":null,"photos":["/photos/kebun/879020470-depan.webp","/photos/kebun/879020470-samping.webp"],"gpsPrecision":3.608}},{"type":"Feature","id":"879031809","geometry":{"type":"Point","coordinates":[110.22362,-7.652225]},"properties":{"dataset":"kebun","name":"Perkebunan","subtitle":"Kakao, Durian, Kelapa","padukuhan":"Plengan","address":"Padukuhan Plengan, RT 46 RW 22","facets":["Kakao","Durian","Kelapa"],"details":[{"label":"Pemilik","value":"Marni"},{"label":"Jenis durian","value":"Biasa"},{"label":"Jumlah pohon","value":"1025"},{"label":"Hasil panen","value":"Untuk pohon durian ada 3 pohon, pohon kelapa lebih dari 5 pohon dan kakao lebih dari 10 pohon"},{"label":"Penjualan","value":"Lewat pengepul"}],"phone":null,"photos":["/photos/kebun/879031809-depan.webp","/photos/kebun/879031809-samping.webp"],"gpsPrecision":4.888}},{"type":"Feature","id":"879031840","geometry":{"type":"Point","coordinates":[110.223538,-7.651511]},"properties":{"dataset":"kebun","name":"Perkebunan","subtitle":"Durian, Kelapa","padukuhan":"Plengan","address":"Padukuhan Plengan, RT 46 RW 22","facets":["Durian","Kelapa"],"details":[{"label":"Pemilik","value":"Dhanang"},{"label":"Jenis durian","value":"Biasa"},{"label":"Jumlah pohon","value":"lt10"},{"label":"Hasil panen","value":"Pohon durian ada 5 pohon untuk pohon kelapa lebih dari 10 pohon"},{"label":"Penjualan","value":"Lewat pengepul"}],"phone":"081213866426","photos":["/photos/kebun/879031840-depan.webp","/photos/kebun/879031840-samping.webp"],"gpsPrecision":4.377}},{"type":"Feature","id":"879031875","geometry":{"type":"Point","coordinates":[110.223026,-7.65143]},"properties":{"dataset":"kebun","name":"Perkebunan","subtitle":"Kakao","padukuhan":"Plengan","address":"Padukuhan Plengan, RT 46 RW 22","facets":["Kakao"],"details":[{"label":"Pemilik","value":"Wanto"},{"label":"Jumlah pohon","value":"1025"},{"label":"Penjualan","value":"Lewat pengepul"}],"phone":null,"photos":["/photos/kebun/879031875-depan.webp","/photos/kebun/879031875-samping.webp"],"gpsPrecision":4.99}},{"type":"Feature","id":"879031909","geometry":{"type":"Point","coordinates":[110.221822,-7.650498]},"properties":{"dataset":"kebun","name":"Perkebunan","subtitle":"Durian","padukuhan":"Plengan","address":"Padukuhan Plengan, RT 46 RW 22","facets":["Durian"],"details":[{"label":"Pemilik","value":"Tumi robyong"},{"label":"Jenis durian","value":"Biasa"},{"label":"Jumlah pohon","value":"lt10"},{"label":"Penjualan","value":"Lewat pengepul"}],"phone":null,"photos":["/photos/kebun/879031909-depan.webp","/photos/kebun/879031909-samping.webp"],"gpsPrecision":4.998}},{"type":"Feature","id":"879031923","geometry":{"type":"Point","coordinates":[110.221243,-7.650567]},"properties":{"dataset":"kebun","name":"Perkebunan","subtitle":"Kelapa","padukuhan":"Plengan","address":"Padukuhan Plengan, RT 46 RW 22","facets":["Kelapa"],"details":[{"label":"Pemilik","value":"Suprih"},{"label":"Jumlah pohon","value":"lt10"},{"label":"Penjualan","value":"Lewat pengepul"}],"phone":null,"photos":["/photos/kebun/879031923-depan.webp","/photos/kebun/879031923-samping.webp"],"gpsPrecision":4.405}},{"type":"Feature","id":"879031943","geometry":{"type":"Point","coordinates":[110.220899,-7.65093]},"properties":{"dataset":"kebun","name":"Perkebunan","subtitle":"Durian, Kelapa","padukuhan":"Plengan","address":"Padukuhan Plengan, RT 46 RW 22","facets":["Durian","Kelapa"],"details":[{"label":"Pemilik","value":"Sukidal"},{"label":"Jenis durian","value":"Biasa"},{"label":"Jumlah pohon","value":"lt10"},{"label":"Penjualan","value":"Dijual sendiri di tempat lain"}],"phone":null,"photos":["/photos/kebun/879031943-depan.webp","/photos/kebun/879031943-samping.webp"],"gpsPrecision":4.768}},{"type":"Feature","id":"879031970","geometry":{"type":"Point","coordinates":[110.222267,-7.652043]},"properties":{"dataset":"kebun","name":"Perkebunan","subtitle":"Kelapa","padukuhan":"Plengan","address":"Padukuhan Plengan, RT 46 RW 22","facets":["Kelapa"],"details":[{"label":"Pemilik","value":"Sutaryanto"},{"label":"Jumlah pohon","value":"lt10"},{"label":"Penjualan","value":"Lewat pengepul"}],"phone":null,"photos":["/photos/kebun/879031970-depan.webp","/photos/kebun/879031970-samping.webp"],"gpsPrecision":4.936}},{"type":"Feature","id":"879032330","geometry":{"type":"Point","coordinates":[110.231909,-7.654667]},"properties":{"dataset":"kebun","name":"Perkebunan","subtitle":"Durian","padukuhan":"Dlingseng","address":"Padukuhan Dlingseng, RT 43 RW 21","facets":["Durian"],"details":[{"label":"Pemilik","value":"Bpk HARTOYO dan Bpk ADIYANTA"},{"label":"Jenis durian","value":"Biasa"},{"label":"Jumlah pohon","value":"lt10"},{"label":"Penjualan","value":"Dijual sendiri di tempat lain"}],"phone":null,"photos":["/photos/kebun/879032330-depan.webp","/photos/kebun/879032330-samping.webp"],"gpsPrecision":4.987}}]}