{"type":"FeatureCollection","features":[{"type":"Feature","id":"875643317","geometry":{"type":"Point","coordinates":[110.247122,-7.665267]},"properties":{"dataset":"rtlh","name":"Rumah Tidak Layak Huni","subtitle":null,"padukuhan":"Semawung","address":null,"facets":[],"details":[],"phone":null,"photos":["/photos/rtlh/875643317-depan.webp","/photos/rtlh/875643317-samping.webp"],"gpsPrecision":4.7}},{"type":"Feature","id":"877166148","geometry":{"type":"Point","coordinates":[110.245121,-7.658761]},"properties":{"dataset":"rtlh","name":"Rumah Tidak Layak Huni","subtitle":null,"padukuhan":"Puguh","address":null,"facets":[],"details":[],"phone":null,"photos":["/photos/rtlh/877166148-depan.webp","/photos/rtlh/877166148-samping.webp"],"gpsPrecision":4.98}},{"type":"Feature","id":"878105071","geometry":{"type":"Point","coordinates":[110.223681,-7.652825]},"properties":{"dataset":"rtlh","name":"Rumah Tidak Layak Huni","subtitle":null,"padukuhan":"Plengan","address":null,"facets":[],"details":[],"phone":null,"photos":["/photos/rtlh/878105071-depan.webp","/photos/rtlh/878105071-samping.webp","/photos/rtlh/878105071-lainnya.webp"],"gpsPrecision":4.942}}]}