{"type":"FeatureCollection","features":[{"type":"Feature","id":"875621145","geometry":{"type":"Point","coordinates":[110.217901,-7.661142]},"properties":{"dataset":"ternak","name":"Peternakan dan Perikanan","subtitle":"Peternakan","padukuhan":"Tanjung","address":"Padukuhan Tanjung, RT 56 RW 27","facets":["Peternakan"],"details":[{"label":"Pemilik","value":"Puji raharjo"},{"label":"Ternak","value":"Sapi, Kambing"},{"label":"Jumlah","value":"lt10"},{"label":"Penjualan","value":"Dijual sendiri di lokasi"}],"phone":null,"photos":["/photos/ternak/875621145-depan.webp","/photos/ternak/875621145-samping.webp"],"gpsPrecision":2}},{"type":"Feature","id":"875638461","geometry":{"type":"Point","coordinates":[110.222763,-7.665504]},"properties":{"dataset":"ternak","name":"Peternakan dan Perikanan","subtitle":"Peternakan","padukuhan":"Kajoran","address":"Padukuhan Kajoran, RT 57 RW 28","facets":["Peternakan"],"details":[{"label":"Pemilik","value":"Puji susanto"},{"label":"Ternak","value":"Kambing"},{"label":"Jumlah","value":"lt10"},{"label":"Penjualan","value":"Dijual sendiri di lokasi"},{"label":"Keterangan","value":"Kandang milik sendiri,\nKambing sebagian milik kelompok ternak"}],"phone":null,"photos":["/photos/ternak/875638461-depan.webp","/photos/ternak/875638461-samping.webp"],"gpsPrecision":4.007}},{"type":"Feature","id":"875638470","geometry":{"type":"Point","coordinates":[110.223029,-7.665645]},"properties":{"dataset":"ternak","name":"Peternakan dan Perikanan","subtitle":"Peternakan","padukuhan":"Kajoran","address":"Padukuhan Kajoran, RT 57 RW 28","facets":["Peternakan"],"details":[{"label":"Pemilik","value":"Purwanto"},{"label":"Ternak","value":"Kambing"},{"label":"Jumlah","value":"lt10"},{"label":"Penjualan","value":"Dijual sendiri di lokasi"},{"label":"Keterangan","value":"Sebagian milik kelompok ternak"}],"phone":null,"photos":["/photos/ternak/875638470-depan.webp","/photos/ternak/875638470-samping.webp"],"gpsPrecision":4.772}},{"type":"Feature","id":"875643273","geometry":{"type":"Point","coordinates":[110.247142,-7.665268]},"properties":{"dataset":"ternak","name":"Peternakan dan Perikanan","subtitle":"Peternakan","padukuhan":"Semawung","address":"Padukuhan Semawung, RT 70 RW 34","facets":["Peternakan"],"details":[{"label":"Pemilik","value":"Samsul Huda"},{"label":"Ternak","value":"Lebah, lanceng"},{"label":"Jumlah","value":"51100"},{"label":"Penjualan","value":"Dijual sendiri di tempat lain"},{"label":"Keterangan","value":"Panen tiap 3 bulan"}],"phone":"081328779976","photos":["/photos/ternak/875643273-depan.webp","/photos/ternak/875643273-samping.webp"],"gpsPrecision":4.983}},{"type":"Feature","id":"875643352","geometry":{"type":"Point","coordinates":[110.248085,-7.663894]},"properties":{"dataset":"ternak","name":"Peternakan dan Perikanan","subtitle":"Peternakan","padukuhan":"Semawung","address":"Padukuhan Semawung, RT 70 RW 34","facets":["Peternakan"],"details":[{"label":"Pemilik","value":"Damroni"},{"label":"Ternak","value":"Sapi"},{"label":"Jumlah","value":"lt10"},{"label":"Penjualan","value":"Dijual sendiri di tempat lain"}],"phone":null,"photos":["/photos/ternak/875643352-depan.webp","/photos/ternak/875643352-samping.webp"],"gpsPrecision":4.672}},{"type":"Feature","id":"875643383","geometry":{"type":"Point","coordinates":[110.247645,-7.66392]},"properties":{"dataset":"ternak","name":"Peternakan dan Perikanan","subtitle":"Perikanan","padukuhan":"Semawung","address":"Padukuhan Semawung, RT 71 RW 34","facets":["Perikanan"],"details":[{"label":"Pemilik","value":"Miftahul huda"},{"label":"Ikan","value":"Lele"},{"label":"Jumlah","value":"2650"},{"label":"Penjualan","value":"Dikonsumsi sendiri"}],"phone":"083111501025","photos":["/photos/ternak/875643383-depan.webp","/photos/ternak/875643383-samping.webp"],"gpsPrecision":4.971}},{"type":"Feature","id":"875643397","geometry":{"type":"Point","coordinates":[110.247673,-7.66393]},"properties":{"dataset":"ternak","name":"Peternakan dan Perikanan","subtitle":"Peternakan","padukuhan":"Semawung","address":"Padukuhan Semawung, RT 71 RW 34","facets":["Peternakan"],"details":[{"label":"Pemilik","value":"Nuryasin"},{"label":"Ternak","value":"Kambing"},{"label":"Jumlah","value":"lt10"},{"label":"Penjualan","value":"Lewat pengepul"}],"phone":"083111501025","photos":["/photos/ternak/875643397-depan.webp","/photos/ternak/875643397-samping.webp"],"gpsPrecision":4.696}},{"type":"Feature","id":"875643447","geometry":{"type":"Point","coordinates":[110.246247,-7.664839]},"properties":{"dataset":"ternak","name":"Peternakan dan Perikanan","subtitle":"Peternakan","padukuhan":"Semawung","address":"Padukuhan Semawung, RT 70 RW 34","facets":["Peternakan"],"details":[{"label":"Pemilik","value":"Riski fajar alfianto"},{"label":"Ternak","value":"Ayam"},{"label":"Jumlah","value":"1025"},{"label":"Penjualan","value":"Lewat pengepul"}],"phone":null,"photos":["/photos/ternak/875643447-depan.webp","/photos/ternak/875643447-samping.webp"],"gpsPrecision":4.6}},{"type":"Feature","id":"875673023","geometry":{"type":"Point","coordinates":[110.247394,-7.660176]},"properties":{"dataset":"ternak","name":"Peternakan dan Perikanan","subtitle":"Peternakan","padukuhan":"Puguh","address":"Padukuhan Puguh, RT 79 RW 38","facets":["Peternakan"],"details":[{"label":"Pemilik","value":"Sumari"},{"label":"Ternak","value":"Kambing"},{"label":"Jumlah","value":"lt10"},{"label":"Penjualan","value":"Dijual sendiri di lokasi"}],"phone":null,"photos":["/photos/ternak/875673023-depan.webp","/photos/ternak/875673023-samping.webp"],"gpsPrecision":4.742}},{"type":"Feature","id":"875673036","geometry":{"type":"Point","coordinates":[110.247226,-7.660346]},"properties":{"dataset":"ternak","name":"Peternakan dan Perikanan","subtitle":"Peternakan","padukuhan":"Puguh","address":"Padukuhan Puguh, RT 79 RW 38","facets":["Peternakan"],"details":[{"label":"Pemilik","value":"Isrodiyah"},{"label":"Ternak","value":"Kambing"},{"label":"Jumlah","value":"lt10"},{"label":"Penjualan","value":"Dijual sendiri di lokasi"},{"label":"Keterangan","value":"Kandang milik 1 orang, kambing 2 panen kadang 6 bulan sekali"}],"phone":"085954232509","photos":["/photos/ternak/875673036-depan.webp","/photos/ternak/875673036-samping.webp"],"gpsPrecision":4.611}},{"type":"Feature","id":"875673045","geometry":{"type":"Point","coordinates":[110.246437,-7.660704]},"properties":{"dataset":"ternak","name":"Peternakan dan Perikanan","subtitle":"Peternakan","padukuhan":"Puguh","address":"Padukuhan Puguh, RT 79 RW 38","facets":["Peternakan"],"details":[{"label":"Pemilik","value":"Werden"},{"label":"Ternak","value":"Kambing"},{"label":"Jumlah","value":"lt10"},{"label":"Penjualan","value":"Dijual sendiri di tempat lain"},{"label":"Keterangan","value":"Kandang milik 1kk kambing 1"}],"phone":"081218958162","photos":["/photos/ternak/875673045-depan.webp","/photos/ternak/875673045-samping.webp"],"gpsPrecision":4.122}},{"type":"Feature","id":"875673057","geometry":{"type":"Point","coordinates":[110.246262,-7.660693]},"properties":{"dataset":"ternak","name":"Peternakan dan Perikanan","subtitle":"Peternakan","padukuhan":"Puguh","address":"Padukuhan Puguh, RT 79 RW 38","facets":["Peternakan"],"details":[{"label":"Pemilik","value":"Supianah"},{"label":"Ternak","value":"Kambing"},{"label":"Jumlah","value":"lt10"},{"label":"Penjualan","value":"Dijual sendiri di tempat lain"},{"label":"Keterangan","value":"Kandang milik 1kk, panen 7 bulan"}],"phone":"081325873711","photos":["/photos/ternak/875673057-depan.webp","/photos/ternak/875673057-samping.webp"],"gpsPrecision":4.311}},{"type":"Feature","id":"875673095","geometry":{"type":"Point","coordinates":[110.246262,-7.660698]},"properties":{"dataset":"ternak","name":"Peternakan dan Perikanan","subtitle":"Peternakan","padukuhan":"Puguh","address":"Padukuhan Puguh, RT 79 RW 38","facets":["Peternakan"],"details":[{"label":"Pemilik","value":"Wiryanta"},{"label":"Ternak","value":"Kambing"},{"label":"Jumlah","value":"lt10"},{"label":"Penjualan","value":"Dijual sendiri di tempat lain"},{"label":"Keterangan","value":"Kandang milik 1kk, panen tiap 7 bulan"}],"phone":null,"photos":["/photos/ternak/875673095-depan.webp","/photos/ternak/875673095-samping.webp"],"gpsPrecision":4.553}},{"type":"Feature","id":"875673156","geometry":{"type":"Point","coordinates":[110.247236,-7.660732]},"properties":{"dataset":"ternak","name":"Peternakan dan Perikanan","subtitle":"Peternakan","padukuhan":"Puguh","address":"Padukuhan Puguh, RT 79 RW 38","facets":["Peternakan"],"details":[{"label":"Pemilik","value":"Suprehatin"},{"label":"Ternak","value":"Kambing"},{"label":"Jumlah","value":"lt10"},{"label":"Penjualan","value":"Dijual sendiri di tempat lain"},{"label":"Keterangan","value":"Kandang milik 1kk panen 6 bulan"}],"phone":null,"photos":["/photos/ternak/875673156-depan.webp","/photos/ternak/875673156-samping.webp","/photos/ternak/875673156-lainnya.webp"],"gpsPrecision":4.56}},{"type":"Feature","id":"875673172","geometry":{"type":"Point","coordinates":[110.246798,-7.660554]},"properties":{"dataset":"ternak","name":"Peternakan dan Perikanan","subtitle":"Peternakan","padukuhan":"Puguh","address":"Padukuhan Puguh, RT 79 RW 38","facets":["Peternakan"],"details":[{"label":"Pemilik","value":"Ngatijan"},{"label":"Ternak","value":"Kambing"},{"label":"Jumlah","value":"lt10"},{"label":"Penjualan","value":"Dijual sendiri di tempat lain"},{"label":"Keterangan","value":"Kandang milik 1kk panen 9 bulan"}],"phone":null,"photos":["/photos/ternak/875673172-depan.webp","/photos/ternak/875673172-samping.webp"],"gpsPrecision":4.974}},{"type":"Feature","id":"875673197","geometry":{"type":"Point","coordinates":[110.246858,-7.660455]},"properties":{"dataset":"ternak","name":"Peternakan dan Perikanan","subtitle":"Peternakan","padukuhan":"Puguh","address":"Padukuhan Puguh, RT 79 RW 38","facets":["Peternakan"],"details":[{"label":"Pemilik","value":"Nursalim"},{"label":"Ternak","value":"Kambing"},{"label":"Jumlah","value":"lt10"},{"label":"Penjualan","value":"Dijual sendiri di tempat lain"},{"label":"Keterangan","value":"Kandang milik 1kk panen 9 bulan"}],"phone":null,"photos":["/photos/ternak/875673197-depan.webp","/photos/ternak/875673197-samping.webp"],"gpsPrecision":4.333}},{"type":"Feature","id":"875673274","geometry":{"type":"Point","coordinates":[110.246576,-7.660474]},"properties":{"dataset":"ternak","name":"Peternakan dan Perikanan","subtitle":"Peternakan","padukuhan":"Puguh","address":"Padukuhan Puguh, RT 79 RW 38","facets":["Peternakan"],"details":[{"label":"Pemilik","value":"Yudi anto"},{"label":"Ternak","value":"Kambing"},{"label":"Jumlah","value":"lt10"},{"label":"Penjualan","value":"Dijual sendiri di tempat lain"},{"label":"Keterangan","value":"Kandang milik 1kk kambing 4 paanen tiap 9 bulan"}],"phone":null,"photos":["/photos/ternak/875673274-depan.webp","/photos/ternak/875673274-samping.webp"],"gpsPrecision":3.977}},{"type":"Feature","id":"875673285","geometry":{"type":"Point","coordinates":[110.246641,-7.660797]},"properties":{"dataset":"ternak","name":"Peternakan dan Perikanan","subtitle":"Peternakan","padukuhan":"Puguh","address":"Padukuhan Puguh, RT 79 RW 38","facets":["Peternakan"],"details":[{"label":"Pemilik","value":"Dwi Suswanto"},{"label":"Ternak","value":"Kambing"},{"label":"Jumlah","value":"lt10"},{"label":"Penjualan","value":"Dijual sendiri di tempat lain"},{"label":"Keterangan","value":"Kandang milik 1kk kambing 3"}],"phone":"085285625706","photos":["/photos/ternak/875673285-depan.webp","/photos/ternak/875673285-samping.webp"],"gpsPrecision":4.99}},{"type":"Feature","id":"875696136","geometry":{"type":"Point","coordinates":[110.240019,-7.662651]},"properties":{"dataset":"ternak","name":"Peternakan dan Perikanan","subtitle":"Peternakan","padukuhan":"Tonogoro","address":"Padukuhan Tonogoro, RT 76 RW 36","facets":["Peternakan"],"details":[{"label":"Pemilik","value":"Muhtadin"},{"label":"Ternak","value":"Kambing"},{"label":"Jumlah","value":"lt10"},{"label":"Penjualan","value":"Dijual sendiri di lokasi"}],"phone":null,"photos":["/photos/ternak/875696136-depan.webp","/photos/ternak/875696136-samping.webp","/photos/ternak/875696136-lainnya.webp"],"gpsPrecision":7.771}},{"type":"Feature","id":"875696361","geometry":{"type":"Point","coordinates":[110.238325,-7.661076]},"properties":{"dataset":"ternak","name":"Peternakan dan Perikanan","subtitle":"Peternakan","padukuhan":"Tonogoro","address":"Padukuhan Tonogoro, RT 76 RW 36","facets":["Peternakan"],"details":[{"label":"Pemilik","value":"Dulrohman"},{"label":"Ternak","value":"Sapi, Kambing"},{"label":"Jumlah","value":"lt10"},{"label":"Penjualan","value":"Dijual sendiri di lokasi"}],"phone":null,"photos":["/photos/ternak/875696361-depan.webp","/photos/ternak/875696361-samping.webp","/photos/ternak/875696361-lainnya.webp"],"gpsPrecision":7.594}},{"type":"Feature","id":"875906814","geometry":{"type":"Point","coordinates":[110.22398,-7.652606]},"properties":{"dataset":"ternak","name":"Peternakan dan Perikanan","subtitle":"Peternakan","padukuhan":"Plengan","address":"Padukuhan Plengan, RT 46 RW 22","facets":["Peternakan"],"details":[{"label":"Pemilik","value":"Kasindi Notosusanto"},{"label":"Ternak","value":"Kambing, Sapi"},{"label":"Jumlah","value":"lt10"},{"label":"Penjualan","value":"Lewat pengepul"}],"phone":null,"photos":["/photos/ternak/875906814-depan.webp","/photos/ternak/875906814-samping.webp","/photos/ternak/875906814-lainnya.webp"],"gpsPrecision":4.698}},{"type":"Feature","id":"875907164","geometry":{"type":"Point","coordinates":[110.225387,-7.652052]},"properties":{"dataset":"ternak","name":"Peternakan dan Perikanan","subtitle":"Peternakan","padukuhan":"Plengan","address":"Padukuhan Plengan, RT 46 RW 22","facets":["Peternakan"],"details":[{"label":"Pemilik","value":"Antoro"},{"label":"Ternak","value":"Sapi"},{"label":"Jumlah","value":"lt10"},{"label":"Penjualan","value":"Dijual sendiri di lokasi"}],"phone":null,"photos":["/photos/ternak/875907164-depan.webp","/photos/ternak/875907164-samping.webp"],"gpsPrecision":4.763}},{"type":"Feature","id":"875907272","geometry":{"type":"Point","coordinates":[110.224899,-7.6522]},"properties":{"dataset":"ternak","name":"Peternakan dan Perikanan","subtitle":"Peternakan","padukuhan":"Plengan","address":"Padukuhan Plengan, RT 46 RW 22","facets":["Peternakan"],"details":[{"label":"Pemilik","value":"Sungkono"},{"label":"Ternak","value":"Kambing"},{"label":"Jumlah","value":"lt10"},{"label":"Penjualan","value":"Dijual sendiri di lokasi"}],"phone":null,"photos":["/photos/ternak/875907272-depan.webp","/photos/ternak/875907272-samping.webp"],"gpsPrecision":4.954}},{"type":"Feature","id":"875907395","geometry":{"type":"Point","coordinates":[110.224949,-7.652678]},"properties":{"dataset":"ternak","name":"Peternakan dan Perikanan","subtitle":"Peternakan","padukuhan":"Plengan","address":"Padukuhan Plengan, RT 46 RW 22","facets":["Peternakan"],"details":[{"label":"Pemilik","value":"Darto"},{"label":"Ternak","value":"Kambing"},{"label":"Jumlah","value":"lt10"},{"label":"Penjualan","value":"Lewat pengepul"}],"phone":null,"photos":["/photos/ternak/875907395-depan.webp","/photos/ternak/875907395-samping.webp"],"gpsPrecision":4.57}},{"type":"Feature","id":"875907432","geometry":{"type":"Point","coordinates":[110.225068,-7.652805]},"properties":{"dataset":"ternak","name":"Peternakan dan Perikanan","subtitle":"Peternakan","padukuhan":"Plengan","address":"Padukuhan Plengan, RT 46 RW 22","facets":["Peternakan"],"details":[{"label":"Pemilik","value":"Warto"},{"label":"Ternak","value":"Kambing"},{"label":"Jumlah","value":"lt10"},{"label":"Penjualan","value":"Lewat pengepul"}],"phone":null,"photos":["/photos/ternak/875907432-depan.webp","/photos/ternak/875907432-samping.webp"],"gpsPrecision":4.895}},{"type":"Feature","id":"875912903","geometry":{"type":"Point","coordinates":[110.261946,-7.661044]},"properties":{"dataset":"ternak","name":"Peternakan dan Perikanan","subtitle":"Peternakan","padukuhan":"Slanden","address":"Padukuhan Slanden, RT 16 RW 8","facets":["Peternakan"],"details":[{"label":"Pemilik","value":"BUMDES Banjaroyo"},{"label":"Ternak","value":"Ayam"},{"label":"Jumlah","value":"gt100"},{"label":"Penjualan","value":"Dijual sendiri di lokasi, Dijual sendiri di tempat lain"}],"phone":"083165122316","photos":["/photos/ternak/875912903-depan.webp","/photos/ternak/875912903-samping.webp"],"gpsPrecision":3}},{"type":"Feature","id":"875913660","geometry":{"type":"Point","coordinates":[110.261472,-7.662122]},"properties":{"dataset":"ternak","name":"Peternakan dan Perikanan","subtitle":"Peternakan","padukuhan":"Slanden","address":"Padukuhan Slanden, RT 16 RW 8","facets":["Peternakan"],"details":[{"label":"Pemilik","value":"Sumarwoto (gaduh)"},{"label":"Ternak","value":"Kambing"},{"label":"Jumlah","value":"lt10"},{"label":"Penjualan","value":"Dijual sendiri di lokasi"}],"phone":null,"photos":["/photos/ternak/875913660-depan.webp","/photos/ternak/875913660-samping.webp"],"gpsPrecision":2.9}},{"type":"Feature","id":"875977067","geometry":{"type":"Point","coordinates":[110.221685,-7.66681]},"properties":{"dataset":"ternak","name":"Peternakan dan Perikanan","subtitle":"Peternakan","padukuhan":"Kajoran","address":"Padukuhan Kajoran, RT 59 RW 28","facets":["Peternakan"],"details":[{"label":"Pemilik","value":"Siswo Sudarmo"},{"label":"Ternak","value":"Kambing"},{"label":"Jumlah","value":"lt10"},{"label":"Penjualan","value":"Dijual sendiri di lokasi"}],"phone":null,"photos":["/photos/ternak/875977067-depan.webp","/photos/ternak/875977067-samping.webp"],"gpsPrecision":3.9}},{"type":"Feature","id":"875977375","geometry":{"type":"Point","coordinates":[110.220148,-7.666617]},"properties":{"dataset":"ternak","name":"Peternakan dan Perikanan","subtitle":"Peternakan","padukuhan":"Kajoran","address":"Padukuhan Kajoran, RT 59 RW 28","facets":["Peternakan"],"details":[{"label":"Pemilik","value":"Kirtiyantari"},{"label":"Ternak","value":"Kambing"},{"label":"Jumlah","value":"1025"},{"label":"Penjualan","value":"Dijual sendiri di lokasi"},{"label":"Keterangan","value":"Sebagian milik kelompok ternak"}],"phone":null,"photos":["/photos/ternak/875977375-depan.webp","/photos/ternak/875977375-samping.webp"],"gpsPrecision":4.871}},{"type":"Feature","id":"876123620","geometry":{"type":"Point","coordinates":[110.257099,-7.64611]},"properties":{"dataset":"ternak","name":"Peternakan dan Perikanan","subtitle":"Peternakan","padukuhan":"Klangon","address":"Padukuhan Klangon, RT 29 RW 14","facets":["Peternakan"],"details":[{"label":"Pemilik","value":"Muh Rukaeni"},{"label":"Ternak","value":"Kambing"},{"label":"Jumlah","value":"lt10"},{"label":"Penjualan","value":"Dijual sendiri di lokasi"},{"label":"Keterangan","value":"Memiliki 1 kandang kambing berisi 2"}],"phone":null,"photos":["/photos/ternak/876123620-depan.webp","/photos/ternak/876123620-samping.webp","/photos/ternak/876123620-lainnya.webp"],"gpsPrecision":4.279}},{"type":"Feature","id":"876123651","geometry":{"type":"Point","coordinates":[110.256883,-7.645968]},"properties":{"dataset":"ternak","name":"Peternakan dan Perikanan","subtitle":"Peternakan","padukuhan":"Klangon","address":"Padukuhan Klangon, RT 29 RW 14","facets":["Peternakan"],"details":[{"label":"Pemilik","value":"Seneng"},{"label":"Ternak","value":"Kambing"},{"label":"Jumlah","value":"lt10"},{"label":"Penjualan","value":"Lewat pengepul"},{"label":"Keterangan","value":"Memiliki 1 kandang kambing"}],"phone":null,"photos":["/photos/ternak/876123651-depan.webp","/photos/ternak/876123651-samping.webp"],"gpsPrecision":4.9}},{"type":"Feature","id":"876123700","geometry":{"type":"Point","coordinates":[110.256668,-7.64503]},"properties":{"dataset":"ternak","name":"Peternakan dan Perikanan","subtitle":"Peternakan","padukuhan":"Klangon","address":"Padukuhan Klangon, RT 29 RW 14","facets":["Peternakan"],"details":[{"label":"Pemilik","value":"Sumini"},{"label":"Ternak","value":"Kambing"},{"label":"Jumlah","value":"lt10"},{"label":"Penjualan","value":"Lewat pengepul"}],"phone":null,"photos":["/photos/ternak/876123700-depan.webp","/photos/ternak/876123700-samping.webp"],"gpsPrecision":4.7}},{"type":"Feature","id":"876123761","geometry":{"type":"Point","coordinates":[110.256485,-7.645288]},"properties":{"dataset":"ternak","name":"Peternakan dan Perikanan","subtitle":"Peternakan","padukuhan":"Klangon","address":"Padukuhan Klangon, RT 29 RW 14","facets":["Peternakan"],"details":[{"label":"Pemilik","value":"Musri"},{"label":"Ternak","value":"Kambing"},{"label":"Jumlah","value":"lt10"},{"label":"Penjualan","value":"Lewat pengepul"}],"phone":null,"photos":["/photos/ternak/876123761-depan.webp","/photos/ternak/876123761-samping.webp"],"gpsPrecision":4.7}},{"type":"Feature","id":"876123865","geometry":{"type":"Point","coordinates":[110.257135,-7.645407]},"properties":{"dataset":"ternak","name":"Peternakan dan Perikanan","subtitle":"Peternakan","padukuhan":"Klangon","address":"Padukuhan Klangon, RT 29 RW 14","facets":["Peternakan"],"details":[{"label":"Pemilik","value":"Mat Lestari"},{"label":"Ternak","value":"Kambing"},{"label":"Jumlah","value":"lt10"},{"label":"Penjualan","value":"Dijual sendiri di tempat lain"}],"phone":null,"photos":["/photos/ternak/876123865-depan.webp","/photos/ternak/876123865-samping.webp"],"gpsPrecision":3.825}},{"type":"Feature","id":"876123906","geometry":{"type":"Point","coordinates":[110.257742,-7.64624]},"properties":{"dataset":"ternak","name":"Peternakan dan Perikanan","subtitle":"Peternakan","padukuhan":"Klangon","address":"Padukuhan Klangon, RT 30 RW 15","facets":["Peternakan"],"details":[{"label":"Pemilik","value":"Ngatiyah"},{"label":"Ternak","value":"Kambing"},{"label":"Jumlah","value":"lt10"},{"label":"Penjualan","value":"Lewat pengepul"}],"phone":null,"photos":["/photos/ternak/876123906-depan.webp","/photos/ternak/876123906-samping.webp"],"gpsPrecision":4.9}},{"type":"Feature","id":"876124903","geometry":{"type":"Point","coordinates":[110.257697,-7.649192]},"properties":{"dataset":"ternak","name":"Peternakan dan Perikanan","subtitle":"Peternakan","padukuhan":"Klangon","address":"Padukuhan Klangon, RT 31 RW 15","facets":["Peternakan"],"details":[{"label":"Pemilik","value":"Raharjo"},{"label":"Ternak","value":"Kambing"},{"label":"Jumlah","value":"lt10"},{"label":"Penjualan","value":"Lewat pengepul, Dijual sendiri di lokasi"}],"phone":null,"photos":["/photos/ternak/876124903-depan.webp","/photos/ternak/876124903-samping.webp"],"gpsPrecision":3.087}},{"type":"Feature","id":"876139967","geometry":{"type":"Point","coordinates":[110.257595,-7.667127]},"properties":{"dataset":"ternak","name":"Peternakan dan Perikanan","subtitle":"Peternakan","padukuhan":"Banjaran","address":"Padukuhan Banjaran, RT 13 RW 7","facets":["Peternakan"],"details":[{"label":"Pemilik","value":"Ngatijo"},{"label":"Ternak","value":"Sapi"},{"label":"Jumlah","value":"lt10"},{"label":"Penjualan","value":"Dijual sendiri di lokasi"}],"phone":null,"photos":["/photos/ternak/876139967-depan.webp","/photos/ternak/876139967-samping.webp"],"gpsPrecision":4.965}},{"type":"Feature","id":"876140109","geometry":{"type":"Point","coordinates":[110.257715,-7.66689]},"properties":{"dataset":"ternak","name":"Peternakan dan Perikanan","subtitle":"Peternakan","padukuhan":"Banjaran","address":"Padukuhan Banjaran, RT 13 RW 7","facets":["Peternakan"],"details":[{"label":"Pemilik","value":"Budi yanto"},{"label":"Ternak","value":"Kambing"},{"label":"Jumlah","value":"lt10"},{"label":"Penjualan","value":"Dijual sendiri di lokasi"}],"phone":null,"photos":["/photos/ternak/876140109-depan.webp","/photos/ternak/876140109-samping.webp"],"gpsPrecision":4.676}},{"type":"Feature","id":"876151887","geometry":{"type":"Point","coordinates":[110.216398,-7.649693]},"properties":{"dataset":"ternak","name":"Peternakan dan Perikanan","subtitle":"Peternakan","padukuhan":"Duren Sawit","address":"Padukuhan Duren Sawit, RT 49 RW 24","facets":["Peternakan"],"details":[{"label":"Pemilik","value":"Martha Wartiyah"},{"label":"Ternak","value":"Kambing"},{"label":"Jumlah","value":"lt10"},{"label":"Penjualan","value":"Lewat pengepul"}],"phone":null,"photos":["/photos/ternak/876151887-depan.webp","/photos/ternak/876151887-samping.webp"],"gpsPrecision":4.905}},{"type":"Feature","id":"876153896","geometry":{"type":"Point","coordinates":[110.231601,-7.65451]},"properties":{"dataset":"ternak","name":"Peternakan dan Perikanan","subtitle":"Peternakan","padukuhan":"Dlingseng","address":"Padukuhan Dlingseng, RT 43 RW 21","facets":["Peternakan"],"details":[{"label":"Pemilik","value":"ADIYANTA"},{"label":"Ternak","value":"Kambing"},{"label":"Jumlah","value":"lt10"},{"label":"Penjualan","value":"Lewat pengepul"}],"phone":null,"photos":["/photos/ternak/876153896-depan.webp","/photos/ternak/876153896-samping.webp"],"gpsPrecision":4.088}},{"type":"Feature","id":"876696043","geometry":{"type":"Point","coordinates":[110.228995,-7.670557]},"properties":{"dataset":"ternak","name":"Peternakan dan Perikanan","subtitle":"Peternakan","padukuhan":"Semagung","address":"Padukuhan Semagung, RT 63 RW 30","facets":["Peternakan"],"details":[{"label":"Pemilik","value":"Marwanto"},{"label":"Ternak","value":"Sapi"},{"label":"Jumlah","value":"lt10"},{"label":"Penjualan","value":"Dijual sendiri di lokasi"}],"phone":null,"photos":["/photos/ternak/876696043-depan.webp","/photos/ternak/876696043-samping.webp"],"gpsPrecision":9.826}},{"type":"Feature","id":"876696060","geometry":{"type":"Point","coordinates":[110.229189,-7.67052]},"properties":{"dataset":"ternak","name":"Peternakan dan Perikanan","subtitle":"Peternakan","padukuhan":"Semagung","address":"Padukuhan Semagung, RT 63 RW 30","facets":["Peternakan"],"details":[{"label":"Pemilik","value":"agustinus gregorius maryoto"},{"label":"Ternak","value":"Kambing, Sapi"},{"label":"Jumlah","value":"lt10"},{"label":"Penjualan","value":"Dijual sendiri di lokasi"}],"phone":null,"photos":["/photos/ternak/876696060-depan.webp","/photos/ternak/876696060-samping.webp"],"gpsPrecision":4.919}},{"type":"Feature","id":"876725292","geometry":{"type":"Point","coordinates":[110.220859,-7.663864]},"properties":{"dataset":"ternak","name":"Peternakan dan Perikanan","subtitle":"Peternakan","padukuhan":"Semagung","address":"Padukuhan Semagung, RT 63 RW 30","facets":["Peternakan"],"details":[{"label":"Pemilik","value":"paulus paidiwiyanto"},{"label":"Ternak","value":"Kambing, Sapi"},{"label":"Jumlah","value":"lt10"},{"label":"Penjualan","value":"Dijual sendiri di lokasi"}],"phone":null,"photos":["/photos/ternak/876725292-depan.webp","/photos/ternak/876725292-samping.webp"],"gpsPrecision":500}},{"type":"Feature","id":"876725303","geometry":{"type":"Point","coordinates":[110.227918,-7.669311]},"properties":{"dataset":"ternak","name":"Peternakan dan Perikanan","subtitle":"Peternakan","padukuhan":"Semagung","address":"Padukuhan Semagung, RT 63 RW 30","facets":["Peternakan"],"details":[{"label":"Pemilik","value":"tikno"},{"label":"Ternak","value":"Kambing, Sapi"},{"label":"Jumlah","value":"lt10"},{"label":"Penjualan","value":"Dijual sendiri di lokasi"}],"phone":null,"photos":["/photos/ternak/876725303-depan.webp","/photos/ternak/876725303-samping.webp"],"gpsPrecision":4.665}},{"type":"Feature","id":"876725314","geometry":{"type":"Point","coordinates":[110.228103,-7.66945]},"properties":{"dataset":"ternak","name":"Peternakan dan Perikanan","subtitle":"Peternakan","padukuhan":"Semagung","address":"Padukuhan Semagung, RT 63 RW 30","facets":["Peternakan"],"details":[{"label":"Pemilik","value":"supriyanto"},{"label":"Ternak","value":"Kambing, Sapi"},{"label":"Jumlah","value":"lt10"},{"label":"Penjualan","value":"Dijual sendiri di lokasi"}],"phone":null,"photos":["/photos/ternak/876725314-depan.webp","/photos/ternak/876725314-samping.webp"],"gpsPrecision":760.326}},{"type":"Feature","id":"876725330","geometry":{"type":"Point","coordinates":[110.220859,-7.663864]},"properties":{"dataset":"ternak","name":"Peternakan dan Perikanan","subtitle":"Peternakan","padukuhan":"Semagung","address":"Padukuhan Semagung, RT 63 RW 30","facets":["Peternakan"],"details":[{"label":"Pemilik","value":"sapto wiryo"},{"label":"Ternak","value":"Kambing"},{"label":"Jumlah","value":"lt10"},{"label":"Penjualan","value":"Dijual sendiri di lokasi"}],"phone":null,"photos":["/photos/ternak/876725330-depan.webp","/photos/ternak/876725330-samping.webp"],"gpsPrecision":500}},{"type":"Feature","id":"876725338","geometry":{"type":"Point","coordinates":[110.227136,-7.668391]},"properties":{"dataset":"ternak","name":"Peternakan dan Perikanan","subtitle":"Peternakan","padukuhan":"Semagung","address":"Padukuhan Semagung, RT 63 RW 30","facets":["Peternakan"],"details":[{"label":"Pemilik","value":"suparno"},{"label":"Ternak","value":"Sapi"},{"label":"Jumlah","value":"lt10"},{"label":"Penjualan","value":"Dijual sendiri di lokasi"}],"phone":null,"photos":["/photos/ternak/876725338-depan.webp","/photos/ternak/876725338-samping.webp"],"gpsPrecision":24.656}},{"type":"Feature","id":"876725347","geometry":{"type":"Point","coordinates":[110.22764,-7.667228]},"properties":{"dataset":"ternak","name":"Peternakan dan Perikanan","subtitle":"Peternakan","padukuhan":"Semagung","address":"Padukuhan Semagung, RT 62 RW 30","facets":["Peternakan"],"details":[{"label":"Pemilik","value":"sardi utomo"},{"label":"Ternak","value":"Sapi"},{"label":"Jumlah","value":"lt10"},{"label":"Penjualan","value":"Dijual sendiri di tempat lain"}],"phone":null,"photos":["/photos/ternak/876725347-depan.webp","/photos/ternak/876725347-samping.webp"],"gpsPrecision":163.326}},{"type":"Feature","id":"876725351","geometry":{"type":"Point","coordinates":[110.228829,-7.668059]},"properties":{"dataset":"ternak","name":"Peternakan dan Perikanan","subtitle":"Peternakan","padukuhan":"Semagung","address":"Padukuhan Semagung, RT 63 RW 30","facets":["Peternakan"],"details":[{"label":"Pemilik","value":"sudarman"},{"label":"Ternak","value":"Kambing"},{"label":"Jumlah","value":"lt10"},{"label":"Penjualan","value":"Dijual sendiri di lokasi"}],"phone":null,"photos":["/photos/ternak/876725351-depan.webp","/photos/ternak/876725351-samping.webp"],"gpsPrecision":11.792}},{"type":"Feature","id":"876725362","geometry":{"type":"Point","coordinates":[110.227188,-7.667411]},"properties":{"dataset":"ternak","name":"Peternakan dan Perikanan","subtitle":"Peternakan","padukuhan":"Semagung","address":"Padukuhan Semagung, RT 63 RW 30","facets":["Peternakan"],"details":[{"label":"Pemilik","value":"agustinus marsudi"},{"label":"Ternak","value":"Kambing"},{"label":"Jumlah","value":"lt10"},{"label":"Penjualan","value":"Dijual sendiri di lokasi"}],"phone":null,"photos":["/photos/ternak/876725362-depan.webp","/photos/ternak/876725362-samping.webp"],"gpsPrecision":300}},{"type":"Feature","id":"876771656","geometry":{"type":"Point","coordinates":[110.217671,-7.649263]},"properties":{"dataset":"ternak","name":"Peternakan dan Perikanan","subtitle":"Peternakan","padukuhan":"Duren Sawit","address":"Padukuhan Duren Sawit, RT 50 RW 24","facets":["Peternakan"],"details":[{"label":"Pemilik","value":"Bp.Puput"},{"label":"Ternak","value":"Sapi"},{"label":"Jumlah","value":"1025"},{"label":"Penjualan","value":"Dijual sendiri di lokasi, Dijual sendiri di tempat lain"}],"phone":null,"photos":["/photos/ternak/876771656-depan.webp","/photos/ternak/876771656-samping.webp","/photos/ternak/876771656-lainnya.webp"],"gpsPrecision":4.917}},{"type":"Feature","id":"876867492","geometry":{"type":"Point","coordinates":[110.219802,-7.648475]},"properties":{"dataset":"ternak","name":"Peternakan dan Perikanan","subtitle":"Peternakan","padukuhan":"Duren Sawit","address":"Padukuhan Duren Sawit, RT 49 RW 24","facets":["Peternakan"],"details":[{"label":"Pemilik","value":"Bp. AGUSTINUS BUDI"},{"label":"Ternak","value":"Kambing"},{"label":"Jumlah","value":"1025"},{"label":"Penjualan","value":"Lewat pengepul"}],"phone":"083862329289","photos":["/photos/ternak/876867492-depan.webp","/photos/ternak/876867492-samping.webp","/photos/ternak/876867492-lainnya.webp"],"gpsPrecision":4.347}},{"type":"Feature","id":"876867616","geometry":{"type":"Point","coordinates":[110.220204,-7.648601]},"properties":{"dataset":"ternak","name":"Peternakan dan Perikanan","subtitle":"Peternakan","padukuhan":"Duren Sawit","address":"Padukuhan Duren Sawit, RT 49 RW 24","facets":["Peternakan"],"details":[{"label":"Pemilik","value":"Martha Darwanti"},{"label":"Ternak","value":"Kambing, Sapi"},{"label":"Jumlah","value":"lt10"},{"label":"Penjualan","value":"Lewat pengepul"},{"label":"Keterangan","value":"Kandang milik pribadi"}],"phone":null,"photos":["/photos/ternak/876867616-depan.webp","/photos/ternak/876867616-samping.webp","/photos/ternak/876867616-lainnya.webp"],"gpsPrecision":2.6}},{"type":"Feature","id":"876867658","geometry":{"type":"Point","coordinates":[110.216426,-7.648476]},"properties":{"dataset":"ternak","name":"Peternakan dan Perikanan","subtitle":"Peternakan","padukuhan":"Duren Sawit","address":"Padukuhan Duren Sawit, RT 50 RW 24","facets":["Peternakan"],"details":[{"label":"Pemilik","value":"Bp. Siswadi"},{"label":"Ternak","value":"Kambing"},{"label":"Jumlah","value":"1025"},{"label":"Penjualan","value":"Lewat pengepul"},{"label":"Keterangan","value":"Campur kambing Gembel, kambing Jawa"}],"phone":null,"photos":["/photos/ternak/876867658-depan.webp","/photos/ternak/876867658-samping.webp","/photos/ternak/876867658-lainnya.webp"],"gpsPrecision":4.714}},{"type":"Feature","id":"876867725","geometry":{"type":"Point","coordinates":[110.216047,-7.648167]},"properties":{"dataset":"ternak","name":"Peternakan dan Perikanan","subtitle":"Peternakan","padukuhan":"Duren Sawit","address":"Padukuhan Duren Sawit, RT 50 RW 24","facets":["Peternakan"],"details":[{"label":"Pemilik","value":"Bp. Tukijan"},{"label":"Ternak","value":"Kambing"},{"label":"Jumlah","value":"lt10"},{"label":"Penjualan","value":"Lewat pengepul"},{"label":"Keterangan","value":"Kambing Jawa"}],"phone":null,"photos":["/photos/ternak/876867725-depan.webp","/photos/ternak/876867725-samping.webp"],"gpsPrecision":2.369}},{"type":"Feature","id":"876920479","geometry":{"type":"Point","coordinates":[110.217803,-7.650588]},"properties":{"dataset":"ternak","name":"Peternakan dan Perikanan","subtitle":"Peternakan","padukuhan":"Duren Sawit","address":"Padukuhan Duren Sawit, RT 50 RW 24","facets":["Peternakan"],"details":[{"label":"Pemilik","value":"Bp. Kahono Adi Iswanto"},{"label":"Ternak","value":"Kambing"},{"label":"Jumlah","value":"lt10"},{"label":"Penjualan","value":"Lewat pengepul"}],"phone":null,"photos":["/photos/ternak/876920479-depan.webp","/photos/ternak/876920479-samping.webp","/photos/ternak/876920479-lainnya.webp"],"gpsPrecision":6.511}},{"type":"Feature","id":"877122733","geometry":{"type":"Point","coordinates":[110.252025,-7.648807]},"properties":{"dataset":"ternak","name":"Peternakan dan Perikanan","subtitle":"Peternakan","padukuhan":"Beji","address":"Padukuhan Beji, RT 33 RW 16","facets":["Peternakan"],"details":[{"label":"Pemilik","value":"Daroji"},{"label":"Ternak","value":"Kambing"},{"label":"Jumlah","value":"lt10"},{"label":"Penjualan","value":"Dijual sendiri di lokasi"},{"label":"Keterangan","value":"Kandang milik pribadi 2 ekor kambing"}],"phone":"088216230156","photos":["/photos/ternak/877122733-depan.webp","/photos/ternak/877122733-samping.webp"],"gpsPrecision":3.608}},{"type":"Feature","id":"877122982","geometry":{"type":"Point","coordinates":[110.251289,-7.647467]},"properties":{"dataset":"ternak","name":"Peternakan dan Perikanan","subtitle":"Peternakan","padukuhan":"Beji","address":"Padukuhan Beji, RT 33 RW 16","facets":["Peternakan"],"details":[{"label":"Pemilik","value":"Marwandi"},{"label":"Ternak","value":"Kambing"},{"label":"Jumlah","value":"lt10"},{"label":"Penjualan","value":"Dijual sendiri di lokasi"},{"label":"Keterangan","value":"Kandang pribadi 4 kambing"}],"phone":"0882006641868","photos":["/photos/ternak/877122982-depan.webp","/photos/ternak/877122982-samping.webp"],"gpsPrecision":4.841}},{"type":"Feature","id":"877123063","geometry":{"type":"Point","coordinates":[110.251649,-7.647979]},"properties":{"dataset":"ternak","name":"Peternakan dan Perikanan","subtitle":"Peternakan","padukuhan":"Beji","address":"Padukuhan Beji, RT 33 RW 16","facets":["Peternakan"],"details":[{"label":"Pemilik","value":"Soleh"},{"label":"Ternak","value":"Kambing"},{"label":"Jumlah","value":"lt10"},{"label":"Penjualan","value":"Dijual sendiri di lokasi"},{"label":"Keterangan","value":"Kandang pribadi"}],"phone":"087739463926","photos":["/photos/ternak/877123063-depan.webp","/photos/ternak/877123063-samping.webp"],"gpsPrecision":3.096}},{"type":"Feature","id":"877146380","geometry":{"type":"Point","coordinates":[110.229368,-7.663171]},"properties":{"dataset":"ternak","name":"Peternakan dan Perikanan","subtitle":"Peternakan","padukuhan":"Promasan","address":"Padukuhan Promasan, RT 68 RW 33","facets":["Peternakan"],"details":[{"label":"Pemilik","value":"Bapak Ratno"},{"label":"Ternak","value":"Kambing"},{"label":"Jumlah","value":"lt10"},{"label":"Penjualan","value":"Lewat pengepul"}],"phone":null,"photos":["/photos/ternak/877146380-depan.webp","/photos/ternak/877146380-samping.webp"],"gpsPrecision":4.807}},{"type":"Feature","id":"877146471","geometry":{"type":"Point","coordinates":[110.230595,-7.665207]},"properties":{"dataset":"ternak","name":"Peternakan dan Perikanan","subtitle":"Peternakan","padukuhan":"Promasan","address":"Padukuhan Promasan, RT 68 RW 33","facets":["Peternakan"],"details":[{"label":"Pemilik","value":"Bapak kaswanto"},{"label":"Ternak","value":"Kambing"},{"label":"Jumlah","value":"lt10"},{"label":"Penjualan","value":"Lewat pengepul"}],"phone":null,"photos":["/photos/ternak/877146471-depan.webp","/photos/ternak/877146471-samping.webp"],"gpsPrecision":4.826}},{"type":"Feature","id":"877156554","geometry":{"type":"Point","coordinates":[110.24596,-7.664495]},"properties":{"dataset":"ternak","name":"Peternakan dan Perikanan","subtitle":"Peternakan","padukuhan":"Semawung","address":"Padukuhan Semawung, RT 70 RW 34","facets":["Peternakan"],"details":[{"label":"Pemilik","value":"Mulyadi"},{"label":"Ternak","value":"Kambing"},{"label":"Jumlah","value":"lt10"},{"label":"Penjualan","value":"Lewat pengepul"}],"phone":"081325676954","photos":["/photos/ternak/877156554-depan.webp","/photos/ternak/877156554-samping.webp"],"gpsPrecision":4.615}},{"type":"Feature","id":"877157766","geometry":{"type":"Point","coordinates":[110.243968,-7.666895]},"properties":{"dataset":"ternak","name":"Peternakan dan Perikanan","subtitle":"Peternakan","padukuhan":"Semawung","address":"Padukuhan Semawung, RT 70 RW 34","facets":["Peternakan"],"details":[{"label":"Pemilik","value":"Sarmi"},{"label":"Ternak","value":"Kambing"},{"label":"Jumlah","value":"lt10"},{"label":"Penjualan","value":"Lewat pengepul"}],"phone":null,"photos":["/photos/ternak/877157766-depan.webp","/photos/ternak/877157766-samping.webp"],"gpsPrecision":4.225}},{"type":"Feature","id":"877158366","geometry":{"type":"Point","coordinates":[110.243546,-7.666882]},"properties":{"dataset":"ternak","name":"Peternakan dan Perikanan","subtitle":"Peternakan","padukuhan":"Semawung","address":"Padukuhan Semawung, RT 70 RW 34","facets":["Peternakan"],"details":[{"label":"Pemilik","value":"Sunaryo"},{"label":"Ternak","value":"Ayam"},{"label":"Jumlah","value":"lt10"},{"label":"Penjualan","value":"Dijual sendiri di tempat lain"}],"phone":"081325860198","photos":["/photos/ternak/877158366-depan.webp","/photos/ternak/877158366-samping.webp"],"gpsPrecision":3.03}},{"type":"Feature","id":"877159435","geometry":{"type":"Point","coordinates":[110.244655,-7.666562]},"properties":{"dataset":"ternak","name":"Peternakan dan Perikanan","subtitle":"Peternakan","padukuhan":"Semawung","address":"Padukuhan Semawung, RT 70 RW 34","facets":["Peternakan"],"details":[{"label":"Pemilik","value":"Sudarna"},{"label":"Ternak","value":"Kambing"},{"label":"Jumlah","value":"lt10"},{"label":"Penjualan","value":"Lewat pengepul"}],"phone":"081237677250","photos":["/photos/ternak/877159435-depan.webp","/photos/ternak/877159435-samping.webp"],"gpsPrecision":3.8}},{"type":"Feature","id":"877160036","geometry":{"type":"Point","coordinates":[110.245452,-7.66598]},"properties":{"dataset":"ternak","name":"Peternakan dan Perikanan","subtitle":"Peternakan","padukuhan":"Semawung","address":"Padukuhan Semawung, RT 70 RW 34","facets":["Peternakan"],"details":[{"label":"Pemilik","value":"Mukijo"},{"label":"Ternak","value":"Kambing"},{"label":"Jumlah","value":"lt10"},{"label":"Penjualan","value":"Lewat pengepul"}],"phone":"082186715668","photos":["/photos/ternak/877160036-depan.webp","/photos/ternak/877160036-samping.webp"],"gpsPrecision":4.671}},{"type":"Feature","id":"877160799","geometry":{"type":"Point","coordinates":[110.245783,-7.665933]},"properties":{"dataset":"ternak","name":"Peternakan dan Perikanan","subtitle":"Peternakan","padukuhan":"Semawung","address":"Padukuhan Semawung, RT 70 RW 34","facets":["Peternakan"],"details":[{"label":"Pemilik","value":"Zamroni"},{"label":"Ternak","value":"Ayam"},{"label":"Jumlah","value":"1025"},{"label":"Penjualan","value":"Lewat pengepul"}],"phone":null,"photos":["/photos/ternak/877160799-depan.webp","/photos/ternak/877160799-samping.webp"],"gpsPrecision":4.957}},{"type":"Feature","id":"877161450","geometry":{"type":"Point","coordinates":[110.246201,-7.665894]},"properties":{"dataset":"ternak","name":"Peternakan dan Perikanan","subtitle":"Peternakan","padukuhan":"Semawung","address":"Padukuhan Semawung, RT 70 RW 34","facets":["Peternakan"],"details":[{"label":"Pemilik","value":"Irwanto"},{"label":"Ternak","value":"Kambing"},{"label":"Jumlah","value":"lt10"},{"label":"Penjualan","value":"Lewat pengepul"}],"phone":"082137076672","photos":["/photos/ternak/877161450-depan.webp","/photos/ternak/877161450-samping.webp"],"gpsPrecision":3.8}},{"type":"Feature","id":"877161733","geometry":{"type":"Point","coordinates":[110.246177,-7.66591]},"properties":{"dataset":"ternak","name":"Peternakan dan Perikanan","subtitle":"Perikanan","padukuhan":"Semawung","address":"Padukuhan Semawung, RT 70 RW 34","facets":["Perikanan"],"details":[{"label":"Pemilik","value":"Irwanto"},{"label":"Ternak","value":"Ikan patin"},{"label":"Jumlah","value":"51100"},{"label":"Penjualan","value":"Dikonsumsi sendiri"}],"phone":"082137076672","photos":["/photos/ternak/877161733-depan.webp","/photos/ternak/877161733-samping.webp"],"gpsPrecision":4.825}},{"type":"Feature","id":"877162067","geometry":{"type":"Point","coordinates":[110.245083,-7.666025]},"properties":{"dataset":"ternak","name":"Peternakan dan Perikanan","subtitle":"Perikanan","padukuhan":"Semawung","address":"Padukuhan Semawung, RT 70 RW 34","facets":["Perikanan"],"details":[{"label":"Pemilik","value":"Suharyanto"},{"label":"Ikan","value":"Gurame, Nila"},{"label":"Jumlah","value":"51100"},{"label":"Penjualan","value":"Dikonsumsi sendiri"}],"phone":"081329379269","photos":["/photos/ternak/877162067-depan.webp","/photos/ternak/877162067-samping.webp"],"gpsPrecision":4.875}},{"type":"Feature","id":"877162144","geometry":{"type":"Point","coordinates":[110.244792,-7.666143]},"properties":{"dataset":"ternak","name":"Peternakan dan Perikanan","subtitle":"Peternakan","padukuhan":"Semawung","address":"Padukuhan Semawung, RT 70 RW 34","facets":["Peternakan"],"details":[{"label":"Pemilik","value":"Suharyanto"},{"label":"Ternak","value":"Ayam"},{"label":"Jumlah","value":"lt10"},{"label":"Penjualan","value":"Dijual sendiri di tempat lain"}],"phone":"081329379269","photos":["/photos/ternak/877162144-depan.webp","/photos/ternak/877162144-samping.webp"],"gpsPrecision":4.733}},{"type":"Feature","id":"877166010","geometry":{"type":"Point","coordinates":[110.247315,-7.659328]},"properties":{"dataset":"ternak","name":"Peternakan dan Perikanan","subtitle":"Peternakan","padukuhan":"Puguh","address":"Padukuhan Puguh, RT 79 RW 38","facets":["Peternakan"],"details":[{"label":"Pemilik","value":"Mukinah"},{"label":"Ternak","value":"Kambing"},{"label":"Jumlah","value":"lt10"},{"label":"Penjualan","value":"Dijual sendiri di tempat lain"}],"phone":"087863925246","photos":["/photos/ternak/877166010-depan.webp","/photos/ternak/877166010-samping.webp"],"gpsPrecision":4.265}},{"type":"Feature","id":"877166262","geometry":{"type":"Point","coordinates":[110.245105,-7.658769]},"properties":{"dataset":"ternak","name":"Peternakan dan Perikanan","subtitle":"Peternakan","padukuhan":"Puguh","address":"Padukuhan Puguh, RT 79 RW 38","facets":["Peternakan"],"details":[{"label":"Pemilik","value":"Tarji"},{"label":"Ternak","value":"Kambing"},{"label":"Jumlah","value":"lt10"},{"label":"Penjualan","value":"Dijual sendiri di tempat lain"},{"label":"Keterangan","value":"Kandang milik 1kk"}],"phone":null,"photos":["/photos/ternak/877166262-depan.webp","/photos/ternak/877166262-samping.webp"],"gpsPrecision":4.751}},{"type":"Feature","id":"877166364","geometry":{"type":"Point","coordinates":[110.245276,-7.658686]},"properties":{"dataset":"ternak","name":"Peternakan dan Perikanan","subtitle":"Peternakan","padukuhan":"Puguh","address":"Padukuhan Puguh, RT 79 RW 38","facets":["Peternakan"],"details":[{"label":"Pemilik","value":"Pak sumianto"},{"label":"Ternak","value":"Kambing"},{"label":"Jumlah","value":"lt10"},{"label":"Penjualan","value":"Dijual sendiri di tempat lain"},{"label":"Keterangan","value":"Kandang milik 1kk panen tiap 9 bulan"}],"phone":null,"photos":["/photos/ternak/877166364-depan.webp","/photos/ternak/877166364-samping.webp"],"gpsPrecision":4.479}},{"type":"Feature","id":"877166444","geometry":{"type":"Point","coordinates":[110.245343,-7.658835]},"properties":{"dataset":"ternak","name":"Peternakan dan Perikanan","subtitle":"Peternakan","padukuhan":"Puguh","address":"Padukuhan Puguh, RT 79 RW 38","facets":["Peternakan"],"details":[{"label":"Pemilik","value":"Sukirah"},{"label":"Ternak","value":"Kambing"},{"label":"Jumlah","value":"lt10"},{"label":"Penjualan","value":"Dijual sendiri di tempat lain"},{"label":"Keterangan","value":"Kandang milik 1kk"}],"phone":null,"photos":["/photos/ternak/877166444-depan.webp","/photos/ternak/877166444-samping.webp"],"gpsPrecision":4.79}},{"type":"Feature","id":"877166538","geometry":{"type":"Point","coordinates":[110.245175,-7.658323]},"properties":{"dataset":"ternak","name":"Peternakan dan Perikanan","subtitle":"Peternakan","padukuhan":"Puguh","address":"Padukuhan Puguh, RT 79 RW 38","facets":["Peternakan"],"details":[{"label":"Pemilik","value":"Agus subagiyo"},{"label":"Ternak","value":"Kambing"},{"label":"Jumlah","value":"lt10"},{"label":"Penjualan","value":"Dijual sendiri di tempat lain"}],"phone":"085228180067","photos":["/photos/ternak/877166538-depan.webp","/photos/ternak/877166538-samping.webp"],"gpsPrecision":4.725}},{"type":"Feature","id":"877166869","geometry":{"type":"Point","coordinates":[110.245302,-7.657346]},"properties":{"dataset":"ternak","name":"Peternakan dan Perikanan","subtitle":"Peternakan","padukuhan":"Puguh","address":"Padukuhan Puguh, RT 79 RW 38","facets":["Peternakan"],"details":[{"label":"Pemilik","value":"Pargianto"},{"label":"Ternak","value":"Kambing"},{"label":"Jumlah","value":"lt10"},{"label":"Penjualan","value":"Dijual sendiri di tempat lain"},{"label":"Keterangan","value":"Kandang milik 1kk panen tiap 9 bulan"}],"phone":"082314144008","photos":["/photos/ternak/877166869-depan.webp","/photos/ternak/877166869-samping.webp"],"gpsPrecision":4.62}},{"type":"Feature","id":"877167019","geometry":{"type":"Point","coordinates":[110.247142,-7.659695]},"properties":{"dataset":"ternak","name":"Peternakan dan Perikanan","subtitle":"Peternakan","padukuhan":"Puguh","address":"Padukuhan Puguh, RT 79 RW 38","facets":["Peternakan"],"details":[{"label":"Pemilik","value":"Sulastri"},{"label":"Ternak","value":"Kambing"},{"label":"Jumlah","value":"lt10"},{"label":"Penjualan","value":"Dijual sendiri di tempat lain"}],"phone":null,"photos":["/photos/ternak/877167019-depan.webp","/photos/ternak/877167019-samping.webp"],"gpsPrecision":4.331}},{"type":"Feature","id":"877308541","geometry":{"type":"Point","coordinates":[110.257015,-7.649128]},"properties":{"dataset":"ternak","name":"Peternakan dan Perikanan","subtitle":"Peternakan","padukuhan":"Klangon","address":"Padukuhan Klangon, RT 31 RW 15","facets":["Peternakan"],"details":[{"label":"Pemilik","value":"Roda'i"},{"label":"Ternak","value":"Kambing"},{"label":"Jumlah","value":"lt10"},{"label":"Penjualan","value":"Lewat pengepul"}],"phone":null,"photos":["/photos/ternak/877308541-depan.webp","/photos/ternak/877308541-samping.webp"],"gpsPrecision":4}},{"type":"Feature","id":"877308726","geometry":{"type":"Point","coordinates":[110.257103,-7.64917]},"properties":{"dataset":"ternak","name":"Peternakan dan Perikanan","subtitle":"Peternakan","padukuhan":"Klangon","address":"Padukuhan Klangon, RT 31 RW 15","facets":["Peternakan"],"details":[{"label":"Pemilik","value":"Hesti Irawan Dwi Lestari"},{"label":"Ternak","value":"Kambing"},{"label":"Jumlah","value":"lt10"},{"label":"Penjualan","value":"Dijual sendiri di tempat lain, Dijual sendiri di lokasi"}],"phone":null,"photos":["/photos/ternak/877308726-depan.webp","/photos/ternak/877308726-samping.webp"],"gpsPrecision":4.14}},{"type":"Feature","id":"877308866","geometry":{"type":"Point","coordinates":[110.257714,-7.649506]},"properties":{"dataset":"ternak","name":"Peternakan dan Perikanan","subtitle":"Peternakan","padukuhan":"Klangon","address":"Padukuhan Klangon, RT 31 RW 15","facets":["Peternakan"],"details":[{"label":"Pemilik","value":"Dul Rokhim"},{"label":"Ternak","value":"Kambing"},{"label":"Jumlah","value":"lt10"},{"label":"Penjualan","value":"Dijual sendiri di lokasi"}],"phone":null,"photos":["/photos/ternak/877308866-depan.webp","/photos/ternak/877308866-samping.webp"],"gpsPrecision":4.05}},{"type":"Feature","id":"877308942","geometry":{"type":"Point","coordinates":[110.258448,-7.649409]},"properties":{"dataset":"ternak","name":"Peternakan dan Perikanan","subtitle":"Peternakan","padukuhan":"Klangon","address":"Padukuhan Klangon, RT 31 RW 15","facets":["Peternakan"],"details":[{"label":"Pemilik","value":"Daryanto"},{"label":"Ternak","value":"Sapi"},{"label":"Jumlah","value":"lt10"},{"label":"Penjualan","value":"Dijual sendiri di lokasi, Dijual sendiri di tempat lain"}],"phone":null,"photos":["/photos/ternak/877308942-depan.webp","/photos/ternak/877308942-samping.webp"],"gpsPrecision":4.953}},{"type":"Feature","id":"877308983","geometry":{"type":"Point","coordinates":[110.258495,-7.649243]},"properties":{"dataset":"ternak","name":"Peternakan dan Perikanan","subtitle":"Peternakan","padukuhan":"Klangon","address":"Padukuhan Klangon, RT 31 RW 15","facets":["Peternakan"],"details":[{"label":"Pemilik","value":"Andi Sartono"},{"label":"Ternak","value":"Sapi"},{"label":"Jumlah","value":"lt10"},{"label":"Penjualan","value":"Dijual sendiri di lokasi"}],"phone":null,"photos":["/photos/ternak/877308983-depan.webp","/photos/ternak/877308983-samping.webp"],"gpsPrecision":4}},{"type":"Feature","id":"877309027","geometry":{"type":"Point","coordinates":[110.258619,-7.649425]},"properties":{"dataset":"ternak","name":"Peternakan dan Perikanan","subtitle":"Peternakan","padukuhan":"Klangon","address":"Padukuhan Klangon, RT 31 RW 15","facets":["Peternakan"],"details":[{"label":"Pemilik","value":"Tukiman"},{"label":"Ternak","value":"Sapi"},{"label":"Jumlah","value":"lt10"},{"label":"Penjualan","value":"Dijual sendiri di lokasi"}],"phone":null,"photos":["/photos/ternak/877309027-depan.webp","/photos/ternak/877309027-samping.webp"],"gpsPrecision":3.7}},{"type":"Feature","id":"877309061","geometry":{"type":"Point","coordinates":[110.258351,-7.649253]},"properties":{"dataset":"ternak","name":"Peternakan dan Perikanan","subtitle":"Peternakan","padukuhan":"Klangon","address":"Padukuhan Klangon, RT 31 RW 15","facets":["Peternakan"],"details":[{"label":"Pemilik","value":"Nur zani"},{"label":"Ternak","value":"Kambing"},{"label":"Jumlah","value":"lt10"},{"label":"Penjualan","value":"Dijual sendiri di lokasi, Lewat pengepul"}],"phone":null,"photos":["/photos/ternak/877309061-depan.webp","/photos/ternak/877309061-samping.webp"],"gpsPrecision":3.025}},{"type":"Feature","id":"877309740","geometry":{"type":"Point","coordinates":[110.258994,-7.650109]},"properties":{"dataset":"ternak","name":"Peternakan dan Perikanan","subtitle":"Peternakan","padukuhan":"Klangon","address":"Padukuhan Klangon, RT 31 RW 15","facets":["Peternakan"],"details":[{"label":"Pemilik","value":"Nur Jamroji"},{"label":"Ternak","value":"Kambing"},{"label":"Jumlah","value":"lt10"},{"label":"Penjualan","value":"Dijual sendiri di lokasi, Lewat pengepul"}],"phone":null,"photos":["/photos/ternak/877309740-depan.webp","/photos/ternak/877309740-samping.webp"],"gpsPrecision":4.897}},{"type":"Feature","id":"877309788","geometry":{"type":"Point","coordinates":[110.259135,-7.650265]},"properties":{"dataset":"ternak","name":"Peternakan dan Perikanan","subtitle":"Peternakan","padukuhan":"Klangon","address":"Padukuhan Klangon, RT 31 RW 15","facets":["Peternakan"],"details":[{"label":"Pemilik","value":"Nur Alim"},{"label":"Ternak","value":"Kambing"},{"label":"Jumlah","value":"lt10"},{"label":"Penjualan","value":"Dijual sendiri di lokasi, Lewat pengepul"}],"phone":null,"photos":["/photos/ternak/877309788-depan.webp","/photos/ternak/877309788-samping.webp"],"gpsPrecision":4.598}},{"type":"Feature","id":"877309837","geometry":{"type":"Point","coordinates":[110.259026,-7.649836]},"properties":{"dataset":"ternak","name":"Peternakan dan Perikanan","subtitle":"Peternakan","padukuhan":"Klangon","address":"Padukuhan Klangon, RT 31 RW 15","facets":["Peternakan"],"details":[{"label":"Pemilik","value":"Supar"},{"label":"Ternak","value":"Kambing"},{"label":"Jumlah","value":"lt10"},{"label":"Penjualan","value":"Dijual sendiri di lokasi"}],"phone":null,"photos":["/photos/ternak/877309837-depan.webp","/photos/ternak/877309837-samping.webp"],"gpsPrecision":4.895}},{"type":"Feature","id":"877309946","geometry":{"type":"Point","coordinates":[110.257465,-7.648575]},"properties":{"dataset":"ternak","name":"Peternakan dan Perikanan","subtitle":"Peternakan","padukuhan":"Klangon","address":"Padukuhan Klangon, RT 31 RW 15","facets":["Peternakan"],"details":[{"label":"Pemilik","value":"Muh Hasim"},{"label":"Ternak","value":"Kambing"},{"label":"Jumlah","value":"lt10"},{"label":"Penjualan","value":"Dijual sendiri di lokasi, Lewat pengepul"}],"phone":null,"photos":["/photos/ternak/877309946-depan.webp","/photos/ternak/877309946-samping.webp"],"gpsPrecision":4.923}},{"type":"Feature","id":"878104917","geometry":{"type":"Point","coordinates":[110.221717,-7.648703]},"properties":{"dataset":"ternak","name":"Peternakan dan Perikanan","subtitle":"Peternakan","padukuhan":"Plengan","address":"Padukuhan Plengan, RT 46 RW 22","facets":["Peternakan"],"details":[{"label":"Pemilik","value":"Suhardi"},{"label":"Ternak","value":"Sapi"},{"label":"Jumlah","value":"lt10"},{"label":"Penjualan","value":"Dijual sendiri di lokasi"}],"phone":null,"photos":["/photos/ternak/878104917-depan.webp","/photos/ternak/878104917-samping.webp"],"gpsPrecision":6.5}},{"type":"Feature","id":"878104946","geometry":{"type":"Point","coordinates":[110.225176,-7.652899]},"properties":{"dataset":"ternak","name":"Peternakan dan Perikanan","subtitle":"Peternakan","padukuhan":"Plengan","address":"Padukuhan Plengan, RT 46 RW 22","facets":["Peternakan"],"details":[{"label":"Pemilik","value":"Edi rusmanto"},{"label":"Ternak","value":"Sapi"},{"label":"Jumlah","value":"lt10"},{"label":"Penjualan","value":"Dijual sendiri di lokasi"}],"phone":null,"photos":["/photos/ternak/878104946-depan.webp","/photos/ternak/878104946-samping.webp"],"gpsPrecision":6}},{"type":"Feature","id":"878104982","geometry":{"type":"Point","coordinates":[110.224806,-7.653042]},"properties":{"dataset":"ternak","name":"Peternakan dan Perikanan","subtitle":"Peternakan","padukuhan":"Plengan","address":"Padukuhan Plengan, RT 46 RW 22","facets":["Peternakan"],"details":[{"label":"Pemilik","value":"Suroto"},{"label":"Ternak","value":"Kambing"},{"label":"Jumlah","value":"lt10"},{"label":"Penjualan","value":"Dijual sendiri di lokasi"}],"phone":null,"photos":["/photos/ternak/878104982-depan.webp","/photos/ternak/878104982-samping.webp","/photos/ternak/878104982-lainnya.webp"],"gpsPrecision":4.968}},{"type":"Feature","id":"878105025","geometry":{"type":"Point","coordinates":[110.22509,-7.653538]},"properties":{"dataset":"ternak","name":"Peternakan dan Perikanan","subtitle":"Peternakan","padukuhan":"Plengan","address":"Padukuhan Plengan, RT 46 RW 22","facets":["Peternakan"],"details":[{"label":"Pemilik","value":"Kismo diharjo"},{"label":"Ternak","value":"Kambing"},{"label":"Jumlah","value":"lt10"},{"label":"Penjualan","value":"Dijual sendiri di lokasi"}],"phone":null,"photos":["/photos/ternak/878105025-depan.webp","/photos/ternak/878105025-samping.webp","/photos/ternak/878105025-lainnya.webp"],"gpsPrecision":4.786}},{"type":"Feature","id":"878105113","geometry":{"type":"Point","coordinates":[110.225012,-7.653734]},"properties":{"dataset":"ternak","name":"Peternakan dan Perikanan","subtitle":"Peternakan","padukuhan":"Plengan","address":"Padukuhan Plengan, RT 46 RW 22","facets":["Peternakan"],"details":[{"label":"Pemilik","value":"Setyo winarto"},{"label":"Ternak","value":"Kambing"},{"label":"Jumlah","value":"lt10"},{"label":"Penjualan","value":"Dijual sendiri di lokasi"}],"phone":null,"photos":["/photos/ternak/878105113-depan.webp","/photos/ternak/878105113-samping.webp","/photos/ternak/878105113-lainnya.webp"],"gpsPrecision":4.861}},{"type":"Feature","id":"878151024","geometry":{"type":"Point","coordinates":[110.260007,-7.671038]},"properties":{"dataset":"ternak","name":"Peternakan dan Perikanan","subtitle":"Peternakan","padukuhan":"Banjaran","address":"Padukuhan Banjaran, RT 11 RW 6","facets":["Peternakan"],"details":[{"label":"Pemilik","value":"Sunardi"},{"label":"Ternak","value":"Kambing"},{"label":"Jumlah","value":"lt10"},{"label":"Penjualan","value":"Dijual sendiri di lokasi"}],"phone":null,"photos":["/photos/ternak/878151024-depan.webp","/photos/ternak/878151024-samping.webp"],"gpsPrecision":4.851}},{"type":"Feature","id":"878151088","geometry":{"type":"Point","coordinates":[110.260056,-7.671067]},"properties":{"dataset":"ternak","name":"Peternakan dan Perikanan","subtitle":"Peternakan","padukuhan":"Banjaran","address":"Padukuhan Banjaran, RT 11 RW 6","facets":["Peternakan"],"details":[{"label":"Pemilik","value":"Sarjono"},{"label":"Ternak","value":"Kambing"},{"label":"Jumlah","value":"lt10"},{"label":"Penjualan","value":"Dijual sendiri di lokasi"}],"phone":null,"photos":["/photos/ternak/878151088-depan.webp","/photos/ternak/878151088-samping.webp"],"gpsPrecision":4.801}},{"type":"Feature","id":"878151206","geometry":{"type":"Point","coordinates":[110.260435,-7.671275]},"properties":{"dataset":"ternak","name":"Peternakan dan Perikanan","subtitle":"Peternakan","padukuhan":"Banjaran","address":"Padukuhan Banjaran, RT 11 RW 6","facets":["Peternakan"],"details":[{"label":"Pemilik","value":"Ervan ahmad effendi"},{"label":"Ternak","value":"Kambing"},{"label":"Jumlah","value":"lt10"},{"label":"Penjualan","value":"Dijual sendiri di lokasi"}],"phone":null,"photos":["/photos/ternak/878151206-depan.webp","/photos/ternak/878151206-samping.webp"],"gpsPrecision":4.286}},{"type":"Feature","id":"878294222","geometry":{"type":"Point","coordinates":[110.249952,-7.661998]},"properties":{"dataset":"ternak","name":"Peternakan dan Perikanan","subtitle":"Peternakan","padukuhan":"Semawung","address":"Padukuhan Semawung, RT 71 RW 34","facets":["Peternakan"],"details":[{"label":"Pemilik","value":"Yohanes Agus Pujianto"},{"label":"Ternak","value":"Kambing, Ayam"},{"label":"Jumlah","value":"lt10"},{"label":"Penjualan","value":"Lewat pengepul, Dijual sendiri di tempat lain"}],"phone":null,"photos":["/photos/ternak/878294222-depan.webp","/photos/ternak/878294222-samping.webp"],"gpsPrecision":4.68}},{"type":"Feature","id":"878294343","geometry":{"type":"Point","coordinates":[110.247433,-7.666267]},"properties":{"dataset":"ternak","name":"Peternakan dan Perikanan","subtitle":"Peternakan","padukuhan":"Semawung","address":"Padukuhan Semawung, RT 70 RW 34","facets":["Peternakan"],"details":[{"label":"Pemilik","value":"Samidi"},{"label":"Ternak","value":"Kambing, Sapi"},{"label":"Jumlah","value":"lt10"},{"label":"Penjualan","value":"Lewat pengepul"}],"phone":null,"photos":["/photos/ternak/878294343-depan.webp","/photos/ternak/878294343-samping.webp"],"gpsPrecision":4.614}},{"type":"Feature","id":"878294694","geometry":{"type":"Point","coordinates":[110.247315,-7.666831]},"properties":{"dataset":"ternak","name":"Peternakan dan Perikanan","subtitle":"Peternakan","padukuhan":"Semawung","address":"Padukuhan Semawung, RT 70 RW 34","facets":["Peternakan"],"details":[{"label":"Pemilik","value":"Sukito"},{"label":"Ternak","value":"Kambing, Sapi"},{"label":"Jumlah","value":"lt10"},{"label":"Penjualan","value":"Lewat pengepul"}],"phone":null,"photos":["/photos/ternak/878294694-depan.webp","/photos/ternak/878294694-samping.webp"],"gpsPrecision":4.632}},{"type":"Feature","id":"878713611","geometry":{"type":"Point","coordinates":[110.252281,-7.647116]},"properties":{"dataset":"ternak","name":"Peternakan dan Perikanan","subtitle":"Peternakan","padukuhan":"Beji","address":"Padukuhan Beji, RT 33 RW 16","facets":["Peternakan"],"details":[{"label":"Pemilik","value":"Pak Warsono"},{"label":"Ternak","value":"Kambing"},{"label":"Jumlah","value":"lt10"},{"label":"Penjualan","value":"Dijual sendiri di lokasi"},{"label":"Keterangan","value":"Kandang pribadi 8 ekor"}],"phone":"0882003592641","photos":["/photos/ternak/878713611-depan.webp","/photos/ternak/878713611-samping.webp"],"gpsPrecision":3.6}},{"type":"Feature","id":"878757141","geometry":{"type":"Point","coordinates":[110.25745,-7.655084]},"properties":{"dataset":"ternak","name":"Peternakan dan Perikanan","subtitle":"Peternakan","padukuhan":"Pranan","address":"Padukuhan Pranan, RT 20 RW 10","facets":["Peternakan"],"details":[{"label":"Pemilik","value":"Astri faeyati"},{"label":"Ternak","value":"Kambing"},{"label":"Jumlah","value":"lt10"},{"label":"Penjualan","value":"Lewat pengepul"}],"phone":null,"photos":["/photos/ternak/878757141-depan.webp","/photos/ternak/878757141-samping.webp"],"gpsPrecision":10.74}},{"type":"Feature","id":"878757150","geometry":{"type":"Point","coordinates":[110.257631,-7.654535]},"properties":{"dataset":"ternak","name":"Peternakan dan Perikanan","subtitle":"Peternakan","padukuhan":"Pranan","address":"Padukuhan Pranan, RT 20 RW 10","facets":["Peternakan"],"details":[{"label":"Pemilik","value":"Tukirin"},{"label":"Ternak","value":"Kambing"},{"label":"Jumlah","value":"lt10"},{"label":"Penjualan","value":"Lewat pengepul"}],"phone":null,"photos":["/photos/ternak/878757150-depan.webp","/photos/ternak/878757150-samping.webp"],"gpsPrecision":12.333}},{"type":"Feature","id":"878757165","geometry":{"type":"Point","coordinates":[110.257764,-7.65469]},"properties":{"dataset":"ternak","name":"Peternakan dan Perikanan","subtitle":"Peternakan","padukuhan":"Pranan","address":"Padukuhan Pranan, RT 20 RW 10","facets":["Peternakan"],"details":[{"label":"Pemilik","value":"Masicun"},{"label":"Ternak","value":"Kambing"},{"label":"Jumlah","value":"lt10"},{"label":"Penjualan","value":"Lewat pengepul"}],"phone":null,"photos":["/photos/ternak/878757165-depan.webp","/photos/ternak/878757165-samping.webp","/photos/ternak/878757165-lainnya.webp"],"gpsPrecision":11.06}},{"type":"Feature","id":"878757176","geometry":{"type":"Point","coordinates":[110.257351,-7.654839]},"properties":{"dataset":"ternak","name":"Peternakan dan Perikanan","subtitle":"Peternakan","padukuhan":"Pranan","address":"Padukuhan Pranan, RT 20 RW 10","facets":["Peternakan"],"details":[{"label":"Pemilik","value":"Kartugi"},{"label":"Ternak","value":"Kambing"},{"label":"Jumlah","value":"1025"},{"label":"Penjualan","value":"Dijual sendiri di lokasi"}],"phone":null,"photos":["/photos/ternak/878757176-depan.webp","/photos/ternak/878757176-samping.webp"],"gpsPrecision":11.05}},{"type":"Feature","id":"878757192","geometry":{"type":"Point","coordinates":[110.25737,-7.654742]},"properties":{"dataset":"ternak","name":"Peternakan dan Perikanan","subtitle":"Peternakan","padukuhan":"Pranan","address":"Padukuhan Pranan, RT 20 RW 10","facets":["Peternakan"],"details":[{"label":"Pemilik","value":"Moib subekti"},{"label":"Ternak","value":"Kambing"},{"label":"Jumlah","value":"lt10"},{"label":"Penjualan","value":"Dijual sendiri di lokasi"}],"phone":null,"photos":["/photos/ternak/878757192-depan.webp","/photos/ternak/878757192-samping.webp"],"gpsPrecision":11.4}},{"type":"Feature","id":"878758015","geometry":{"type":"Point","coordinates":[110.227837,-7.667834]},"properties":{"dataset":"ternak","name":"Peternakan dan Perikanan","subtitle":"Peternakan","padukuhan":"Semagung","address":"Padukuhan Semagung, RT 63 RW 30","facets":["Peternakan"],"details":[{"label":"Pemilik","value":"sumaryanto"},{"label":"Ternak","value":"Kambing, Sapi"},{"label":"Jumlah","value":"lt10"},{"label":"Penjualan","value":"Dijual sendiri di lokasi"}],"phone":null,"photos":["/photos/ternak/878758015-depan.webp","/photos/ternak/878758015-samping.webp"],"gpsPrecision":23.405}},{"type":"Feature","id":"878758040","geometry":{"type":"Point","coordinates":[110.226956,-7.667312]},"properties":{"dataset":"ternak","name":"Peternakan dan Perikanan","subtitle":"Peternakan","padukuhan":"Semagung","address":"Padukuhan Semagung, RT 63 RW 30","facets":["Peternakan"],"details":[{"label":"Pemilik","value":"Yohanes sukarman rusdiyanto"},{"label":"Ternak","value":"Sapi, Kambing"},{"label":"Jumlah","value":"lt10"},{"label":"Penjualan","value":"Dijual sendiri di lokasi"}],"phone":null,"photos":["/photos/ternak/878758040-depan.webp","/photos/ternak/878758040-samping.webp"],"gpsPrecision":33.556}},{"type":"Feature","id":"878758056","geometry":{"type":"Point","coordinates":[110.227332,-7.66735]},"properties":{"dataset":"ternak","name":"Peternakan dan Perikanan","subtitle":"Peternakan","padukuhan":"Semagung","address":"Padukuhan Semagung, RT 63 RW 30","facets":["Peternakan"],"details":[{"label":"Pemilik","value":"puji martomo"},{"label":"Ternak","value":"Kambing, Sapi"},{"label":"Jumlah","value":"lt10"},{"label":"Penjualan","value":"Dijual sendiri di lokasi"}],"phone":null,"photos":["/photos/ternak/878758056-depan.webp","/photos/ternak/878758056-samping.webp"],"gpsPrecision":42.191}},{"type":"Feature","id":"878758073","geometry":{"type":"Point","coordinates":[110.228826,-7.667257]},"properties":{"dataset":"ternak","name":"Peternakan dan Perikanan","subtitle":"Peternakan","padukuhan":"Semagung","address":"Padukuhan Semagung, RT 62 RW 30","facets":["Peternakan"],"details":[{"label":"Pemilik","value":"lusia ranti"},{"label":"Ternak","value":"Kambing, Sapi"},{"label":"Jumlah","value":"lt10"},{"label":"Penjualan","value":"Dijual sendiri di lokasi"}],"phone":null,"photos":["/photos/ternak/878758073-depan.webp","/photos/ternak/878758073-samping.webp"],"gpsPrecision":9.314}},{"type":"Feature","id":"878758098","geometry":{"type":"Point","coordinates":[110.229721,-7.666933]},"properties":{"dataset":"ternak","name":"Peternakan dan Perikanan","subtitle":"Peternakan","padukuhan":"Semagung","address":"Padukuhan Semagung, RT 62 RW 30","facets":["Peternakan"],"details":[{"label":"Pemilik","value":"wakidi"},{"label":"Ternak","value":"Kambing"},{"label":"Jumlah","value":"lt10"},{"label":"Penjualan","value":"Dijual sendiri di lokasi"}],"phone":null,"photos":["/photos/ternak/878758098-depan.webp","/photos/ternak/878758098-samping.webp"],"gpsPrecision":8.24}},{"type":"Feature","id":"878758112","geometry":{"type":"Point","coordinates":[110.229395,-7.666705]},"properties":{"dataset":"ternak","name":"Peternakan dan Perikanan","subtitle":"Peternakan","padukuhan":"Semagung","address":"Padukuhan Semagung, RT 62 RW 30","facets":["Peternakan"],"details":[{"label":"Pemilik","value":"sarnadi"},{"label":"Ternak","value":"Kambing"},{"label":"Jumlah","value":"lt10"},{"label":"Penjualan","value":"Dijual sendiri di lokasi"}],"phone":null,"photos":["/photos/ternak/878758112-depan.webp","/photos/ternak/878758112-samping.webp"],"gpsPrecision":39.715}},{"type":"Feature","id":"878758179","geometry":{"type":"Point","coordinates":[110.22894,-7.665713]},"properties":{"dataset":"ternak","name":"Peternakan dan Perikanan","subtitle":"Peternakan","padukuhan":"Semagung","address":"Padukuhan Semagung, RT 62 RW 30","facets":["Peternakan"],"details":[{"label":"Pemilik","value":"karjana"},{"label":"Ternak","value":"Kambing"},{"label":"Jumlah","value":"lt10"},{"label":"Penjualan","value":"Dijual sendiri di lokasi"}],"phone":null,"photos":["/photos/ternak/878758179-depan.webp","/photos/ternak/878758179-samping.webp"],"gpsPrecision":13.089}},{"type":"Feature","id":"878758189","geometry":{"type":"Point","coordinates":[110.228412,-7.665996]},"properties":{"dataset":"ternak","name":"Peternakan dan Perikanan","subtitle":"Peternakan","padukuhan":"Semagung","address":"Padukuhan Semagung, RT 62 RW 30","facets":["Peternakan"],"details":[{"label":"Pemilik","value":"suharjo"},{"label":"Ternak","value":"Kambing, Sapi"},{"label":"Jumlah","value":"lt10"},{"label":"Penjualan","value":"Dijual sendiri di lokasi"}],"phone":null,"photos":["/photos/ternak/878758189-depan.webp","/photos/ternak/878758189-samping.webp"],"gpsPrecision":13.367}},{"type":"Feature","id":"879016127","geometry":{"type":"Point","coordinates":[110.256527,-7.64613]},"properties":{"dataset":"ternak","name":"Peternakan dan Perikanan","subtitle":"Peternakan","padukuhan":"Klangon","address":"Padukuhan Klangon, RT 29 RW 14","facets":["Peternakan"],"details":[{"label":"Pemilik","value":"Muhammad Syafiq"},{"label":"Ternak","value":"Kambing"},{"label":"Jumlah","value":"lt10"},{"label":"Penjualan","value":"Dijual sendiri di lokasi"}],"phone":null,"photos":["/photos/ternak/879016127-depan.webp","/photos/ternak/879016127-samping.webp"],"gpsPrecision":5}},{"type":"Feature","id":"879016258","geometry":{"type":"Point","coordinates":[110.256337,-7.646492]},"properties":{"dataset":"ternak","name":"Peternakan dan Perikanan","subtitle":"Peternakan","padukuhan":"Klangon","address":"Padukuhan Klangon, RT 29 RW 14","facets":["Peternakan"],"details":[{"label":"Pemilik","value":"Sumawan"},{"label":"Ternak","value":"Kambing"},{"label":"Jumlah","value":"lt10"},{"label":"Penjualan","value":"Dijual sendiri di tempat lain"}],"phone":null,"photos":["/photos/ternak/879016258-depan.webp","/photos/ternak/879016258-samping.webp","/photos/ternak/879016258-lainnya.webp"],"gpsPrecision":5}},{"type":"Feature","id":"879016278","geometry":{"type":"Point","coordinates":[110.256194,-7.6461]},"properties":{"dataset":"ternak","name":"Peternakan dan Perikanan","subtitle":"Peternakan","padukuhan":"Klangon","address":"Padukuhan Klangon, RT 29 RW 14","facets":["Peternakan"],"details":[{"label":"Pemilik","value":"Rahman ashuri"},{"label":"Ternak","value":"Kambing"},{"label":"Jumlah","value":"lt10"},{"label":"Penjualan","value":"Dijual sendiri di tempat lain"}],"phone":null,"photos":["/photos/ternak/879016278-depan.webp","/photos/ternak/879016278-samping.webp"],"gpsPrecision":4.519}},{"type":"Feature","id":"879017910","geometry":{"type":"Point","coordinates":[110.255698,-7.646408]},"properties":{"dataset":"ternak","name":"Peternakan dan Perikanan","subtitle":"Peternakan","padukuhan":"Klangon","address":"Padukuhan Klangon, RT 29 RW 14","facets":["Peternakan"],"details":[{"label":"Pemilik","value":"Taryono"},{"label":"Ternak","value":"Sapi"},{"label":"Jumlah","value":"lt10"},{"label":"Penjualan","value":"Dijual sendiri di lokasi"}],"phone":null,"photos":["/photos/ternak/879017910-depan.webp","/photos/ternak/879017910-samping.webp"],"gpsPrecision":4.766}},{"type":"Feature","id":"879018318","geometry":{"type":"Point","coordinates":[110.255665,-7.646037]},"properties":{"dataset":"ternak","name":"Peternakan dan Perikanan","subtitle":"Peternakan","padukuhan":"Klangon","address":"Padukuhan Klangon, RT 29 RW 14","facets":["Peternakan"],"details":[{"label":"Pemilik","value":"Seriyanti"},{"label":"Ternak","value":"Sapi"},{"label":"Jumlah","value":"lt10"},{"label":"Penjualan","value":"Lewat pengepul, Dijual sendiri di tempat lain"}],"phone":null,"photos":["/photos/ternak/879018318-depan.webp","/photos/ternak/879018318-samping.webp"],"gpsPrecision":7.55}},{"type":"Feature","id":"879018343","geometry":{"type":"Point","coordinates":[110.255595,-7.646375]},"properties":{"dataset":"ternak","name":"Peternakan dan Perikanan","subtitle":"Peternakan","padukuhan":"Klangon","address":"Padukuhan Klangon, RT 29 RW 14","facets":["Peternakan"],"details":[{"label":"Pemilik","value":"Mujiono"},{"label":"Ternak","value":"Sapi"},{"label":"Jumlah","value":"lt10"},{"label":"Penjualan","value":"Lewat pengepul"}],"phone":null,"photos":["/photos/ternak/879018343-depan.webp","/photos/ternak/879018343-samping.webp","/photos/ternak/879018343-lainnya.webp"],"gpsPrecision":4.737}},{"type":"Feature","id":"879018370","geometry":{"type":"Point","coordinates":[110.255423,-7.646315]},"properties":{"dataset":"ternak","name":"Peternakan dan Perikanan","subtitle":"Peternakan","padukuhan":"Klangon","address":"Padukuhan Klangon, RT 29 RW 14","facets":["Peternakan"],"details":[{"label":"Pemilik","value":"Kamaludin"},{"label":"Ternak","value":"Kambing"},{"label":"Jumlah","value":"lt10"},{"label":"Penjualan","value":"Lewat pengepul"}],"phone":null,"photos":["/photos/ternak/879018370-depan.webp","/photos/ternak/879018370-samping.webp"],"gpsPrecision":4.8}},{"type":"Feature","id":"879018393","geometry":{"type":"Point","coordinates":[110.255182,-7.646362]},"properties":{"dataset":"ternak","name":"Peternakan dan Perikanan","subtitle":"Peternakan","padukuhan":"Klangon","address":"Padukuhan Klangon, RT 29 RW 14","facets":["Peternakan"],"details":[{"label":"Pemilik","value":"Khoiri"},{"label":"Ternak","value":"Kambing"},{"label":"Jumlah","value":"lt10"},{"label":"Penjualan","value":"Dijual sendiri di tempat lain"}],"phone":null,"photos":["/photos/ternak/879018393-depan.webp","/photos/ternak/879018393-samping.webp"],"gpsPrecision":8.723}},{"type":"Feature","id":"879018411","geometry":{"type":"Point","coordinates":[110.255798,-7.6453]},"properties":{"dataset":"ternak","name":"Peternakan dan Perikanan","subtitle":"Peternakan","padukuhan":"Klangon","address":"Padukuhan Klangon, RT 29 RW 14","facets":["Peternakan"],"details":[{"label":"Pemilik","value":"Tasliman"},{"label":"Ternak","value":"Sapi"},{"label":"Jumlah","value":"lt10"},{"label":"Penjualan","value":"Lewat pengepul"}],"phone":null,"photos":["/photos/ternak/879018411-depan.webp","/photos/ternak/879018411-samping.webp"],"gpsPrecision":6.145}},{"type":"Feature","id":"879018430","geometry":{"type":"Point","coordinates":[110.256255,-7.64536]},"properties":{"dataset":"ternak","name":"Peternakan dan Perikanan","subtitle":"Peternakan","padukuhan":"Klangon","address":"Padukuhan Klangon, RT 29 RW 14","facets":["Peternakan"],"details":[{"label":"Pemilik","value":"Musdi"},{"label":"Ternak","value":"Kambing"},{"label":"Jumlah","value":"lt10"},{"label":"Penjualan","value":"Lewat pengepul"}],"phone":null,"photos":["/photos/ternak/879018430-depan.webp","/photos/ternak/879018430-samping.webp"],"gpsPrecision":7.2}},{"type":"Feature","id":"879018457","geometry":{"type":"Point","coordinates":[110.257009,-7.647135]},"properties":{"dataset":"ternak","name":"Peternakan dan Perikanan","subtitle":"Peternakan","padukuhan":"Klangon","address":"Padukuhan Klangon, RT 30 RW 15","facets":["Peternakan"],"details":[{"label":"Pemilik","value":"Kabisem"},{"label":"Ternak","value":"Kambing"},{"label":"Jumlah","value":"lt10"},{"label":"Penjualan","value":"Dijual sendiri di tempat lain"}],"phone":null,"photos":["/photos/ternak/879018457-depan.webp","/photos/ternak/879018457-samping.webp","/photos/ternak/879018457-lainnya.webp"],"gpsPrecision":7.443}},{"type":"Feature","id":"879018480","geometry":{"type":"Point","coordinates":[110.256259,-7.647629]},"properties":{"dataset":"ternak","name":"Peternakan dan Perikanan","subtitle":"Peternakan","padukuhan":"Klangon","address":"Padukuhan Klangon, RT 30 RW 15","facets":["Peternakan"],"details":[{"label":"Pemilik","value":"Alwan"},{"label":"Ternak","value":"Kambing"},{"label":"Jumlah","value":"lt10"},{"label":"Penjualan","value":"Lewat pengepul"}],"phone":null,"photos":["/photos/ternak/879018480-depan.webp","/photos/ternak/879018480-samping.webp"],"gpsPrecision":5.696}},{"type":"Feature","id":"879018489","geometry":{"type":"Point","coordinates":[110.257755,-7.646923]},"properties":{"dataset":"ternak","name":"Peternakan dan Perikanan","subtitle":"Peternakan","padukuhan":"Klangon","address":"Padukuhan Klangon, RT 30 RW 15","facets":["Peternakan"],"details":[{"label":"Pemilik","value":"Nurohim"},{"label":"Ternak","value":"Kambing"},{"label":"Jumlah","value":"lt10"},{"label":"Penjualan","value":"Lewat pengepul"}],"phone":null,"photos":["/photos/ternak/879018489-depan.webp","/photos/ternak/879018489-samping.webp"],"gpsPrecision":5.05}},{"type":"Feature","id":"879018512","geometry":{"type":"Point","coordinates":[110.257609,-7.647778]},"properties":{"dataset":"ternak","name":"Peternakan dan Perikanan","subtitle":"Peternakan","padukuhan":"Klangon","address":"Padukuhan Klangon, RT 31 RW 15","facets":["Peternakan"],"details":[{"label":"Pemilik","value":"Jauhari"},{"label":"Ternak","value":"Kambing"},{"label":"Jumlah","value":"lt10"},{"label":"Penjualan","value":"Lewat pengepul, Dijual sendiri di lokasi"}],"phone":null,"photos":["/photos/ternak/879018512-depan.webp","/photos/ternak/879018512-samping.webp"],"gpsPrecision":3.9}},{"type":"Feature","id":"879020421","geometry":{"type":"Point","coordinates":[110.257965,-7.647789]},"properties":{"dataset":"ternak","name":"Peternakan dan Perikanan","subtitle":"Peternakan","padukuhan":"Klangon","address":"Padukuhan Klangon, RT 31 RW 15","facets":["Peternakan"],"details":[{"label":"Pemilik","value":"Gimen Bramiyanti"},{"label":"Ternak","value":"Kambing"},{"label":"Jumlah","value":"lt10"},{"label":"Penjualan","value":"Dijual sendiri di lokasi, Lewat pengepul"}],"phone":null,"photos":["/photos/ternak/879020421-depan.webp","/photos/ternak/879020421-samping.webp"],"gpsPrecision":4.5}},{"type":"Feature","id":"879020635","geometry":{"type":"Point","coordinates":[110.258417,-7.647275]},"properties":{"dataset":"ternak","name":"Peternakan dan Perikanan","subtitle":"Peternakan","padukuhan":"Klangon","address":"Padukuhan Klangon, RT 30 RW 15","facets":["Peternakan"],"details":[{"label":"Pemilik","value":"Sholeh"},{"label":"Ternak","value":"Sapi"},{"label":"Jumlah","value":"lt10"},{"label":"Penjualan","value":"Dijual sendiri di lokasi, Lewat pengepul"}],"phone":null,"photos":["/photos/ternak/879020635-depan.webp","/photos/ternak/879020635-samping.webp"],"gpsPrecision":4.825}},{"type":"Feature","id":"879020778","geometry":{"type":"Point","coordinates":[110.258592,-7.646248]},"properties":{"dataset":"ternak","name":"Peternakan dan Perikanan","subtitle":"Peternakan","padukuhan":"Klangon","address":"Padukuhan Klangon, RT 30 RW 15","facets":["Peternakan"],"details":[{"label":"Pemilik","value":"Pujiyanto"},{"label":"Ternak","value":"Kambing"},{"label":"Jumlah","value":"lt10"},{"label":"Penjualan","value":"Dijual sendiri di lokasi, Lewat pengepul"}],"phone":null,"photos":["/photos/ternak/879020778-depan.webp","/photos/ternak/879020778-samping.webp"],"gpsPrecision":4.1}},{"type":"Feature","id":"879020825","geometry":{"type":"Point","coordinates":[110.258415,-7.646377]},"properties":{"dataset":"ternak","name":"Peternakan dan Perikanan","subtitle":"Peternakan","padukuhan":"Klangon","address":"Padukuhan Klangon, RT 30 RW 15","facets":["Peternakan"],"details":[{"label":"Pemilik","value":"Manan"},{"label":"Ternak","value":"Kambing"},{"label":"Jumlah","value":"lt10"},{"label":"Penjualan","value":"Dijual sendiri di lokasi, Lewat pengepul"}],"phone":null,"photos":["/photos/ternak/879020825-depan.webp","/photos/ternak/879020825-samping.webp"],"gpsPrecision":3.4}},{"type":"Feature","id":"879020893","geometry":{"type":"Point","coordinates":[110.258222,-7.646758]},"properties":{"dataset":"ternak","name":"Peternakan dan Perikanan","subtitle":"Peternakan","padukuhan":"Klangon","address":"Padukuhan Klangon, RT 30 RW 15","facets":["Peternakan"],"details":[{"label":"Pemilik","value":"Muh Rochid"},{"label":"Ternak","value":"Kambing"},{"label":"Jumlah","value":"lt10"},{"label":"Penjualan","value":"Dijual sendiri di tempat lain, Dijual sendiri di lokasi"}],"phone":null,"photos":["/photos/ternak/879020893-depan.webp","/photos/ternak/879020893-samping.webp"],"gpsPrecision":4.45}},{"type":"Feature","id":"879020932","geometry":{"type":"Point","coordinates":[110.25505,-7.645985]},"properties":{"dataset":"ternak","name":"Peternakan dan Perikanan","subtitle":"Peternakan","padukuhan":"Klangon","address":"Padukuhan Klangon, RT 29 RW 14","facets":["Peternakan"],"details":[{"label":"Pemilik","value":"Susilo"},{"label":"Ternak","value":"Kambing"},{"label":"Jumlah","value":"lt10"},{"label":"Penjualan","value":"Dijual sendiri di lokasi, Lewat pengepul"}],"phone":null,"photos":["/photos/ternak/879020932-depan.webp","/photos/ternak/879020932-samping.webp"],"gpsPrecision":4.444}},{"type":"Feature","id":"879020983","geometry":{"type":"Point","coordinates":[110.254914,-7.646097]},"properties":{"dataset":"ternak","name":"Peternakan dan Perikanan","subtitle":"Peternakan","padukuhan":"Klangon","address":"Padukuhan Klangon, RT 29 RW 15","facets":["Peternakan"],"details":[{"label":"Pemilik","value":"Muh Fauzan"},{"label":"Ternak","value":"Kambing"},{"label":"Jumlah","value":"lt10"},{"label":"Penjualan","value":"Lewat pengepul, Dijual sendiri di lokasi"}],"phone":null,"photos":["/photos/ternak/879020983-depan.webp","/photos/ternak/879020983-samping.webp"],"gpsPrecision":4.815}},{"type":"Feature","id":"879021029","geometry":{"type":"Point","coordinates":[110.254766,-7.646064]},"properties":{"dataset":"ternak","name":"Peternakan dan Perikanan","subtitle":"Peternakan","padukuhan":"Klangon","address":"Padukuhan Klangon, RT 29 RW 15","facets":["Peternakan"],"details":[{"label":"Pemilik","value":"Kelik Samsudin"},{"label":"Ternak","value":"Kambing"},{"label":"Jumlah","value":"lt10"},{"label":"Penjualan","value":"Lewat pengepul, Dijual sendiri di lokasi, Dijual sendiri di tempat lain"}],"phone":null,"photos":["/photos/ternak/879021029-depan.webp","/photos/ternak/879021029-samping.webp"],"gpsPrecision":4.6}},{"type":"Feature","id":"879021154","geometry":{"type":"Point","coordinates":[110.254946,-7.645735]},"properties":{"dataset":"ternak","name":"Peternakan dan Perikanan","subtitle":"Peternakan","padukuhan":"Klangon","address":"Padukuhan Klangon, RT 29 RW 14","facets":["Peternakan"],"details":[{"label":"Pemilik","value":"Muh Haimin"},{"label":"Ternak","value":"Kambing"},{"label":"Jumlah","value":"lt10"},{"label":"Penjualan","value":"Dijual sendiri di lokasi, Dijual sendiri di tempat lain"}],"phone":null,"photos":["/photos/ternak/879021154-depan.webp","/photos/ternak/879021154-samping.webp"],"gpsPrecision":4.344}},{"type":"Feature","id":"879021307","geometry":{"type":"Point","coordinates":[110.257277,-7.647008]},"properties":{"dataset":"ternak","name":"Peternakan dan Perikanan","subtitle":"Peternakan","padukuhan":"Klangon","address":"Padukuhan Klangon, RT 30 RW 15","facets":["Peternakan"],"details":[{"label":"Pemilik","value":"Kozin"},{"label":"Ternak","value":"Kambing"},{"label":"Jumlah","value":"lt10"},{"label":"Penjualan","value":"Dijual sendiri di lokasi, Lewat pengepul"}],"phone":null,"photos":["/photos/ternak/879021307-depan.webp","/photos/ternak/879021307-samping.webp"],"gpsPrecision":4.7}},{"type":"Feature","id":"879032427","geometry":{"type":"Point","coordinates":[110.232,-7.654932]},"properties":{"dataset":"ternak","name":"Peternakan dan Perikanan","subtitle":"Peternakan","padukuhan":"Dlingseng","address":"Padukuhan Dlingseng, RT 43 RW 21","facets":["Peternakan"],"details":[{"label":"Pemilik","value":"Hartoyo"},{"label":"Ternak","value":"Kambing, Sapi"},{"label":"Jumlah","value":"lt10"},{"label":"Penjualan","value":"Lewat pengepul"}],"phone":null,"photos":["/photos/ternak/879032427-depan.webp","/photos/ternak/879032427-samping.webp"],"gpsPrecision":4.954}},{"type":"Feature","id":"879032564","geometry":{"type":"Point","coordinates":[110.232298,-7.654932]},"properties":{"dataset":"ternak","name":"Peternakan dan Perikanan","subtitle":"Peternakan","padukuhan":"Dlingseng","address":"Padukuhan Dlingseng, RT 43 RW 21","facets":["Peternakan"],"details":[{"label":"Pemilik","value":"Buang Heliedi"},{"label":"Ternak","value":"Kambing"},{"label":"Jumlah","value":"lt10"},{"label":"Penjualan","value":"Lewat pengepul"}],"phone":null,"photos":["/photos/ternak/879032564-depan.webp","/photos/ternak/879032564-samping.webp"],"gpsPrecision":4.659}}]}